{
"type": "FeatureCollection",
"name": "parsed",
"crs": { "type": "name", "properties": { "name": "urn:ogc:def:crs:OGC:1.3:CRS84" } },
"xy_coordinate_resolution": 1e-07,
"features": [
{"type":"Feature","properties":{"felt:feature":1,"name":"CV-fotografering","felt:color":"#C93535","felt:id":"JTHajZCJTaKdyhkLt7uN9BD","felt:locked":false,"felt:ordering":1787996236298531,"felt:showArea":false,"felt:type":"Polygon"},"geometry":{"type":"MultiPolygon","coordinates":[[[[15.5790266,58.4020181],[15.5791797,58.4020181],[15.5791797,58.4020826],[15.5790266,58.4020826],[15.5790266,58.4020181]]]]}},
{"type":"Feature","properties":{"felt:feature":2,"name":"Studentlounge","felt:color":"#C93535","felt:id":"vRjA3bcHTGWGYSA8jmDhMA","felt:locked":false,"felt:ordering":1787996440783440,"felt:showArea":false,"felt:type":"Polygon"},"geometry":{"type":"MultiPolygon","coordinates":[[[[15.5788738,58.4020828],[15.5790269,58.4020828],[15.5790269,58.4022113],[15.5788738,58.4022113],[15.5788738,58.4020828]]]]}},
{"type":"Feature","properties":{"felt:feature":3,"name":"Studentlounge","felt:color":"#C93535","felt:id":"PTgzqMLBQm2tzOjCCoe2zC","felt:locked":false,"felt:ordering":1787996465870512,"felt:showArea":false,"felt:type":"Polygon"},"geometry":{"type":"MultiPolygon","coordinates":[[[[15.5786647,58.402147],[15.5788178,58.402147],[15.5788178,58.4022115],[15.5786647,58.4022115],[15.5786647,58.402147]]]]}},
{"type":"Feature","properties":{"felt:feature":4,"name":"Studentgarderob","felt:color":"#C93535","felt:id":"f9CxB7y2OT5KbyVCVlqQCBB","felt:locked":false,"felt:ordering":1787996491423585,"felt:showArea":false,"felt:type":"Polygon"},"geometry":{"type":"MultiPolygon","coordinates":[[[[15.5781515,58.4019534],[15.5783046,58.4019534],[15.5783046,58.4020179],[15.5781515,58.4020179],[15.5781515,58.4019534]]]]}},
{"type":"Feature","properties":{"felt:feature":5,"name":"Skönhetslounge","felt:color":"#C93535","felt:id":"EqriE9An9BRWeZFwtEjhwGeA","felt:locked":false,"felt:ordering":1787996516757940,"felt:showArea":false,"felt:type":"Polygon"},"geometry":{"type":"MultiPolygon","coordinates":[[[[15.5798176,58.4018064],[15.5798393,58.4017432],[15.5800234,58.4017607],[15.5800017,58.4018239],[15.5798176,58.4018064]]]]}},
{"type":"Feature","properties":{"felt:feature":6,"name":"Skönhetslounge","felt:color":"#C93535","felt:id":"oLEYqiX3TG9BRWcW5PzPiSC","felt:locked":false,"felt:ordering":1787996526362136,"felt:showArea":false,"felt:type":"Polygon"},"geometry":{"type":"MultiPolygon","coordinates":[[[[15.5798393,58.4017432],[15.579861,58.4016801],[15.580045,58.4016975],[15.5800234,58.4017607],[15.5798393,58.4017432]]]]}},
{"type":"Feature","properties":{"felt:feature":7,"name":"Företagsgarderob","felt:color":"#C93535","felt:id":"3AZgVus4Ty2fY9Adok1vwOC","felt:locked":false,"felt:ordering":1787996535625038,"felt:showArea":false,"felt:type":"Polygon"},"geometry":{"type":"MultiPolygon","coordinates":[[[[15.5795935,58.4017199],[15.579615,58.4016567],[15.5797995,58.4016738],[15.5797774,58.4017374],[15.5795935,58.4017199]]]]}},
{"type":"Feature","properties":{"felt:feature":8,"name":"Företagslounge","felt:color":"#C93535","felt:id":"ni5II3clTv2PTTsDr2BQ6A","felt:locked":false,"felt:ordering":1787996549105717,"felt:showArea":false,"felt:type":"Polygon"},"geometry":{"type":"MultiPolygon","coordinates":[[[[15.5799,58.4015716],[15.5799299,58.4014831],[15.580114,58.4015003],[15.580085,58.4015889],[15.5799,58.4015716]]]]}},
{"type":"Feature","properties":{"felt:feature":9,"name":"Företagslounge","felt:color":"#C93535","felt:id":"Jl9BWgtUESNuqIGUAbUPXLC","felt:locked":false,"felt:ordering":1787996558901511,"felt:showArea":false,"felt:type":"Polygon"},"geometry":{"type":"MultiPolygon","coordinates":[[[[15.5796609,58.4015602],[15.5796948,58.4014609],[15.5798769,58.4014781],[15.5798431,58.4015769],[15.5796609,58.4015602]]]]}}
]
}
