{
"type": "FeatureCollection",
"name": "parsed",
"crs": { "type": "name", "properties": { "name": "urn:ogc:def:crs:OGC:1.3:CRS84" } },
"xy_coordinate_resolution": 1e-07,
"features": [
{"type":"Feature","properties":{"felt:feature":1,"felt:color":"#C93535","felt:hasLongDescription":false,"felt:id":"NJlHUicjQ39B0vnHjuLV7ZD","felt:locked":false,"felt:ordering":1788104010882017,"felt:radiusDisplayAngle":90,"felt:showArea":false,"felt:type":"Polygon","felt:widthScale":1,"id":25},"geometry":{"type":"MultiPolygon","coordinates":[[[[15.5782559,58.4016988],[15.5782534,58.4016987],[15.5782509,58.4016985],[15.5782484,58.4016982],[15.578246,58.4016978],[15.5782438,58.4016972],[15.5782416,58.4016965],[15.5782396,58.4016957],[15.5782377,58.4016948],[15.578236,58.4016939],[15.5782345,58.4016928],[15.5782332,58.4016917],[15.5782321,58.4016905],[15.5782313,58.4016892],[15.5782306,58.4016879],[15.5782303,58.4016866],[15.5782302,58.4016853],[15.5782303,58.401684],[15.5782306,58.4016827],[15.5782313,58.4016814],[15.5782321,58.4016801],[15.5782332,58.4016789],[15.5782345,58.4016778],[15.578236,58.4016767],[15.5782377,58.4016758],[15.5782396,58.4016749],[15.5782416,58.4016741],[15.5782438,58.4016734],[15.578246,58.4016728],[15.5782484,58.4016724],[15.5782509,58.4016721],[15.5782534,58.4016719],[15.5782559,58.4016718],[15.5782584,58.4016719],[15.5782609,58.4016721],[15.5782634,58.4016724],[15.5782658,58.4016728],[15.578268,58.4016734],[15.5782702,58.4016741],[15.5782722,58.4016749],[15.5782741,58.4016758],[15.5782758,58.4016767],[15.5782773,58.4016778],[15.5782786,58.4016789],[15.5782797,58.4016801],[15.5782805,58.4016814],[15.5782812,58.4016827],[15.5782815,58.401684],[15.5782816,58.4016853],[15.5782815,58.4016866],[15.5782812,58.4016879],[15.5782805,58.4016892],[15.5782797,58.4016905],[15.5782786,58.4016917],[15.5782773,58.4016928],[15.5782758,58.4016939],[15.5782741,58.4016948],[15.5782722,58.4016957],[15.5782702,58.4016965],[15.578268,58.4016972],[15.5782658,58.4016978],[15.5782634,58.4016982],[15.5782609,58.4016985],[15.5782584,58.4016987],[15.5782559,58.4016988]]]]}},
{"type":"Feature","properties":{"felt:feature":2,"felt:color":"#C93535","felt:hasLongDescription":null,"felt:id":"OUyKX7k9CRHepQMxGl0XZRA","felt:locked":false,"felt:ordering":1788104014621587,"felt:radiusDisplayAngle":90,"felt:showArea":false,"felt:type":"Polygon","felt:widthScale":1,"id":23},"geometry":{"type":"MultiPolygon","coordinates":[[[[15.5782766,58.4017957],[15.5782741,58.4017956],[15.5782716,58.4017954],[15.5782691,58.4017951],[15.5782667,58.4017947],[15.5782645,58.4017941],[15.5782623,58.4017934],[15.5782603,58.4017926],[15.5782584,58.4017917],[15.5782567,58.4017908],[15.5782552,58.4017897],[15.5782539,58.4017886],[15.5782528,58.4017874],[15.578252,58.4017861],[15.5782513,58.4017848],[15.578251,58.4017835],[15.5782509,58.4017822],[15.578251,58.4017809],[15.5782513,58.4017796],[15.578252,58.4017783],[15.5782528,58.401777],[15.5782539,58.4017758],[15.5782552,58.4017747],[15.5782567,58.4017736],[15.5782584,58.4017727],[15.5782603,58.4017718],[15.5782623,58.401771],[15.5782645,58.4017703],[15.5782667,58.4017697],[15.5782691,58.4017693],[15.5782716,58.401769],[15.5782741,58.4017688],[15.5782766,58.4017687],[15.5782791,58.4017688],[15.5782816,58.401769],[15.5782841,58.4017693],[15.5782865,58.4017697],[15.5782887,58.4017703],[15.5782909,58.401771],[15.5782929,58.4017718],[15.5782948,58.4017727],[15.5782965,58.4017736],[15.578298,58.4017747],[15.5782993,58.4017758],[15.5783004,58.401777],[15.5783012,58.4017783],[15.5783019,58.4017796],[15.5783022,58.4017809],[15.5783023,58.4017822],[15.5783022,58.4017835],[15.5783019,58.4017848],[15.5783012,58.4017861],[15.5783004,58.4017874],[15.5782993,58.4017886],[15.578298,58.4017897],[15.5782965,58.4017908],[15.5782948,58.4017917],[15.5782929,58.4017926],[15.5782909,58.4017934],[15.5782887,58.4017941],[15.5782865,58.4017947],[15.5782841,58.4017951],[15.5782816,58.4017954],[15.5782791,58.4017956],[15.5782766,58.4017957]]]]}},
{"type":"Feature","properties":{"felt:feature":3,"felt:color":"#C93535","felt:hasLongDescription":null,"felt:id":"QywKjcDpTIukc9A4Frz60YA","felt:locked":false,"felt:ordering":1788104024094845,"felt:radiusDisplayAngle":90,"felt:showArea":false,"felt:type":"Polygon","felt:widthScale":1,"id":22},"geometry":{"type":"MultiPolygon","coordinates":[[[[15.5783032,58.4018308],[15.5783007,58.4018307],[15.5782982,58.4018305],[15.5782957,58.4018302],[15.5782933,58.4018298],[15.5782911,58.4018292],[15.5782889,58.4018285],[15.5782869,58.4018277],[15.578285,58.4018268],[15.5782833,58.4018259],[15.5782818,58.4018248],[15.5782805,58.4018237],[15.5782794,58.4018225],[15.5782786,58.4018212],[15.5782779,58.4018199],[15.5782776,58.4018186],[15.5782775,58.4018173],[15.5782776,58.401816],[15.5782779,58.4018147],[15.5782786,58.4018134],[15.5782794,58.4018121],[15.5782805,58.4018109],[15.5782818,58.4018098],[15.5782833,58.4018087],[15.578285,58.4018078],[15.5782869,58.4018069],[15.5782889,58.4018061],[15.5782911,58.4018054],[15.5782933,58.4018048],[15.5782957,58.4018044],[15.5782982,58.4018041],[15.5783007,58.4018039],[15.5783032,58.4018038],[15.5783057,58.4018039],[15.5783082,58.4018041],[15.5783107,58.4018044],[15.5783131,58.4018048],[15.5783153,58.4018054],[15.5783175,58.4018061],[15.5783195,58.4018069],[15.5783214,58.4018078],[15.5783231,58.4018087],[15.5783246,58.4018098],[15.5783259,58.4018109],[15.578327,58.4018121],[15.5783278,58.4018134],[15.5783285,58.4018147],[15.5783288,58.401816],[15.5783289,58.4018173],[15.5783288,58.4018186],[15.5783285,58.4018199],[15.5783278,58.4018212],[15.578327,58.4018225],[15.5783259,58.4018237],[15.5783246,58.4018248],[15.5783231,58.4018259],[15.5783214,58.4018268],[15.5783195,58.4018277],[15.5783175,58.4018285],[15.5783153,58.4018292],[15.5783131,58.4018298],[15.5783107,58.4018302],[15.5783082,58.4018305],[15.5783057,58.4018307],[15.5783032,58.4018308]]]]}},
{"type":"Feature","properties":{"felt:feature":4,"felt:color":"#C93535","felt:hasLongDescription":null,"felt:id":"C6vCbxIYTnytRltStJyz9BC","felt:locked":false,"felt:ordering":1788104034261048,"felt:radiusDisplayAngle":90,"felt:showArea":false,"felt:type":"Polygon","felt:widthScale":1,"id":21},"geometry":{"type":"MultiPolygon","coordinates":[[[[15.5782443,58.4018898],[15.5782418,58.4018897],[15.5782393,58.4018895],[15.5782368,58.4018892],[15.5782344,58.4018888],[15.5782322,58.4018882],[15.57823,58.4018875],[15.578228,58.4018867],[15.5782261,58.4018858],[15.5782244,58.4018849],[15.5782229,58.4018838],[15.5782216,58.4018827],[15.5782205,58.4018815],[15.5782197,58.4018802],[15.578219,58.4018789],[15.5782187,58.4018776],[15.5782186,58.4018763],[15.5782187,58.401875],[15.578219,58.4018737],[15.5782197,58.4018724],[15.5782205,58.4018711],[15.5782216,58.4018699],[15.5782229,58.4018688],[15.5782244,58.4018677],[15.5782261,58.4018668],[15.578228,58.4018659],[15.57823,58.4018651],[15.5782322,58.4018644],[15.5782344,58.4018638],[15.5782368,58.4018634],[15.5782393,58.4018631],[15.5782418,58.4018629],[15.5782443,58.4018628],[15.5782468,58.4018629],[15.5782493,58.4018631],[15.5782518,58.4018634],[15.5782542,58.4018638],[15.5782564,58.4018644],[15.5782586,58.4018651],[15.5782606,58.4018659],[15.5782625,58.4018668],[15.5782642,58.4018677],[15.5782657,58.4018688],[15.578267,58.4018699],[15.5782681,58.4018711],[15.5782689,58.4018724],[15.5782696,58.4018737],[15.5782699,58.401875],[15.57827,58.4018763],[15.5782699,58.4018776],[15.5782696,58.4018789],[15.5782689,58.4018802],[15.5782681,58.4018815],[15.578267,58.4018827],[15.5782657,58.4018838],[15.5782642,58.4018849],[15.5782625,58.4018858],[15.5782606,58.4018867],[15.5782586,58.4018875],[15.5782564,58.4018882],[15.5782542,58.4018888],[15.5782518,58.4018892],[15.5782493,58.4018895],[15.5782468,58.4018897],[15.5782443,58.4018898]]]]}},
{"type":"Feature","properties":{"felt:feature":5,"felt:color":"#C93535","felt:hasLongDescription":null,"felt:id":"cnfEggTPSNOB9AjkjjVuHOD","felt:locked":false,"felt:ordering":1788104038179559,"felt:radiusDisplayAngle":90,"felt:showArea":false,"felt:type":"Polygon","felt:widthScale":1,"id":20},"geometry":{"type":"MultiPolygon","coordinates":[[[[15.5781941,58.4019487],[15.5781916,58.4019486],[15.5781891,58.4019484],[15.5781866,58.4019481],[15.5781842,58.4019477],[15.578182,58.4019471],[15.5781798,58.4019464],[15.5781778,58.4019456],[15.5781759,58.4019447],[15.5781742,58.4019438],[15.5781727,58.4019427],[15.5781714,58.4019416],[15.5781703,58.4019404],[15.5781695,58.4019391],[15.5781688,58.4019378],[15.5781685,58.4019365],[15.5781684,58.4019352],[15.5781685,58.4019339],[15.5781688,58.4019326],[15.5781695,58.4019313],[15.5781703,58.40193],[15.5781714,58.4019288],[15.5781727,58.4019277],[15.5781742,58.4019266],[15.5781759,58.4019257],[15.5781778,58.4019248],[15.5781798,58.401924],[15.578182,58.4019233],[15.5781842,58.4019227],[15.5781866,58.4019223],[15.5781891,58.401922],[15.5781916,58.4019218],[15.5781941,58.4019217],[15.5781966,58.4019218],[15.5781991,58.401922],[15.5782016,58.4019223],[15.578204,58.4019227],[15.5782062,58.4019233],[15.5782084,58.401924],[15.5782104,58.4019248],[15.5782123,58.4019257],[15.578214,58.4019266],[15.5782155,58.4019277],[15.5782168,58.4019288],[15.5782179,58.40193],[15.5782187,58.4019313],[15.5782194,58.4019326],[15.5782197,58.4019339],[15.5782198,58.4019352],[15.5782197,58.4019365],[15.5782194,58.4019378],[15.5782187,58.4019391],[15.5782179,58.4019404],[15.5782168,58.4019416],[15.5782155,58.4019427],[15.578214,58.4019438],[15.5782123,58.4019447],[15.5782104,58.4019456],[15.5782084,58.4019464],[15.5782062,58.4019471],[15.578204,58.4019477],[15.5782016,58.4019481],[15.5781991,58.4019484],[15.5781966,58.4019486],[15.5781941,58.4019487]]]]}},
{"type":"Feature","properties":{"felt:feature":6,"felt:color":"#C93535","felt:hasLongDescription":null,"felt:id":"9Af9AymH7QSRea9CWK7JNG9BqB","felt:locked":false,"felt:ordering":1788104040892168,"felt:radiusDisplayAngle":90,"felt:showArea":false,"felt:type":"Polygon","felt:widthScale":1,"id":19},"geometry":{"type":"MultiPolygon","coordinates":[[[[15.5782696,58.4019479],[15.5782671,58.4019478],[15.5782646,58.4019476],[15.5782621,58.4019473],[15.5782597,58.4019469],[15.5782575,58.4019463],[15.5782553,58.4019456],[15.5782533,58.4019448],[15.5782514,58.4019439],[15.5782497,58.401943],[15.5782482,58.4019419],[15.5782469,58.4019408],[15.5782458,58.4019396],[15.578245,58.4019383],[15.5782443,58.401937],[15.578244,58.4019357],[15.5782439,58.4019344],[15.578244,58.4019331],[15.5782443,58.4019318],[15.578245,58.4019305],[15.5782458,58.4019292],[15.5782469,58.401928],[15.5782482,58.4019269],[15.5782497,58.4019258],[15.5782514,58.4019249],[15.5782533,58.401924],[15.5782553,58.4019232],[15.5782575,58.4019225],[15.5782597,58.4019219],[15.5782621,58.4019215],[15.5782646,58.4019212],[15.5782671,58.401921],[15.5782696,58.4019209],[15.5782721,58.401921],[15.5782746,58.4019212],[15.5782771,58.4019215],[15.5782795,58.4019219],[15.5782817,58.4019225],[15.5782839,58.4019232],[15.5782859,58.401924],[15.5782878,58.4019249],[15.5782895,58.4019258],[15.578291,58.4019269],[15.5782923,58.401928],[15.5782934,58.4019292],[15.5782942,58.4019305],[15.5782949,58.4019318],[15.5782952,58.4019331],[15.5782953,58.4019344],[15.5782952,58.4019357],[15.5782949,58.401937],[15.5782942,58.4019383],[15.5782934,58.4019396],[15.5782923,58.4019408],[15.578291,58.4019419],[15.5782895,58.401943],[15.5782878,58.4019439],[15.5782859,58.4019448],[15.5782839,58.4019456],[15.5782817,58.4019463],[15.5782795,58.4019469],[15.5782771,58.4019473],[15.5782746,58.4019476],[15.5782721,58.4019478],[15.5782696,58.4019479]]]]}},
{"type":"Feature","properties":{"felt:feature":7,"felt:color":"#C93535","felt:hasLongDescription":null,"felt:id":"Nscgfs8iTVSMQ9CrLKEkavA","felt:locked":false,"felt:ordering":1788104043414606,"felt:radiusDisplayAngle":90,"felt:showArea":false,"felt:type":"Polygon","felt:widthScale":1,"id":18},"geometry":{"type":"MultiPolygon","coordinates":[[[[15.5783486,58.4019482],[15.5783461,58.4019481],[15.5783436,58.4019479],[15.5783411,58.4019476],[15.5783387,58.4019472],[15.5783365,58.4019466],[15.5783343,58.4019459],[15.5783323,58.4019451],[15.5783304,58.4019442],[15.5783287,58.4019433],[15.5783272,58.4019422],[15.5783259,58.4019411],[15.5783248,58.4019399],[15.578324,58.4019386],[15.5783233,58.4019373],[15.578323,58.401936],[15.5783229,58.4019347],[15.578323,58.4019334],[15.5783233,58.4019321],[15.578324,58.4019308],[15.5783248,58.4019295],[15.5783259,58.4019283],[15.5783272,58.4019272],[15.5783287,58.4019261],[15.5783304,58.4019252],[15.5783323,58.4019243],[15.5783343,58.4019235],[15.5783365,58.4019228],[15.5783387,58.4019222],[15.5783411,58.4019218],[15.5783436,58.4019215],[15.5783461,58.4019213],[15.5783486,58.4019212],[15.5783511,58.4019213],[15.5783536,58.4019215],[15.5783561,58.4019218],[15.5783585,58.4019222],[15.5783607,58.4019228],[15.5783629,58.4019235],[15.5783649,58.4019243],[15.5783668,58.4019252],[15.5783685,58.4019261],[15.57837,58.4019272],[15.5783713,58.4019283],[15.5783724,58.4019295],[15.5783732,58.4019308],[15.5783739,58.4019321],[15.5783742,58.4019334],[15.5783743,58.4019347],[15.5783742,58.401936],[15.5783739,58.4019373],[15.5783732,58.4019386],[15.5783724,58.4019399],[15.5783713,58.4019411],[15.57837,58.4019422],[15.5783685,58.4019433],[15.5783668,58.4019442],[15.5783649,58.4019451],[15.5783629,58.4019459],[15.5783607,58.4019466],[15.5783585,58.4019472],[15.5783561,58.4019476],[15.5783536,58.4019479],[15.5783511,58.4019481],[15.5783486,58.4019482]]]]}},
{"type":"Feature","properties":{"felt:feature":8,"felt:color":"#C93535","felt:hasLongDescription":null,"felt:id":"IP070cepRV2JDzspAzi9ABD","felt:locked":false,"felt:ordering":1788104046753046,"felt:radiusDisplayAngle":90,"felt:showArea":false,"felt:type":"Polygon","felt:widthScale":1,"id":17},"geometry":{"type":"MultiPolygon","coordinates":[[[[15.5784241,58.4019474],[15.5784216,58.4019473],[15.5784191,58.4019471],[15.5784166,58.4019468],[15.5784142,58.4019464],[15.578412,58.4019458],[15.5784098,58.4019451],[15.5784078,58.4019443],[15.5784059,58.4019434],[15.5784042,58.4019425],[15.5784027,58.4019414],[15.5784014,58.4019403],[15.5784003,58.4019391],[15.5783995,58.4019378],[15.5783988,58.4019365],[15.5783985,58.4019352],[15.5783984,58.4019339],[15.5783985,58.4019326],[15.5783988,58.4019313],[15.5783995,58.40193],[15.5784003,58.4019287],[15.5784014,58.4019275],[15.5784027,58.4019264],[15.5784042,58.4019253],[15.5784059,58.4019244],[15.5784078,58.4019235],[15.5784098,58.4019227],[15.578412,58.401922],[15.5784142,58.4019214],[15.5784166,58.401921],[15.5784191,58.4019207],[15.5784216,58.4019205],[15.5784241,58.4019204],[15.5784266,58.4019205],[15.5784291,58.4019207],[15.5784316,58.401921],[15.578434,58.4019214],[15.5784362,58.401922],[15.5784384,58.4019227],[15.5784404,58.4019235],[15.5784423,58.4019244],[15.578444,58.4019253],[15.5784455,58.4019264],[15.5784468,58.4019275],[15.5784479,58.4019287],[15.5784487,58.40193],[15.5784494,58.4019313],[15.5784497,58.4019326],[15.5784498,58.4019339],[15.5784497,58.4019352],[15.5784494,58.4019365],[15.5784487,58.4019378],[15.5784479,58.4019391],[15.5784468,58.4019403],[15.5784455,58.4019414],[15.578444,58.4019425],[15.5784423,58.4019434],[15.5784404,58.4019443],[15.5784384,58.4019451],[15.5784362,58.4019458],[15.578434,58.4019464],[15.5784316,58.4019468],[15.5784291,58.4019471],[15.5784266,58.4019473],[15.5784241,58.4019474]]]]}},
{"type":"Feature","properties":{"felt:feature":9,"felt:color":"#C93535","felt:hasLongDescription":false,"felt:id":"hS9CYFmZqQWu2GIsyef3adC","felt:locked":false,"felt:ordering":1788104050006103,"felt:radiusDisplayAngle":90,"felt:showArea":false,"felt:type":"Polygon","felt:widthScale":1,"id":27},"geometry":{"type":"MultiPolygon","coordinates":[[[[15.5784659,58.4018746],[15.5784634,58.4018745],[15.5784609,58.4018743],[15.5784584,58.401874],[15.578456,58.4018736],[15.5784538,58.401873],[15.5784516,58.4018723],[15.5784496,58.4018715],[15.5784477,58.4018706],[15.578446,58.4018697],[15.5784445,58.4018686],[15.5784432,58.4018675],[15.5784421,58.4018663],[15.5784413,58.401865],[15.5784406,58.4018637],[15.5784403,58.4018624],[15.5784402,58.4018611],[15.5784403,58.4018598],[15.5784406,58.4018585],[15.5784413,58.4018572],[15.5784421,58.4018559],[15.5784432,58.4018547],[15.5784445,58.4018536],[15.578446,58.4018525],[15.5784477,58.4018516],[15.5784496,58.4018507],[15.5784516,58.4018499],[15.5784538,58.4018492],[15.578456,58.4018486],[15.5784584,58.4018482],[15.5784609,58.4018479],[15.5784634,58.4018477],[15.5784659,58.4018476],[15.5784684,58.4018477],[15.5784709,58.4018479],[15.5784734,58.4018482],[15.5784758,58.4018486],[15.578478,58.4018492],[15.5784802,58.4018499],[15.5784822,58.4018507],[15.5784841,58.4018516],[15.5784858,58.4018525],[15.5784873,58.4018536],[15.5784886,58.4018547],[15.5784897,58.4018559],[15.5784905,58.4018572],[15.5784912,58.4018585],[15.5784915,58.4018598],[15.5784916,58.4018611],[15.5784915,58.4018624],[15.5784912,58.4018637],[15.5784905,58.401865],[15.5784897,58.4018663],[15.5784886,58.4018675],[15.5784873,58.4018686],[15.5784858,58.4018697],[15.5784841,58.4018706],[15.5784822,58.4018715],[15.5784802,58.4018723],[15.578478,58.401873],[15.5784758,58.4018736],[15.5784734,58.401874],[15.5784709,58.4018743],[15.5784684,58.4018745],[15.5784659,58.4018746]]]]}},
{"type":"Feature","properties":{"felt:feature":10,"felt:color":"#C93535","felt:hasLongDescription":false,"felt:id":"Lt9CswjEuRHijJSEbbz7kQD","felt:locked":false,"felt:ordering":1788104052952988,"felt:radiusDisplayAngle":90,"felt:showArea":false,"felt:type":"Polygon","felt:widthScale":1,"id":28},"geometry":{"type":"MultiPolygon","coordinates":[[[[15.5784664,58.4018376],[15.5784639,58.4018375],[15.5784614,58.4018373],[15.5784589,58.401837],[15.5784565,58.4018366],[15.5784543,58.401836],[15.5784521,58.4018353],[15.5784501,58.4018345],[15.5784482,58.4018336],[15.5784465,58.4018327],[15.578445,58.4018316],[15.5784437,58.4018305],[15.5784426,58.4018293],[15.5784418,58.401828],[15.5784411,58.4018267],[15.5784408,58.4018254],[15.5784407,58.4018241],[15.5784408,58.4018228],[15.5784411,58.4018215],[15.5784418,58.4018202],[15.5784426,58.4018189],[15.5784437,58.4018177],[15.578445,58.4018166],[15.5784465,58.4018155],[15.5784482,58.4018146],[15.5784501,58.4018137],[15.5784521,58.4018129],[15.5784543,58.4018122],[15.5784565,58.4018116],[15.5784589,58.4018112],[15.5784614,58.4018109],[15.5784639,58.4018107],[15.5784664,58.4018106],[15.5784689,58.4018107],[15.5784714,58.4018109],[15.5784739,58.4018112],[15.5784763,58.4018116],[15.5784785,58.4018122],[15.5784807,58.4018129],[15.5784827,58.4018137],[15.5784846,58.4018146],[15.5784863,58.4018155],[15.5784878,58.4018166],[15.5784891,58.4018177],[15.5784902,58.4018189],[15.578491,58.4018202],[15.5784917,58.4018215],[15.578492,58.4018228],[15.5784921,58.4018241],[15.578492,58.4018254],[15.5784917,58.4018267],[15.578491,58.401828],[15.5784902,58.4018293],[15.5784891,58.4018305],[15.5784878,58.4018316],[15.5784863,58.4018327],[15.5784846,58.4018336],[15.5784827,58.4018345],[15.5784807,58.4018353],[15.5784785,58.401836],[15.5784763,58.4018366],[15.5784739,58.401837],[15.5784714,58.4018373],[15.5784689,58.4018375],[15.5784664,58.4018376]]]]}},
{"type":"Feature","properties":{"felt:feature":11,"felt:color":"#C93535","felt:hasLongDescription":false,"felt:id":"KgeKOL3gQOWlVHI9BLC7v9BC","felt:locked":false,"felt:ordering":1788104055802080,"felt:radiusDisplayAngle":90,"felt:showArea":false,"felt:type":"Polygon","felt:widthScale":1,"id":29},"geometry":{"type":"MultiPolygon","coordinates":[[[[15.5784665,58.401798],[15.578464,58.4017979],[15.5784615,58.4017977],[15.578459,58.4017974],[15.5784566,58.401797],[15.5784544,58.4017964],[15.5784522,58.4017957],[15.5784502,58.4017949],[15.5784483,58.401794],[15.5784466,58.4017931],[15.5784451,58.401792],[15.5784438,58.4017909],[15.5784427,58.4017897],[15.5784419,58.4017884],[15.5784412,58.4017871],[15.5784409,58.4017858],[15.5784408,58.4017845],[15.5784409,58.4017832],[15.5784412,58.4017819],[15.5784419,58.4017806],[15.5784427,58.4017793],[15.5784438,58.4017781],[15.5784451,58.401777],[15.5784466,58.4017759],[15.5784483,58.401775],[15.5784502,58.4017741],[15.5784522,58.4017733],[15.5784544,58.4017726],[15.5784566,58.401772],[15.578459,58.4017716],[15.5784615,58.4017713],[15.578464,58.4017711],[15.5784665,58.401771],[15.578469,58.4017711],[15.5784715,58.4017713],[15.578474,58.4017716],[15.5784764,58.401772],[15.5784786,58.4017726],[15.5784808,58.4017733],[15.5784828,58.4017741],[15.5784847,58.401775],[15.5784864,58.4017759],[15.5784879,58.401777],[15.5784892,58.4017781],[15.5784903,58.4017793],[15.5784911,58.4017806],[15.5784918,58.4017819],[15.5784921,58.4017832],[15.5784922,58.4017845],[15.5784921,58.4017858],[15.5784918,58.4017871],[15.5784911,58.4017884],[15.5784903,58.4017897],[15.5784892,58.4017909],[15.5784879,58.401792],[15.5784864,58.4017931],[15.5784847,58.401794],[15.5784828,58.4017949],[15.5784808,58.4017957],[15.5784786,58.4017964],[15.5784764,58.401797],[15.578474,58.4017974],[15.5784715,58.4017977],[15.578469,58.4017979],[15.5784665,58.401798]]]]}},
{"type":"Feature","properties":{"felt:feature":12,"felt:color":"#C93535","felt:hasLongDescription":false,"felt:id":"YzmkDOhnTCGPqs79A6ELotA","felt:locked":false,"felt:ordering":1788104059471935,"felt:radiusDisplayAngle":90,"felt:showArea":false,"felt:type":"Polygon","felt:widthScale":1,"id":30},"geometry":{"type":"MultiPolygon","coordinates":[[[[15.5784664,58.4017587],[15.5784639,58.4017586],[15.5784614,58.4017584],[15.5784589,58.4017581],[15.5784565,58.4017577],[15.5784543,58.4017571],[15.5784521,58.4017564],[15.5784501,58.4017556],[15.5784482,58.4017547],[15.5784465,58.4017538],[15.578445,58.4017527],[15.5784437,58.4017516],[15.5784426,58.4017504],[15.5784418,58.4017491],[15.5784411,58.4017478],[15.5784408,58.4017465],[15.5784407,58.4017452],[15.5784408,58.4017439],[15.5784411,58.4017426],[15.5784418,58.4017413],[15.5784426,58.40174],[15.5784437,58.4017388],[15.578445,58.4017377],[15.5784465,58.4017366],[15.5784482,58.4017357],[15.5784501,58.4017348],[15.5784521,58.401734],[15.5784543,58.4017333],[15.5784565,58.4017327],[15.5784589,58.4017323],[15.5784614,58.401732],[15.5784639,58.4017318],[15.5784664,58.4017317],[15.5784689,58.4017318],[15.5784714,58.401732],[15.5784739,58.4017323],[15.5784763,58.4017327],[15.5784785,58.4017333],[15.5784807,58.401734],[15.5784827,58.4017348],[15.5784846,58.4017357],[15.5784863,58.4017366],[15.5784878,58.4017377],[15.5784891,58.4017388],[15.5784902,58.40174],[15.578491,58.4017413],[15.5784917,58.4017426],[15.578492,58.4017439],[15.5784921,58.4017452],[15.578492,58.4017465],[15.5784917,58.4017478],[15.578491,58.4017491],[15.5784902,58.4017504],[15.5784891,58.4017516],[15.5784878,58.4017527],[15.5784863,58.4017538],[15.5784846,58.4017547],[15.5784827,58.4017556],[15.5784807,58.4017564],[15.5784785,58.4017571],[15.5784763,58.4017577],[15.5784739,58.4017581],[15.5784714,58.4017584],[15.5784689,58.4017586],[15.5784664,58.4017587]]]]}},
{"type":"Feature","properties":{"felt:feature":13,"felt:color":"#C93535","felt:hasLongDescription":false,"felt:id":"Qlgb9AIKATf2x9CGQ9BvITOwC","felt:locked":false,"felt:ordering":1788104064993455,"felt:radiusDisplayAngle":90,"felt:showArea":false,"felt:type":"Polygon","felt:widthScale":1,"id":31},"geometry":{"type":"MultiPolygon","coordinates":[[[[15.5784666,58.4017215],[15.5784641,58.4017214],[15.5784616,58.4017212],[15.5784591,58.4017209],[15.5784567,58.4017205],[15.5784545,58.4017199],[15.5784523,58.4017192],[15.5784503,58.4017184],[15.5784484,58.4017175],[15.5784467,58.4017166],[15.5784452,58.4017155],[15.5784439,58.4017144],[15.5784428,58.4017132],[15.578442,58.4017119],[15.5784413,58.4017106],[15.578441,58.4017093],[15.5784409,58.401708],[15.578441,58.4017067],[15.5784413,58.4017054],[15.578442,58.4017041],[15.5784428,58.4017028],[15.5784439,58.4017016],[15.5784452,58.4017005],[15.5784467,58.4016994],[15.5784484,58.4016985],[15.5784503,58.4016976],[15.5784523,58.4016968],[15.5784545,58.4016961],[15.5784567,58.4016955],[15.5784591,58.4016951],[15.5784616,58.4016948],[15.5784641,58.4016946],[15.5784666,58.4016945],[15.5784691,58.4016946],[15.5784716,58.4016948],[15.5784741,58.4016951],[15.5784765,58.4016955],[15.5784787,58.4016961],[15.5784809,58.4016968],[15.5784829,58.4016976],[15.5784848,58.4016985],[15.5784865,58.4016994],[15.578488,58.4017005],[15.5784893,58.4017016],[15.5784904,58.4017028],[15.5784912,58.4017041],[15.5784919,58.4017054],[15.5784922,58.4017067],[15.5784923,58.401708],[15.5784922,58.4017093],[15.5784919,58.4017106],[15.5784912,58.4017119],[15.5784904,58.4017132],[15.5784893,58.4017144],[15.578488,58.4017155],[15.5784865,58.4017166],[15.5784848,58.4017175],[15.5784829,58.4017184],[15.5784809,58.4017192],[15.5784787,58.4017199],[15.5784765,58.4017205],[15.5784741,58.4017209],[15.5784716,58.4017212],[15.5784691,58.4017214],[15.5784666,58.4017215]]]]}},
{"type":"Feature","properties":{"felt:feature":14,"felt:color":"#C93535","felt:hasLongDescription":false,"felt:id":"9BRW6ig9AcQ9BOp4sHJ2voqfB","felt:locked":false,"felt:ordering":1788104069666488,"felt:radiusDisplayAngle":90,"felt:showArea":false,"felt:type":"Polygon","felt:widthScale":1,"id":33},"geometry":{"type":"MultiPolygon","coordinates":[[[[15.5785526,58.4016024],[15.5785501,58.4016023],[15.5785476,58.4016021],[15.5785451,58.4016018],[15.5785427,58.4016014],[15.5785405,58.4016008],[15.5785383,58.4016001],[15.5785363,58.4015993],[15.5785344,58.4015984],[15.5785327,58.4015975],[15.5785312,58.4015964],[15.5785299,58.4015953],[15.5785288,58.4015941],[15.578528,58.4015928],[15.5785273,58.4015915],[15.578527,58.4015902],[15.5785269,58.4015889],[15.578527,58.4015876],[15.5785273,58.4015863],[15.578528,58.401585],[15.5785288,58.4015837],[15.5785299,58.4015825],[15.5785312,58.4015814],[15.5785327,58.4015803],[15.5785344,58.4015794],[15.5785363,58.4015785],[15.5785383,58.4015777],[15.5785405,58.401577],[15.5785427,58.4015764],[15.5785451,58.401576],[15.5785476,58.4015757],[15.5785501,58.4015755],[15.5785526,58.4015754],[15.5785551,58.4015755],[15.5785576,58.4015757],[15.5785601,58.401576],[15.5785625,58.4015764],[15.5785647,58.401577],[15.5785669,58.4015777],[15.5785689,58.4015785],[15.5785708,58.4015794],[15.5785725,58.4015803],[15.578574,58.4015814],[15.5785753,58.4015825],[15.5785764,58.4015837],[15.5785772,58.401585],[15.5785779,58.4015863],[15.5785782,58.4015876],[15.5785783,58.4015889],[15.5785782,58.4015902],[15.5785779,58.4015915],[15.5785772,58.4015928],[15.5785764,58.4015941],[15.5785753,58.4015953],[15.578574,58.4015964],[15.5785725,58.4015975],[15.5785708,58.4015984],[15.5785689,58.4015993],[15.5785669,58.4016001],[15.5785647,58.4016008],[15.5785625,58.4016014],[15.5785601,58.4016018],[15.5785576,58.4016021],[15.5785551,58.4016023],[15.5785526,58.4016024]]]]}},
{"type":"Feature","properties":{"felt:feature":15,"felt:color":"#C93535","felt:hasLongDescription":null,"felt:id":"9CZZ3kkA9BQTmB9Cf2JBq9CUSD","felt:locked":false,"felt:ordering":1788104072509769,"felt:radiusDisplayAngle":90,"felt:showArea":false,"felt:type":"Polygon","felt:widthScale":1,"id":34},"geometry":{"type":"MultiPolygon","coordinates":[[[[15.5786281,58.4016016],[15.5786256,58.4016015],[15.5786231,58.4016013],[15.5786206,58.401601],[15.5786182,58.4016006],[15.578616,58.4016],[15.5786138,58.4015993],[15.5786118,58.4015985],[15.5786099,58.4015976],[15.5786082,58.4015967],[15.5786067,58.4015956],[15.5786054,58.4015945],[15.5786043,58.4015933],[15.5786035,58.401592],[15.5786028,58.4015907],[15.5786025,58.4015894],[15.5786024,58.4015881],[15.5786025,58.4015868],[15.5786028,58.4015855],[15.5786035,58.4015842],[15.5786043,58.4015829],[15.5786054,58.4015817],[15.5786067,58.4015806],[15.5786082,58.4015795],[15.5786099,58.4015786],[15.5786118,58.4015777],[15.5786138,58.4015769],[15.578616,58.4015762],[15.5786182,58.4015756],[15.5786206,58.4015752],[15.5786231,58.4015749],[15.5786256,58.4015747],[15.5786281,58.4015746],[15.5786306,58.4015747],[15.5786331,58.4015749],[15.5786356,58.4015752],[15.578638,58.4015756],[15.5786402,58.4015762],[15.5786424,58.4015769],[15.5786444,58.4015777],[15.5786463,58.4015786],[15.578648,58.4015795],[15.5786495,58.4015806],[15.5786508,58.4015817],[15.5786519,58.4015829],[15.5786527,58.4015842],[15.5786534,58.4015855],[15.5786537,58.4015868],[15.5786538,58.4015881],[15.5786537,58.4015894],[15.5786534,58.4015907],[15.5786527,58.401592],[15.5786519,58.4015933],[15.5786508,58.4015945],[15.5786495,58.4015956],[15.578648,58.4015967],[15.5786463,58.4015976],[15.5786444,58.4015985],[15.5786424,58.4015993],[15.5786402,58.4016],[15.578638,58.4016006],[15.5786356,58.401601],[15.5786331,58.4016013],[15.5786306,58.4016015],[15.5786281,58.4016016]]]]}},
{"type":"Feature","properties":{"felt:feature":16,"felt:color":"#C93535","felt:hasLongDescription":null,"felt:id":"ilk4zDkCSEujBChbMFBZrC","felt:locked":false,"felt:ordering":1788104075380543,"felt:radiusDisplayAngle":90,"felt:showArea":false,"felt:type":"Polygon","felt:widthScale":1,"id":35},"geometry":{"type":"MultiPolygon","coordinates":[[[[15.5787071,58.4016019],[15.5787046,58.4016018],[15.5787021,58.4016016],[15.5786996,58.4016013],[15.5786972,58.4016009],[15.578695,58.4016003],[15.5786928,58.4015996],[15.5786908,58.4015988],[15.5786889,58.4015979],[15.5786872,58.401597],[15.5786857,58.4015959],[15.5786844,58.4015948],[15.5786833,58.4015936],[15.5786825,58.4015923],[15.5786818,58.401591],[15.5786815,58.4015897],[15.5786814,58.4015884],[15.5786815,58.4015871],[15.5786818,58.4015858],[15.5786825,58.4015845],[15.5786833,58.4015832],[15.5786844,58.401582],[15.5786857,58.4015809],[15.5786872,58.4015798],[15.5786889,58.4015789],[15.5786908,58.401578],[15.5786928,58.4015772],[15.578695,58.4015765],[15.5786972,58.4015759],[15.5786996,58.4015755],[15.5787021,58.4015752],[15.5787046,58.401575],[15.5787071,58.4015749],[15.5787096,58.401575],[15.5787121,58.4015752],[15.5787146,58.4015755],[15.578717,58.4015759],[15.5787192,58.4015765],[15.5787214,58.4015772],[15.5787234,58.401578],[15.5787253,58.4015789],[15.578727,58.4015798],[15.5787285,58.4015809],[15.5787298,58.401582],[15.5787309,58.4015832],[15.5787317,58.4015845],[15.5787324,58.4015858],[15.5787327,58.4015871],[15.5787328,58.4015884],[15.5787327,58.4015897],[15.5787324,58.401591],[15.5787317,58.4015923],[15.5787309,58.4015936],[15.5787298,58.4015948],[15.5787285,58.4015959],[15.578727,58.401597],[15.5787253,58.4015979],[15.5787234,58.4015988],[15.5787214,58.4015996],[15.5787192,58.4016003],[15.578717,58.4016009],[15.5787146,58.4016013],[15.5787121,58.4016016],[15.5787096,58.4016018],[15.5787071,58.4016019]]]]}},
{"type":"Feature","properties":{"felt:feature":17,"felt:color":"#C93535","felt:hasLongDescription":null,"felt:id":"qtJW9BmDqTJCb9Bw69BI9ALPlD","felt:locked":false,"felt:ordering":1788104079882631,"felt:radiusDisplayAngle":90,"felt:showArea":false,"felt:type":"Polygon","felt:widthScale":1,"id":36},"geometry":{"type":"MultiPolygon","coordinates":[[[[15.5787826,58.4016011],[15.5787801,58.401601],[15.5787776,58.4016008],[15.5787751,58.4016005],[15.5787727,58.4016001],[15.5787705,58.4015995],[15.5787683,58.4015988],[15.5787663,58.401598],[15.5787644,58.4015971],[15.5787627,58.4015962],[15.5787612,58.4015951],[15.5787599,58.401594],[15.5787588,58.4015928],[15.578758,58.4015915],[15.5787573,58.4015902],[15.578757,58.4015889],[15.5787569,58.4015876],[15.578757,58.4015863],[15.5787573,58.401585],[15.578758,58.4015837],[15.5787588,58.4015824],[15.5787599,58.4015812],[15.5787612,58.4015801],[15.5787627,58.401579],[15.5787644,58.4015781],[15.5787663,58.4015772],[15.5787683,58.4015764],[15.5787705,58.4015757],[15.5787727,58.4015751],[15.5787751,58.4015747],[15.5787776,58.4015744],[15.5787801,58.4015742],[15.5787826,58.4015741],[15.5787851,58.4015742],[15.5787876,58.4015744],[15.5787901,58.4015747],[15.5787925,58.4015751],[15.5787947,58.4015757],[15.5787969,58.4015764],[15.5787989,58.4015772],[15.5788008,58.4015781],[15.5788025,58.401579],[15.578804,58.4015801],[15.5788053,58.4015812],[15.5788064,58.4015824],[15.5788072,58.4015837],[15.5788079,58.401585],[15.5788082,58.4015863],[15.5788083,58.4015876],[15.5788082,58.4015889],[15.5788079,58.4015902],[15.5788072,58.4015915],[15.5788064,58.4015928],[15.5788053,58.401594],[15.578804,58.4015951],[15.5788025,58.4015962],[15.5788008,58.4015971],[15.5787989,58.401598],[15.5787969,58.4015988],[15.5787947,58.4015995],[15.5787925,58.4016001],[15.5787901,58.4016005],[15.5787876,58.4016008],[15.5787851,58.401601],[15.5787826,58.4016011]]]]}},
{"type":"Feature","properties":{"felt:feature":18,"felt:color":"#C93535","felt:hasLongDescription":false,"felt:id":"OCjLVxsKSMKLNPgnXmK6xD","felt:locked":false,"felt:ordering":1788104084232446,"felt:radiusDisplayAngle":90,"felt:showArea":false,"felt:type":"Polygon","felt:widthScale":1,"id":37},"geometry":{"type":"MultiPolygon","coordinates":[[[[15.5789202,58.4015597],[15.5789177,58.4015596],[15.5789152,58.4015594],[15.5789127,58.4015591],[15.5789103,58.4015587],[15.5789081,58.4015581],[15.5789059,58.4015574],[15.5789039,58.4015566],[15.578902,58.4015557],[15.5789003,58.4015548],[15.5788988,58.4015537],[15.5788975,58.4015526],[15.5788964,58.4015514],[15.5788956,58.4015501],[15.5788949,58.4015488],[15.5788946,58.4015475],[15.5788945,58.4015462],[15.5788946,58.4015449],[15.5788949,58.4015436],[15.5788956,58.4015423],[15.5788964,58.401541],[15.5788975,58.4015398],[15.5788988,58.4015387],[15.5789003,58.4015376],[15.578902,58.4015367],[15.5789039,58.4015358],[15.5789059,58.401535],[15.5789081,58.4015343],[15.5789103,58.4015337],[15.5789127,58.4015333],[15.5789152,58.401533],[15.5789177,58.4015328],[15.5789202,58.4015327],[15.5789227,58.4015328],[15.5789252,58.401533],[15.5789277,58.4015333],[15.5789301,58.4015337],[15.5789323,58.4015343],[15.5789345,58.401535],[15.5789365,58.4015358],[15.5789384,58.4015367],[15.5789401,58.4015376],[15.5789416,58.4015387],[15.5789429,58.4015398],[15.578944,58.401541],[15.5789448,58.4015423],[15.5789455,58.4015436],[15.5789458,58.4015449],[15.5789459,58.4015462],[15.5789458,58.4015475],[15.5789455,58.4015488],[15.5789448,58.4015501],[15.578944,58.4015514],[15.5789429,58.4015526],[15.5789416,58.4015537],[15.5789401,58.4015548],[15.5789384,58.4015557],[15.5789365,58.4015566],[15.5789345,58.4015574],[15.5789323,58.4015581],[15.5789301,58.4015587],[15.5789277,58.4015591],[15.5789252,58.4015594],[15.5789227,58.4015596],[15.5789202,58.4015597]]]]}},
{"type":"Feature","properties":{"felt:feature":19,"felt:color":"#C93535","felt:hasLongDescription":false,"felt:id":"9Bn129CDC2RXaurdxFzJ2LmB","felt:locked":false,"felt:ordering":1788104091999942,"felt:radiusDisplayAngle":90,"felt:showArea":false,"felt:type":"Polygon","felt:widthScale":1,"id":38},"geometry":{"type":"MultiPolygon","coordinates":[[[[15.5789976,58.4015663],[15.5789951,58.4015662],[15.5789926,58.401566],[15.5789901,58.4015657],[15.5789877,58.4015653],[15.5789855,58.4015647],[15.5789833,58.401564],[15.5789813,58.4015632],[15.5789794,58.4015623],[15.5789777,58.4015614],[15.5789762,58.4015603],[15.5789749,58.4015592],[15.5789738,58.401558],[15.578973,58.4015567],[15.5789723,58.4015554],[15.578972,58.4015541],[15.5789719,58.4015528],[15.578972,58.4015515],[15.5789723,58.4015502],[15.578973,58.4015489],[15.5789738,58.4015476],[15.5789749,58.4015464],[15.5789762,58.4015453],[15.5789777,58.4015442],[15.5789794,58.4015433],[15.5789813,58.4015424],[15.5789833,58.4015416],[15.5789855,58.4015409],[15.5789877,58.4015403],[15.5789901,58.4015399],[15.5789926,58.4015396],[15.5789951,58.4015394],[15.5789976,58.4015393],[15.5790001,58.4015394],[15.5790026,58.4015396],[15.5790051,58.4015399],[15.5790075,58.4015403],[15.5790097,58.4015409],[15.5790119,58.4015416],[15.5790139,58.4015424],[15.5790158,58.4015433],[15.5790175,58.4015442],[15.579019,58.4015453],[15.5790203,58.4015464],[15.5790214,58.4015476],[15.5790222,58.4015489],[15.5790229,58.4015502],[15.5790232,58.4015515],[15.5790233,58.4015528],[15.5790232,58.4015541],[15.5790229,58.4015554],[15.5790222,58.4015567],[15.5790214,58.401558],[15.5790203,58.4015592],[15.579019,58.4015603],[15.5790175,58.4015614],[15.5790158,58.4015623],[15.5790139,58.4015632],[15.5790119,58.401564],[15.5790097,58.4015647],[15.5790075,58.4015653],[15.5790051,58.4015657],[15.5790026,58.401566],[15.5790001,58.4015662],[15.5789976,58.4015663]]]]}},
{"type":"Feature","properties":{"felt:feature":20,"felt:color":"#C93535","felt:hasLongDescription":null,"felt:id":"cZZLMlciSdSPh4BdNq4XiD","felt:locked":false,"felt:ordering":1788104099822285,"felt:radiusDisplayAngle":90,"felt:showArea":false,"felt:type":"Polygon","felt:widthScale":1,"id":48},"geometry":{"type":"MultiPolygon","coordinates":[[[[15.5793329,58.4016273],[15.5793304,58.4016272],[15.5793279,58.401627],[15.5793254,58.4016267],[15.579323,58.4016263],[15.5793208,58.4016257],[15.5793186,58.401625],[15.5793166,58.4016242],[15.5793147,58.4016233],[15.579313,58.4016224],[15.5793115,58.4016213],[15.5793102,58.4016202],[15.5793091,58.401619],[15.5793083,58.4016177],[15.5793076,58.4016164],[15.5793073,58.4016151],[15.5793072,58.4016138],[15.5793073,58.4016125],[15.5793076,58.4016112],[15.5793083,58.4016099],[15.5793091,58.4016086],[15.5793102,58.4016074],[15.5793115,58.4016063],[15.579313,58.4016052],[15.5793147,58.4016043],[15.5793166,58.4016034],[15.5793186,58.4016026],[15.5793208,58.4016019],[15.579323,58.4016013],[15.5793254,58.4016009],[15.5793279,58.4016006],[15.5793304,58.4016004],[15.5793329,58.4016003],[15.5793354,58.4016004],[15.5793379,58.4016006],[15.5793404,58.4016009],[15.5793428,58.4016013],[15.579345,58.4016019],[15.5793472,58.4016026],[15.5793492,58.4016034],[15.5793511,58.4016043],[15.5793528,58.4016052],[15.5793543,58.4016063],[15.5793556,58.4016074],[15.5793567,58.4016086],[15.5793575,58.4016099],[15.5793582,58.4016112],[15.5793585,58.4016125],[15.5793586,58.4016138],[15.5793585,58.4016151],[15.5793582,58.4016164],[15.5793575,58.4016177],[15.5793567,58.401619],[15.5793556,58.4016202],[15.5793543,58.4016213],[15.5793528,58.4016224],[15.5793511,58.4016233],[15.5793492,58.4016242],[15.5793472,58.401625],[15.579345,58.4016257],[15.5793428,58.4016263],[15.5793404,58.4016267],[15.5793379,58.401627],[15.5793354,58.4016272],[15.5793329,58.4016273]]]]}},
{"type":"Feature","properties":{"felt:feature":21,"felt:color":"#C93535","felt:hasLongDescription":null,"felt:id":"G2agMKXsQnq9C5kbkf9Aq8mB","felt:locked":false,"felt:ordering":1788104103078892,"felt:radiusDisplayAngle":90,"felt:showArea":false,"felt:type":"Polygon","felt:widthScale":1,"id":47},"geometry":{"type":"MultiPolygon","coordinates":[[[[15.579408,58.401634],[15.5794055,58.4016339],[15.579403,58.4016337],[15.5794005,58.4016334],[15.5793981,58.401633],[15.5793959,58.4016324],[15.5793937,58.4016317],[15.5793917,58.4016309],[15.5793898,58.40163],[15.5793881,58.4016291],[15.5793866,58.401628],[15.5793853,58.4016269],[15.5793842,58.4016257],[15.5793834,58.4016244],[15.5793827,58.4016231],[15.5793824,58.4016218],[15.5793823,58.4016205],[15.5793824,58.4016192],[15.5793827,58.4016179],[15.5793834,58.4016166],[15.5793842,58.4016153],[15.5793853,58.4016141],[15.5793866,58.401613],[15.5793881,58.4016119],[15.5793898,58.401611],[15.5793917,58.4016101],[15.5793937,58.4016093],[15.5793959,58.4016086],[15.5793981,58.401608],[15.5794005,58.4016076],[15.579403,58.4016073],[15.5794055,58.4016071],[15.579408,58.401607],[15.5794105,58.4016071],[15.579413,58.4016073],[15.5794155,58.4016076],[15.5794179,58.401608],[15.5794201,58.4016086],[15.5794223,58.4016093],[15.5794243,58.4016101],[15.5794262,58.401611],[15.5794279,58.4016119],[15.5794294,58.401613],[15.5794307,58.4016141],[15.5794318,58.4016153],[15.5794326,58.4016166],[15.5794333,58.4016179],[15.5794336,58.4016192],[15.5794337,58.4016205],[15.5794336,58.4016218],[15.5794333,58.4016231],[15.5794326,58.4016244],[15.5794318,58.4016257],[15.5794307,58.4016269],[15.5794294,58.401628],[15.5794279,58.4016291],[15.5794262,58.40163],[15.5794243,58.4016309],[15.5794223,58.4016317],[15.5794201,58.4016324],[15.5794179,58.401633],[15.5794155,58.4016334],[15.579413,58.4016337],[15.5794105,58.4016339],[15.579408,58.401634]]]]}},
{"type":"Feature","properties":{"felt:feature":22,"felt:color":"#C93535","felt:hasLongDescription":null,"felt:id":"N5T2IQcmR425vhuT9CYgPhA","felt:locked":false,"felt:ordering":1788104105968539,"felt:radiusDisplayAngle":90,"felt:showArea":false,"felt:type":"Polygon","felt:widthScale":1,"id":46},"geometry":{"type":"MultiPolygon","coordinates":[[[[15.5794816,58.4016404],[15.5794791,58.4016403],[15.5794766,58.4016401],[15.5794741,58.4016398],[15.5794717,58.4016394],[15.5794695,58.4016388],[15.5794673,58.4016381],[15.5794653,58.4016373],[15.5794634,58.4016364],[15.5794617,58.4016355],[15.5794602,58.4016344],[15.5794589,58.4016333],[15.5794578,58.4016321],[15.579457,58.4016308],[15.5794563,58.4016295],[15.579456,58.4016282],[15.5794559,58.4016269],[15.579456,58.4016256],[15.5794563,58.4016243],[15.579457,58.401623],[15.5794578,58.4016217],[15.5794589,58.4016205],[15.5794602,58.4016194],[15.5794617,58.4016183],[15.5794634,58.4016174],[15.5794653,58.4016165],[15.5794673,58.4016157],[15.5794695,58.401615],[15.5794717,58.4016144],[15.5794741,58.401614],[15.5794766,58.4016137],[15.5794791,58.4016135],[15.5794816,58.4016134],[15.5794841,58.4016135],[15.5794866,58.4016137],[15.5794891,58.401614],[15.5794915,58.4016144],[15.5794937,58.401615],[15.5794959,58.4016157],[15.5794979,58.4016165],[15.5794998,58.4016174],[15.5795015,58.4016183],[15.579503,58.4016194],[15.5795043,58.4016205],[15.5795054,58.4016217],[15.5795062,58.401623],[15.5795069,58.4016243],[15.5795072,58.4016256],[15.5795073,58.4016269],[15.5795072,58.4016282],[15.5795069,58.4016295],[15.5795062,58.4016308],[15.5795054,58.4016321],[15.5795043,58.4016333],[15.579503,58.4016344],[15.5795015,58.4016355],[15.5794998,58.4016364],[15.5794979,58.4016373],[15.5794959,58.4016381],[15.5794937,58.4016388],[15.5794915,58.4016394],[15.5794891,58.4016398],[15.5794866,58.4016401],[15.5794841,58.4016403],[15.5794816,58.4016404]]]]}},
{"type":"Feature","properties":{"felt:feature":23,"felt:color":"#C93535","felt:hasLongDescription":null,"felt:id":"xTuvQa6zQriX6nZZf1MQmC","felt:locked":false,"felt:ordering":1788104211048764,"felt:radiusDisplayAngle":90,"felt:showArea":false,"felt:type":"Polygon","felt:widthScale":1,"id":45},"geometry":{"type":"MultiPolygon","coordinates":[[[[15.5795537,58.4016466],[15.5795512,58.4016465],[15.5795487,58.4016463],[15.5795462,58.401646],[15.5795438,58.4016456],[15.5795416,58.401645],[15.5795394,58.4016443],[15.5795374,58.4016435],[15.5795355,58.4016426],[15.5795338,58.4016417],[15.5795323,58.4016406],[15.579531,58.4016395],[15.5795299,58.4016383],[15.5795291,58.401637],[15.5795284,58.4016357],[15.5795281,58.4016344],[15.579528,58.4016331],[15.5795281,58.4016318],[15.5795284,58.4016305],[15.5795291,58.4016292],[15.5795299,58.4016279],[15.579531,58.4016267],[15.5795323,58.4016256],[15.5795338,58.4016245],[15.5795355,58.4016236],[15.5795374,58.4016227],[15.5795394,58.4016219],[15.5795416,58.4016212],[15.5795438,58.4016206],[15.5795462,58.4016202],[15.5795487,58.4016199],[15.5795512,58.4016197],[15.5795537,58.4016196],[15.5795562,58.4016197],[15.5795587,58.4016199],[15.5795612,58.4016202],[15.5795636,58.4016206],[15.5795658,58.4016212],[15.579568,58.4016219],[15.57957,58.4016227],[15.5795719,58.4016236],[15.5795736,58.4016245],[15.5795751,58.4016256],[15.5795764,58.4016267],[15.5795775,58.4016279],[15.5795783,58.4016292],[15.579579,58.4016305],[15.5795793,58.4016318],[15.5795794,58.4016331],[15.5795793,58.4016344],[15.579579,58.4016357],[15.5795783,58.401637],[15.5795775,58.4016383],[15.5795764,58.4016395],[15.5795751,58.4016406],[15.5795736,58.4016417],[15.5795719,58.4016426],[15.57957,58.4016435],[15.579568,58.4016443],[15.5795658,58.401645],[15.5795636,58.4016456],[15.5795612,58.401646],[15.5795587,58.4016463],[15.5795562,58.4016465],[15.5795537,58.4016466]]]]}},
{"type":"Feature","properties":{"felt:feature":24,"felt:color":"#C93535","felt:hasLongDescription":null,"felt:id":"76X5FSmAQFaH7rKfaBvMjB","felt:locked":false,"felt:ordering":1788104318214486,"felt:radiusDisplayAngle":90,"felt:showArea":false,"felt:type":"Polygon","felt:widthScale":1,"id":24},"geometry":{"type":"MultiPolygon","coordinates":[[[[15.5782487,58.4017608],[15.5782462,58.4017607],[15.5782437,58.4017605],[15.5782412,58.4017602],[15.5782388,58.4017598],[15.5782366,58.4017592],[15.5782344,58.4017585],[15.5782324,58.4017577],[15.5782305,58.4017568],[15.5782288,58.4017559],[15.5782273,58.4017548],[15.578226,58.4017537],[15.5782249,58.4017525],[15.5782241,58.4017512],[15.5782234,58.4017499],[15.5782231,58.4017486],[15.578223,58.4017473],[15.5782231,58.401746],[15.5782234,58.4017447],[15.5782241,58.4017434],[15.5782249,58.4017421],[15.578226,58.4017409],[15.5782273,58.4017398],[15.5782288,58.4017387],[15.5782305,58.4017378],[15.5782324,58.4017369],[15.5782344,58.4017361],[15.5782366,58.4017354],[15.5782388,58.4017348],[15.5782412,58.4017344],[15.5782437,58.4017341],[15.5782462,58.4017339],[15.5782487,58.4017338],[15.5782512,58.4017339],[15.5782537,58.4017341],[15.5782562,58.4017344],[15.5782586,58.4017348],[15.5782608,58.4017354],[15.578263,58.4017361],[15.578265,58.4017369],[15.5782669,58.4017378],[15.5782686,58.4017387],[15.5782701,58.4017398],[15.5782714,58.4017409],[15.5782725,58.4017421],[15.5782733,58.4017434],[15.578274,58.4017447],[15.5782743,58.401746],[15.5782744,58.4017473],[15.5782743,58.4017486],[15.578274,58.4017499],[15.5782733,58.4017512],[15.5782725,58.4017525],[15.5782714,58.4017537],[15.5782701,58.4017548],[15.5782686,58.4017559],[15.5782669,58.4017568],[15.578265,58.4017577],[15.578263,58.4017585],[15.5782608,58.4017592],[15.5782586,58.4017598],[15.5782562,58.4017602],[15.5782537,58.4017605],[15.5782512,58.4017607],[15.5782487,58.4017608]]]]}},
{"type":"Feature","properties":{"felt:feature":25,"felt:color":"#C93535","felt:hasLongDescription":null,"felt:id":"RYVYO43yQIKYnk7kj4bU7C","felt:locked":false,"felt:ordering":1788104373363315,"felt:radiusDisplayAngle":90,"felt:showArea":false,"felt:type":"Polygon","felt:widthScale":1,"id":26},"geometry":{"type":"MultiPolygon","coordinates":[[[[15.578267,58.4016545],[15.5782645,58.4016544],[15.578262,58.4016542],[15.5782595,58.4016539],[15.5782571,58.4016535],[15.5782549,58.4016529],[15.5782527,58.4016522],[15.5782507,58.4016514],[15.5782488,58.4016505],[15.5782471,58.4016496],[15.5782456,58.4016485],[15.5782443,58.4016474],[15.5782432,58.4016462],[15.5782424,58.4016449],[15.5782417,58.4016436],[15.5782414,58.4016423],[15.5782413,58.401641],[15.5782414,58.4016397],[15.5782417,58.4016384],[15.5782424,58.4016371],[15.5782432,58.4016358],[15.5782443,58.4016346],[15.5782456,58.4016335],[15.5782471,58.4016324],[15.5782488,58.4016315],[15.5782507,58.4016306],[15.5782527,58.4016298],[15.5782549,58.4016291],[15.5782571,58.4016285],[15.5782595,58.4016281],[15.578262,58.4016278],[15.5782645,58.4016276],[15.578267,58.4016275],[15.5782695,58.4016276],[15.578272,58.4016278],[15.5782745,58.4016281],[15.5782769,58.4016285],[15.5782791,58.4016291],[15.5782813,58.4016298],[15.5782833,58.4016306],[15.5782852,58.4016315],[15.5782869,58.4016324],[15.5782884,58.4016335],[15.5782897,58.4016346],[15.5782908,58.4016358],[15.5782916,58.4016371],[15.5782923,58.4016384],[15.5782926,58.4016397],[15.5782927,58.401641],[15.5782926,58.4016423],[15.5782923,58.4016436],[15.5782916,58.4016449],[15.5782908,58.4016462],[15.5782897,58.4016474],[15.5782884,58.4016485],[15.5782869,58.4016496],[15.5782852,58.4016505],[15.5782833,58.4016514],[15.5782813,58.4016522],[15.5782791,58.4016529],[15.5782769,58.4016535],[15.5782745,58.4016539],[15.578272,58.4016542],[15.5782695,58.4016544],[15.578267,58.4016545]]]]}},
{"type":"Feature","properties":{"felt:feature":26,"felt:color":"#C93535","felt:hasLongDescription":null,"felt:id":"nIMAol9B9CQH9BplBNadYZ6GB","felt:locked":false,"felt:ordering":1788104434312722,"felt:radiusDisplayAngle":90,"felt:showArea":false,"felt:type":"Polygon","felt:widthScale":1,"id":16},"geometry":{"type":"MultiPolygon","coordinates":[[[[15.5785515,58.4021789],[15.578549,58.4021788],[15.5785465,58.4021786],[15.578544,58.4021783],[15.5785416,58.4021779],[15.5785394,58.4021773],[15.5785372,58.4021766],[15.5785352,58.4021758],[15.5785333,58.4021749],[15.5785316,58.402174],[15.5785301,58.4021729],[15.5785288,58.4021718],[15.5785277,58.4021706],[15.5785269,58.4021693],[15.5785262,58.402168],[15.5785259,58.4021667],[15.5785258,58.4021654],[15.5785259,58.4021641],[15.5785262,58.4021628],[15.5785269,58.4021615],[15.5785277,58.4021602],[15.5785288,58.402159],[15.5785301,58.4021579],[15.5785316,58.4021568],[15.5785333,58.4021559],[15.5785352,58.402155],[15.5785372,58.4021542],[15.5785394,58.4021535],[15.5785416,58.4021529],[15.578544,58.4021525],[15.5785465,58.4021522],[15.578549,58.402152],[15.5785515,58.4021519],[15.578554,58.402152],[15.5785565,58.4021522],[15.578559,58.4021525],[15.5785614,58.4021529],[15.5785636,58.4021535],[15.5785658,58.4021542],[15.5785678,58.402155],[15.5785697,58.4021559],[15.5785714,58.4021568],[15.5785729,58.4021579],[15.5785742,58.402159],[15.5785753,58.4021602],[15.5785761,58.4021615],[15.5785768,58.4021628],[15.5785771,58.4021641],[15.5785772,58.4021654],[15.5785771,58.4021667],[15.5785768,58.402168],[15.5785761,58.4021693],[15.5785753,58.4021706],[15.5785742,58.4021718],[15.5785729,58.4021729],[15.5785714,58.402174],[15.5785697,58.4021749],[15.5785678,58.4021758],[15.5785658,58.4021766],[15.5785636,58.4021773],[15.5785614,58.4021779],[15.578559,58.4021783],[15.5785565,58.4021786],[15.578554,58.4021788],[15.5785515,58.4021789]]]]}},
{"type":"Feature","properties":{"felt:feature":27,"felt:color":"#C93535","felt:hasLongDescription":null,"felt:id":"CUPx5jZPR9CWifOpA74XrED","felt:locked":false,"felt:ordering":1788104449039134,"felt:radiusDisplayAngle":90,"felt:showArea":false,"felt:type":"Polygon","felt:widthScale":1,"id":15},"geometry":{"type":"MultiPolygon","coordinates":[[[[15.578624,58.4021796],[15.5786215,58.4021795],[15.578619,58.4021793],[15.5786165,58.402179],[15.5786141,58.4021786],[15.5786119,58.402178],[15.5786097,58.4021773],[15.5786077,58.4021765],[15.5786058,58.4021756],[15.5786041,58.4021747],[15.5786026,58.4021736],[15.5786013,58.4021725],[15.5786002,58.4021713],[15.5785994,58.40217],[15.5785987,58.4021687],[15.5785984,58.4021674],[15.5785983,58.4021661],[15.5785984,58.4021648],[15.5785987,58.4021635],[15.5785994,58.4021622],[15.5786002,58.4021609],[15.5786013,58.4021597],[15.5786026,58.4021586],[15.5786041,58.4021575],[15.5786058,58.4021566],[15.5786077,58.4021557],[15.5786097,58.4021549],[15.5786119,58.4021542],[15.5786141,58.4021536],[15.5786165,58.4021532],[15.578619,58.4021529],[15.5786215,58.4021527],[15.578624,58.4021526],[15.5786265,58.4021527],[15.578629,58.4021529],[15.5786315,58.4021532],[15.5786339,58.4021536],[15.5786361,58.4021542],[15.5786383,58.4021549],[15.5786403,58.4021557],[15.5786422,58.4021566],[15.5786439,58.4021575],[15.5786454,58.4021586],[15.5786467,58.4021597],[15.5786478,58.4021609],[15.5786486,58.4021622],[15.5786493,58.4021635],[15.5786496,58.4021648],[15.5786497,58.4021661],[15.5786496,58.4021674],[15.5786493,58.4021687],[15.5786486,58.40217],[15.5786478,58.4021713],[15.5786467,58.4021725],[15.5786454,58.4021736],[15.5786439,58.4021747],[15.5786422,58.4021756],[15.5786403,58.4021765],[15.5786383,58.4021773],[15.5786361,58.402178],[15.5786339,58.4021786],[15.5786315,58.402179],[15.578629,58.4021793],[15.5786265,58.4021795],[15.578624,58.4021796]]]]}},
{"type":"Feature","properties":{"felt:feature":28,"felt:color":"#C93535","felt:hasLongDescription":null,"felt:id":"0El0z6k1R2iuNk8W8x8nSC","felt:locked":false,"felt:ordering":1788104550492555,"felt:radiusDisplayAngle":90,"felt:showArea":false,"felt:type":"Polygon","felt:widthScale":1,"id":14},"geometry":{"type":"MultiPolygon","coordinates":[[[[15.5786242,58.4022144],[15.5786217,58.4022143],[15.5786192,58.4022141],[15.5786167,58.4022138],[15.5786143,58.4022134],[15.5786121,58.4022128],[15.5786099,58.4022121],[15.5786079,58.4022113],[15.578606,58.4022104],[15.5786043,58.4022095],[15.5786028,58.4022084],[15.5786015,58.4022073],[15.5786004,58.4022061],[15.5785996,58.4022048],[15.5785989,58.4022035],[15.5785986,58.4022022],[15.5785985,58.4022009],[15.5785986,58.4021996],[15.5785989,58.4021983],[15.5785996,58.402197],[15.5786004,58.4021957],[15.5786015,58.4021945],[15.5786028,58.4021934],[15.5786043,58.4021923],[15.578606,58.4021914],[15.5786079,58.4021905],[15.5786099,58.4021897],[15.5786121,58.402189],[15.5786143,58.4021884],[15.5786167,58.402188],[15.5786192,58.4021877],[15.5786217,58.4021875],[15.5786242,58.4021874],[15.5786267,58.4021875],[15.5786292,58.4021877],[15.5786317,58.402188],[15.5786341,58.4021884],[15.5786363,58.402189],[15.5786385,58.4021897],[15.5786405,58.4021905],[15.5786424,58.4021914],[15.5786441,58.4021923],[15.5786456,58.4021934],[15.5786469,58.4021945],[15.578648,58.4021957],[15.5786488,58.402197],[15.5786495,58.4021983],[15.5786498,58.4021996],[15.5786499,58.4022009],[15.5786498,58.4022022],[15.5786495,58.4022035],[15.5786488,58.4022048],[15.578648,58.4022061],[15.5786469,58.4022073],[15.5786456,58.4022084],[15.5786441,58.4022095],[15.5786424,58.4022104],[15.5786405,58.4022113],[15.5786385,58.4022121],[15.5786363,58.4022128],[15.5786341,58.4022134],[15.5786317,58.4022138],[15.5786292,58.4022141],[15.5786267,58.4022143],[15.5786242,58.4022144]]]]}},
{"type":"Feature","properties":{"felt:feature":29,"felt:color":"#C93535","felt:hasLongDescription":null,"felt:id":"rp7WMBbTTCyE89BM9APXFM5C","felt:locked":false,"felt:ordering":1788104646365073,"felt:radiusDisplayAngle":90,"felt:showArea":false,"felt:type":"Polygon","felt:widthScale":1,"id":13},"geometry":{"type":"MultiPolygon","coordinates":[[[[15.5789513,58.4022435],[15.5789488,58.4022434],[15.5789463,58.4022432],[15.5789438,58.4022429],[15.5789414,58.4022425],[15.5789392,58.4022419],[15.578937,58.4022412],[15.578935,58.4022404],[15.5789331,58.4022395],[15.5789314,58.4022386],[15.5789299,58.4022375],[15.5789286,58.4022364],[15.5789275,58.4022352],[15.5789267,58.4022339],[15.578926,58.4022326],[15.5789257,58.4022313],[15.5789256,58.40223],[15.5789257,58.4022287],[15.578926,58.4022274],[15.5789267,58.4022261],[15.5789275,58.4022248],[15.5789286,58.4022236],[15.5789299,58.4022225],[15.5789314,58.4022214],[15.5789331,58.4022205],[15.578935,58.4022196],[15.578937,58.4022188],[15.5789392,58.4022181],[15.5789414,58.4022175],[15.5789438,58.4022171],[15.5789463,58.4022168],[15.5789488,58.4022166],[15.5789513,58.4022165],[15.5789538,58.4022166],[15.5789563,58.4022168],[15.5789588,58.4022171],[15.5789612,58.4022175],[15.5789634,58.4022181],[15.5789656,58.4022188],[15.5789676,58.4022196],[15.5789695,58.4022205],[15.5789712,58.4022214],[15.5789727,58.4022225],[15.578974,58.4022236],[15.5789751,58.4022248],[15.5789759,58.4022261],[15.5789766,58.4022274],[15.5789769,58.4022287],[15.578977,58.40223],[15.5789769,58.4022313],[15.5789766,58.4022326],[15.5789759,58.4022339],[15.5789751,58.4022352],[15.578974,58.4022364],[15.5789727,58.4022375],[15.5789712,58.4022386],[15.5789695,58.4022395],[15.5789676,58.4022404],[15.5789656,58.4022412],[15.5789634,58.4022419],[15.5789612,58.4022425],[15.5789588,58.4022429],[15.5789563,58.4022432],[15.5789538,58.4022434],[15.5789513,58.4022435]]]]}},
{"type":"Feature","properties":{"felt:feature":30,"felt:color":"#C93535","felt:hasLongDescription":null,"felt:id":"snd5LIa1QQeA50iJH6LYlB","felt:locked":false,"felt:ordering":1788104646365173,"felt:radiusDisplayAngle":90,"felt:showArea":false,"felt:type":"Polygon","felt:widthScale":1,"id":12},"geometry":{"type":"MultiPolygon","coordinates":[[[[15.5790247,58.4022435],[15.5790222,58.4022434],[15.5790197,58.4022432],[15.5790172,58.4022429],[15.5790148,58.4022425],[15.5790126,58.4022419],[15.5790104,58.4022412],[15.5790084,58.4022404],[15.5790065,58.4022395],[15.5790048,58.4022386],[15.5790033,58.4022375],[15.579002,58.4022364],[15.5790009,58.4022352],[15.5790001,58.4022339],[15.5789994,58.4022326],[15.5789991,58.4022313],[15.578999,58.40223],[15.5789991,58.4022287],[15.5789994,58.4022274],[15.5790001,58.4022261],[15.5790009,58.4022248],[15.579002,58.4022236],[15.5790033,58.4022225],[15.5790048,58.4022214],[15.5790065,58.4022205],[15.5790084,58.4022196],[15.5790104,58.4022188],[15.5790126,58.4022181],[15.5790148,58.4022175],[15.5790172,58.4022171],[15.5790197,58.4022168],[15.5790222,58.4022166],[15.5790247,58.4022165],[15.5790272,58.4022166],[15.5790297,58.4022168],[15.5790322,58.4022171],[15.5790346,58.4022175],[15.5790368,58.4022181],[15.579039,58.4022188],[15.579041,58.4022196],[15.5790429,58.4022205],[15.5790446,58.4022214],[15.5790461,58.4022225],[15.5790474,58.4022236],[15.5790485,58.4022248],[15.5790493,58.4022261],[15.57905,58.4022274],[15.5790503,58.4022287],[15.5790504,58.40223],[15.5790503,58.4022313],[15.57905,58.4022326],[15.5790493,58.4022339],[15.5790485,58.4022352],[15.5790474,58.4022364],[15.5790461,58.4022375],[15.5790446,58.4022386],[15.5790429,58.4022395],[15.579041,58.4022404],[15.579039,58.4022412],[15.5790368,58.4022419],[15.5790346,58.4022425],[15.5790322,58.4022429],[15.5790297,58.4022432],[15.5790272,58.4022434],[15.5790247,58.4022435]]]]}},
{"type":"Feature","properties":{"felt:feature":31,"felt:color":"#C93535","felt:hasLongDescription":null,"felt:id":"vnIm0rvXSry3Iz7FwDyCXB","felt:locked":false,"felt:ordering":1788108207807790,"felt:radiusDisplayAngle":90,"felt:showArea":false,"felt:type":"Polygon","felt:widthScale":1,"id":11},"geometry":{"type":"MultiPolygon","coordinates":[[[[15.5790949,58.4022434],[15.5790924,58.4022433],[15.5790899,58.4022431],[15.5790874,58.4022428],[15.579085,58.4022424],[15.5790828,58.4022418],[15.5790806,58.4022411],[15.5790786,58.4022403],[15.5790767,58.4022394],[15.579075,58.4022385],[15.5790735,58.4022374],[15.5790722,58.4022363],[15.5790711,58.4022351],[15.5790703,58.4022338],[15.5790696,58.4022325],[15.5790693,58.4022312],[15.5790692,58.4022299],[15.5790693,58.4022286],[15.5790696,58.4022273],[15.5790703,58.402226],[15.5790711,58.4022247],[15.5790722,58.4022235],[15.5790735,58.4022224],[15.579075,58.4022213],[15.5790767,58.4022204],[15.5790786,58.4022195],[15.5790806,58.4022187],[15.5790828,58.402218],[15.579085,58.4022174],[15.5790874,58.402217],[15.5790899,58.4022167],[15.5790924,58.4022165],[15.5790949,58.4022164],[15.5790974,58.4022165],[15.5790999,58.4022167],[15.5791024,58.402217],[15.5791048,58.4022174],[15.579107,58.402218],[15.5791092,58.4022187],[15.5791112,58.4022195],[15.5791131,58.4022204],[15.5791148,58.4022213],[15.5791163,58.4022224],[15.5791176,58.4022235],[15.5791187,58.4022247],[15.5791195,58.402226],[15.5791202,58.4022273],[15.5791205,58.4022286],[15.5791206,58.4022299],[15.5791205,58.4022312],[15.5791202,58.4022325],[15.5791195,58.4022338],[15.5791187,58.4022351],[15.5791176,58.4022363],[15.5791163,58.4022374],[15.5791148,58.4022385],[15.5791131,58.4022394],[15.5791112,58.4022403],[15.5791092,58.4022411],[15.579107,58.4022418],[15.5791048,58.4022424],[15.5791024,58.4022428],[15.5790999,58.4022431],[15.5790974,58.4022433],[15.5790949,58.4022434]]]]}},
{"type":"Feature","properties":{"felt:feature":32,"felt:color":"#C93535","felt:hasLongDescription":null,"felt:id":"AH0SJi9CiTqqHy9Bho4fI69CC","felt:locked":false,"felt:ordering":1788111770589400,"felt:radiusDisplayAngle":90,"felt:showArea":false,"felt:type":"Polygon","felt:widthScale":1,"id":1},"geometry":{"type":"MultiPolygon","coordinates":[[[[15.5785164,58.4022716],[15.5785043,58.40227],[15.578495,58.4022656],[15.5784926,58.4022633],[15.5784908,58.4022594],[15.5784911,58.4022555],[15.5784926,58.4022529],[15.5784965,58.4022495],[15.5785021,58.4022469],[15.5785089,58.4022452],[15.5785164,58.4022446],[15.5785239,58.4022452],[15.5785307,58.4022469],[15.5785363,58.4022495],[15.5785402,58.4022529],[15.5785417,58.4022555],[15.578542,58.4022594],[15.5785402,58.4022633],[15.5785378,58.4022656],[15.5785285,58.40227],[15.5785164,58.4022716]]]]}},
{"type":"Feature","properties":{"felt:feature":33,"felt:color":"#C93535","felt:hasLongDescription":null,"felt:id":"sQlbF3rfQPSc3Xi1DosIRA","felt:locked":false,"felt:ordering":1788111773580971,"felt:radiusDisplayAngle":90,"felt:showArea":false,"felt:type":"Polygon","felt:widthScale":1,"id":2},"geometry":{"type":"MultiPolygon","coordinates":[[[[15.5785905,58.4022718],[15.5785784,58.4022702],[15.5785691,58.4022658],[15.5785667,58.4022635],[15.5785649,58.4022596],[15.5785652,58.4022557],[15.5785667,58.4022531],[15.5785706,58.4022497],[15.5785762,58.4022471],[15.578583,58.4022454],[15.5785905,58.4022448],[15.578598,58.4022454],[15.5786048,58.4022471],[15.5786104,58.4022497],[15.5786143,58.4022531],[15.5786158,58.4022557],[15.5786161,58.4022596],[15.5786143,58.4022635],[15.5786119,58.4022658],[15.5786026,58.4022702],[15.5785905,58.4022718]]]]}},
{"type":"Feature","properties":{"felt:feature":34,"felt:color":"#C93535","felt:hasLongDescription":null,"felt:id":"RIJzWpkcTmKiIkO9BwiLnOB","felt:locked":false,"felt:ordering":1788111776433103,"felt:radiusDisplayAngle":90,"felt:showArea":false,"felt:type":"Polygon","felt:widthScale":1,"id":3},"geometry":{"type":"MultiPolygon","coordinates":[[[[15.5786638,58.4022718],[15.5786517,58.4022702],[15.5786424,58.4022658],[15.57864,58.4022635],[15.5786382,58.4022596],[15.5786385,58.4022557],[15.57864,58.4022531],[15.5786439,58.4022497],[15.5786495,58.4022471],[15.5786563,58.4022454],[15.5786638,58.4022448],[15.5786713,58.4022454],[15.5786781,58.4022471],[15.5786837,58.4022497],[15.5786876,58.4022531],[15.5786891,58.4022557],[15.5786894,58.4022596],[15.5786876,58.4022635],[15.5786852,58.4022658],[15.5786759,58.4022702],[15.5786638,58.4022718]]]]}},
{"type":"Feature","properties":{"felt:feature":35,"felt:color":"#C93535","felt:hasLongDescription":null,"felt:id":"KKsdM5EoQliawSiwxEs6AB","felt:locked":false,"felt:ordering":1788111779244535,"felt:radiusDisplayAngle":90,"felt:showArea":false,"felt:type":"Polygon","felt:widthScale":1,"id":4},"geometry":{"type":"MultiPolygon","coordinates":[[[[15.578734,58.4022717],[15.5787219,58.4022701],[15.5787126,58.4022657],[15.5787102,58.4022634],[15.5787084,58.4022595],[15.5787087,58.4022556],[15.5787102,58.402253],[15.5787141,58.4022496],[15.5787197,58.402247],[15.5787265,58.4022453],[15.578734,58.4022447],[15.5787415,58.4022453],[15.5787483,58.402247],[15.5787539,58.4022496],[15.5787578,58.402253],[15.5787593,58.4022556],[15.5787596,58.4022595],[15.5787578,58.4022634],[15.5787554,58.4022657],[15.5787461,58.4022701],[15.578734,58.4022717]]]]}},
{"type":"Feature","properties":{"felt:feature":36,"felt:color":"#C93535","felt:hasLongDescription":null,"felt:id":"9AInOqtsbQziZq9BBzob2dVC","felt:locked":false,"felt:ordering":1788111786094076,"felt:radiusDisplayAngle":90,"felt:showArea":false,"felt:type":"Polygon","felt:widthScale":1,"id":5},"geometry":{"type":"MultiPolygon","coordinates":[[[[15.5788049,58.4022719],[15.5787928,58.4022703],[15.5787835,58.4022659],[15.5787811,58.4022636],[15.5787793,58.4022597],[15.5787796,58.4022558],[15.5787811,58.4022532],[15.578785,58.4022498],[15.5787906,58.4022472],[15.5787974,58.4022455],[15.5788049,58.4022449],[15.5788124,58.4022455],[15.5788192,58.4022472],[15.5788248,58.4022498],[15.5788287,58.4022532],[15.5788302,58.4022558],[15.5788305,58.4022597],[15.5788287,58.4022636],[15.5788263,58.4022659],[15.578817,58.4022703],[15.5788049,58.4022719]]]]}},
{"type":"Feature","properties":{"felt:feature":37,"felt:color":"#C93535","felt:hasLongDescription":false,"felt:id":"PgOja9BixQiG6vT1ygj9AV4A","felt:locked":false,"felt:ordering":1788111792791410,"felt:radiusDisplayAngle":90,"felt:showArea":false,"felt:type":"Polygon","felt:widthScale":1,"id":6},"geometry":{"type":"MultiPolygon","coordinates":[[[[15.578914,58.4022777],[15.5789019,58.4022761],[15.5788926,58.4022717],[15.5788902,58.4022694],[15.5788884,58.4022655],[15.5788887,58.4022616],[15.5788902,58.402259],[15.5788941,58.4022556],[15.5788997,58.402253],[15.5789065,58.4022513],[15.578914,58.4022507],[15.5789215,58.4022513],[15.5789283,58.402253],[15.5789339,58.4022556],[15.5789378,58.402259],[15.5789393,58.4022616],[15.5789396,58.4022655],[15.5789378,58.4022694],[15.5789354,58.4022717],[15.5789261,58.4022761],[15.578914,58.4022777]]]]}},
{"type":"Feature","properties":{"felt:feature":38,"felt:color":"#C93535","felt:hasLongDescription":null,"felt:id":"Sxo9AU9BRARwWz9CdfsBD8XUD","felt:locked":false,"felt:ordering":1788111795414706,"felt:radiusDisplayAngle":90,"felt:showArea":false,"felt:type":"Polygon","felt:widthScale":1,"id":7},"geometry":{"type":"MultiPolygon","coordinates":[[[[15.5789881,58.4022779],[15.578976,58.4022763],[15.5789667,58.4022719],[15.5789643,58.4022696],[15.5789625,58.4022657],[15.5789628,58.4022618],[15.5789643,58.4022592],[15.5789682,58.4022558],[15.5789738,58.4022532],[15.5789806,58.4022515],[15.5789881,58.4022509],[15.5789956,58.4022515],[15.5790024,58.4022532],[15.579008,58.4022558],[15.5790119,58.4022592],[15.5790134,58.4022618],[15.5790137,58.4022657],[15.5790119,58.4022696],[15.5790095,58.4022719],[15.5790002,58.4022763],[15.5789881,58.4022779]]]]}},
{"type":"Feature","properties":{"felt:feature":39,"felt:color":"#C93535","felt:hasLongDescription":null,"felt:id":"NiTqZ4JQRnueoE26r9ATbXC","felt:locked":false,"felt:ordering":1788111798025779,"felt:radiusDisplayAngle":90,"felt:showArea":false,"felt:type":"Polygon","felt:widthScale":1,"id":8},"geometry":{"type":"MultiPolygon","coordinates":[[[[15.5790614,58.4022779],[15.5790493,58.4022763],[15.57904,58.4022719],[15.5790376,58.4022696],[15.5790358,58.4022657],[15.5790361,58.4022618],[15.5790376,58.4022592],[15.5790415,58.4022559],[15.5790471,58.4022533],[15.5790539,58.4022516],[15.5790614,58.402251],[15.5790689,58.4022516],[15.5790757,58.4022533],[15.5790813,58.4022559],[15.5790852,58.4022592],[15.5790867,58.4022618],[15.579087,58.4022657],[15.5790852,58.4022696],[15.5790828,58.4022719],[15.5790735,58.4022763],[15.5790614,58.4022779]]]]}},
{"type":"Feature","properties":{"felt:feature":40,"felt:color":"#C93535","felt:hasLongDescription":null,"felt:id":"ZotCv76cSBCWCT7RZlKpUA","felt:locked":false,"felt:ordering":1788111854110750,"felt:radiusDisplayAngle":90,"felt:showArea":false,"felt:type":"Polygon","felt:widthScale":1,"id":9},"geometry":{"type":"MultiPolygon","coordinates":[[[[15.5791316,58.4022779],[15.5791195,58.4022763],[15.5791102,58.4022719],[15.5791078,58.4022696],[15.579106,58.4022657],[15.5791063,58.4022618],[15.5791078,58.4022592],[15.5791117,58.4022558],[15.5791173,58.4022532],[15.5791241,58.4022515],[15.5791316,58.4022509],[15.5791391,58.4022515],[15.5791459,58.4022532],[15.5791515,58.4022558],[15.5791554,58.4022592],[15.5791569,58.4022618],[15.5791572,58.4022657],[15.5791554,58.4022696],[15.579153,58.4022719],[15.5791437,58.4022763],[15.5791316,58.4022779]]]]}},
{"type":"Feature","properties":{"felt:feature":41,"felt:color":"#C93535","felt:hasLongDescription":false,"felt:id":"Fyz4BK26Sq2KUrociCEdCC","felt:locked":false,"felt:ordering":1788111909846448,"felt:radiusDisplayAngle":90,"felt:showArea":false,"felt:type":"Polygon","felt:widthScale":1,"id":42},"geometry":{"type":"MultiPolygon","coordinates":[[[[15.5794224,58.4015959],[15.5794103,58.4015943],[15.579401,58.4015899],[15.5793986,58.4015876],[15.5793968,58.4015837],[15.5793971,58.4015798],[15.5793986,58.4015772],[15.5794025,58.4015738],[15.5794081,58.4015712],[15.5794149,58.4015695],[15.5794224,58.4015689],[15.5794299,58.4015695],[15.5794367,58.4015712],[15.5794423,58.4015738],[15.5794462,58.4015772],[15.5794477,58.4015798],[15.579448,58.4015837],[15.5794462,58.4015876],[15.5794438,58.4015899],[15.5794345,58.4015943],[15.5794224,58.4015959]]]]}},
{"type":"Feature","properties":{"felt:feature":42,"felt:color":"#C93535","felt:hasLongDescription":null,"felt:id":"gSPTrY9CbQDeR5j3GCQApWD","felt:locked":false,"felt:ordering":1788316214665050,"felt:radiusDisplayAngle":90,"felt:showArea":false,"felt:type":"Polygon","felt:widthScale":1,"id":43},"geometry":{"type":"MultiPolygon","coordinates":[[[[15.5794945,58.4016021],[15.5794824,58.4016005],[15.5794731,58.4015961],[15.5794707,58.4015938],[15.5794689,58.4015899],[15.5794692,58.401586],[15.5794707,58.4015834],[15.5794746,58.40158],[15.5794802,58.4015774],[15.579487,58.4015757],[15.5794945,58.4015751],[15.579502,58.4015757],[15.5795088,58.4015774],[15.5795144,58.40158],[15.5795183,58.4015834],[15.5795198,58.401586],[15.5795201,58.4015899],[15.5795183,58.4015938],[15.5795159,58.4015961],[15.5795066,58.4016005],[15.5794945,58.4016021]]]]}},
{"type":"Feature","properties":{"felt:feature":43,"felt:color":"#C93535","felt:hasLongDescription":false,"felt:id":"TBtbHFe2QJy6uyhhbCJ7OD","felt:locked":false,"felt:ordering":1788520536117744,"felt:radiusDisplayAngle":90,"felt:showArea":false,"felt:type":"Polygon","felt:widthScale":1,"id":39},"geometry":{"type":"MultiPolygon","coordinates":[[[[15.5791632,58.4015513],[15.5791607,58.4015512],[15.5791582,58.401551],[15.5791557,58.4015507],[15.5791533,58.4015503],[15.5791511,58.4015497],[15.5791489,58.401549],[15.5791469,58.4015482],[15.579145,58.4015473],[15.5791433,58.4015464],[15.5791418,58.4015453],[15.5791405,58.4015442],[15.5791394,58.401543],[15.5791386,58.4015417],[15.5791379,58.4015404],[15.5791376,58.4015391],[15.5791375,58.4015378],[15.5791376,58.4015365],[15.5791379,58.4015352],[15.5791386,58.4015339],[15.5791394,58.4015326],[15.5791405,58.4015314],[15.5791418,58.4015303],[15.5791433,58.4015292],[15.579145,58.4015283],[15.5791469,58.4015274],[15.5791489,58.4015266],[15.5791511,58.4015259],[15.5791533,58.4015253],[15.5791557,58.4015249],[15.5791582,58.4015246],[15.5791607,58.4015244],[15.5791632,58.4015243],[15.5791657,58.4015244],[15.5791682,58.4015246],[15.5791707,58.4015249],[15.5791731,58.4015253],[15.5791753,58.4015259],[15.5791775,58.4015266],[15.5791795,58.4015274],[15.5791814,58.4015283],[15.5791831,58.4015292],[15.5791846,58.4015303],[15.5791859,58.4015314],[15.579187,58.4015326],[15.5791878,58.4015339],[15.5791885,58.4015352],[15.5791888,58.4015365],[15.5791889,58.4015378],[15.5791888,58.4015391],[15.5791885,58.4015404],[15.5791878,58.4015417],[15.579187,58.401543],[15.5791859,58.4015442],[15.5791846,58.4015453],[15.5791831,58.4015464],[15.5791814,58.4015473],[15.5791795,58.4015482],[15.5791775,58.401549],[15.5791753,58.4015497],[15.5791731,58.4015503],[15.5791707,58.4015507],[15.5791682,58.401551],[15.5791657,58.4015512],[15.5791632,58.4015513]]]]}},
{"type":"Feature","properties":{"felt:feature":44,"felt:color":"#C93535","felt:hasLongDescription":false,"felt:id":"1todby0vSl9BeB9AYqM4X4eB","felt:locked":false,"felt:ordering":1788520895975776,"felt:radiusDisplayAngle":90,"felt:showArea":false,"felt:type":"Polygon","felt:widthScale":1,"id":40},"geometry":{"type":"MultiPolygon","coordinates":[[[[15.5792365,58.4015585],[15.579234,58.4015584],[15.5792315,58.4015582],[15.579229,58.4015579],[15.5792266,58.4015575],[15.5792244,58.4015569],[15.5792222,58.4015562],[15.5792202,58.4015554],[15.5792183,58.4015545],[15.5792166,58.4015536],[15.5792151,58.4015525],[15.5792138,58.4015514],[15.5792127,58.4015502],[15.5792119,58.4015489],[15.5792112,58.4015476],[15.5792109,58.4015463],[15.5792108,58.401545],[15.5792109,58.4015437],[15.5792112,58.4015424],[15.5792119,58.4015411],[15.5792127,58.4015398],[15.5792138,58.4015386],[15.5792151,58.4015375],[15.5792166,58.4015364],[15.5792183,58.4015355],[15.5792202,58.4015346],[15.5792222,58.4015338],[15.5792244,58.4015331],[15.5792266,58.4015325],[15.579229,58.4015321],[15.5792315,58.4015318],[15.579234,58.4015316],[15.5792365,58.4015315],[15.579239,58.4015316],[15.5792415,58.4015318],[15.579244,58.4015321],[15.5792464,58.4015325],[15.5792486,58.4015331],[15.5792508,58.4015338],[15.5792528,58.4015346],[15.5792547,58.4015355],[15.5792564,58.4015364],[15.5792579,58.4015375],[15.5792592,58.4015386],[15.5792603,58.4015398],[15.5792611,58.4015411],[15.5792618,58.4015424],[15.5792621,58.4015437],[15.5792622,58.401545],[15.5792621,58.4015463],[15.5792618,58.4015476],[15.5792611,58.4015489],[15.5792603,58.4015502],[15.5792592,58.4015514],[15.5792579,58.4015525],[15.5792564,58.4015536],[15.5792547,58.4015545],[15.5792528,58.4015554],[15.5792508,58.4015562],[15.5792486,58.4015569],[15.5792464,58.4015575],[15.579244,58.4015579],[15.5792415,58.4015582],[15.579239,58.4015584],[15.5792365,58.4015585]]]]}},
{"type":"Feature","properties":{"felt:feature":45,"felt:color":"#C93535","felt:hasLongDescription":false,"felt:id":"RomcLnUKTdaAn9C2H2tV3DB","felt:locked":false,"felt:ordering":1788521238106593,"felt:radiusDisplayAngle":90,"felt:showArea":false,"felt:type":"Polygon","felt:widthScale":1,"id":32},"geometry":{"type":"MultiPolygon","coordinates":[[[[15.5784668,58.401682],[15.5784643,58.4016819],[15.5784618,58.4016817],[15.5784593,58.4016814],[15.5784569,58.401681],[15.5784547,58.4016804],[15.5784525,58.4016797],[15.5784505,58.4016789],[15.5784486,58.401678],[15.5784469,58.4016771],[15.5784454,58.401676],[15.5784441,58.4016749],[15.578443,58.4016737],[15.5784422,58.4016724],[15.5784415,58.4016711],[15.5784412,58.4016698],[15.5784411,58.4016685],[15.5784412,58.4016672],[15.5784415,58.4016659],[15.5784422,58.4016646],[15.578443,58.4016633],[15.5784441,58.4016621],[15.5784454,58.401661],[15.5784469,58.4016599],[15.5784486,58.401659],[15.5784505,58.4016581],[15.5784525,58.4016573],[15.5784547,58.4016566],[15.5784569,58.401656],[15.5784593,58.4016556],[15.5784618,58.4016553],[15.5784643,58.4016551],[15.5784668,58.401655],[15.5784693,58.4016551],[15.5784718,58.4016553],[15.5784743,58.4016556],[15.5784767,58.401656],[15.5784789,58.4016566],[15.5784811,58.4016573],[15.5784831,58.4016581],[15.578485,58.401659],[15.5784867,58.4016599],[15.5784882,58.401661],[15.5784895,58.4016621],[15.5784906,58.4016633],[15.5784914,58.4016646],[15.5784921,58.4016659],[15.5784924,58.4016672],[15.5784925,58.4016685],[15.5784924,58.4016698],[15.5784921,58.4016711],[15.5784914,58.4016724],[15.5784906,58.4016737],[15.5784895,58.4016749],[15.5784882,58.401676],[15.5784867,58.4016771],[15.578485,58.401678],[15.5784831,58.4016789],[15.5784811,58.4016797],[15.5784789,58.4016804],[15.5784767,58.401681],[15.5784743,58.4016814],[15.5784718,58.4016817],[15.5784693,58.4016819],[15.5784668,58.401682]]]]}}
]
}
