{
"type": "FeatureCollection",
"name": "parsed",
"crs": { "type": "name", "properties": { "name": "urn:ogc:def:crs:OGC:1.3:CRS84" } },
"xy_coordinate_resolution": 1e-07,
"features": [
{"type":"Feature","properties":{"felt:feature":1,"felt:color":"#C93535","felt:id":"iDiacqJ3TXGDCAXKPaKNYB","felt:locked":false,"felt:ordering":1788104010882017,"felt:showArea":false,"felt:type":"Polygon","id":25},"geometry":{"type":"MultiPolygon","coordinates":[[[[15.5782559,58.4016988],[15.5782534,58.4016987],[15.5782509,58.4016985],[15.5782484,58.4016982],[15.578246,58.4016978],[15.5782438,58.4016972],[15.5782416,58.4016965],[15.5782396,58.4016957],[15.5782377,58.4016948],[15.578236,58.4016939],[15.5782345,58.4016928],[15.5782332,58.4016917],[15.5782321,58.4016905],[15.5782313,58.4016892],[15.5782306,58.4016879],[15.5782303,58.4016866],[15.5782302,58.4016853],[15.5782303,58.401684],[15.5782306,58.4016827],[15.5782313,58.4016814],[15.5782321,58.4016801],[15.5782332,58.4016789],[15.5782345,58.4016778],[15.578236,58.4016767],[15.5782377,58.4016758],[15.5782396,58.4016749],[15.5782416,58.4016741],[15.5782438,58.4016734],[15.578246,58.4016728],[15.5782484,58.4016724],[15.5782509,58.4016721],[15.5782534,58.4016719],[15.5782559,58.4016718],[15.5782584,58.4016719],[15.5782609,58.4016721],[15.5782634,58.4016724],[15.5782658,58.4016728],[15.578268,58.4016734],[15.5782702,58.4016741],[15.5782722,58.4016749],[15.5782741,58.4016758],[15.5782758,58.4016767],[15.5782773,58.4016778],[15.5782786,58.4016789],[15.5782797,58.4016801],[15.5782805,58.4016814],[15.5782812,58.4016827],[15.5782815,58.401684],[15.5782816,58.4016853],[15.5782815,58.4016866],[15.5782812,58.4016879],[15.5782805,58.4016892],[15.5782797,58.4016905],[15.5782786,58.4016917],[15.5782773,58.4016928],[15.5782758,58.4016939],[15.5782741,58.4016948],[15.5782722,58.4016957],[15.5782702,58.4016965],[15.578268,58.4016972],[15.5782658,58.4016978],[15.5782634,58.4016982],[15.5782609,58.4016985],[15.5782584,58.4016987],[15.5782559,58.4016988]]]]}},
{"type":"Feature","properties":{"felt:feature":2,"felt:color":"#C93535","felt:id":"UVT70rq7TcOfimUq7eMfrD","felt:locked":false,"felt:ordering":1788104014621587,"felt:showArea":false,"felt:type":"Polygon","id":23},"geometry":{"type":"MultiPolygon","coordinates":[[[[15.5782766,58.4017957],[15.5782741,58.4017956],[15.5782716,58.4017954],[15.5782691,58.4017951],[15.5782667,58.4017947],[15.5782645,58.4017941],[15.5782623,58.4017934],[15.5782603,58.4017926],[15.5782584,58.4017917],[15.5782567,58.4017908],[15.5782552,58.4017897],[15.5782539,58.4017886],[15.5782528,58.4017874],[15.578252,58.4017861],[15.5782513,58.4017848],[15.578251,58.4017835],[15.5782509,58.4017822],[15.578251,58.4017809],[15.5782513,58.4017796],[15.578252,58.4017783],[15.5782528,58.401777],[15.5782539,58.4017758],[15.5782552,58.4017747],[15.5782567,58.4017736],[15.5782584,58.4017727],[15.5782603,58.4017718],[15.5782623,58.401771],[15.5782645,58.4017703],[15.5782667,58.4017697],[15.5782691,58.4017693],[15.5782716,58.401769],[15.5782741,58.4017688],[15.5782766,58.4017687],[15.5782791,58.4017688],[15.5782816,58.401769],[15.5782841,58.4017693],[15.5782865,58.4017697],[15.5782887,58.4017703],[15.5782909,58.401771],[15.5782929,58.4017718],[15.5782948,58.4017727],[15.5782965,58.4017736],[15.578298,58.4017747],[15.5782993,58.4017758],[15.5783004,58.401777],[15.5783012,58.4017783],[15.5783019,58.4017796],[15.5783022,58.4017809],[15.5783023,58.4017822],[15.5783022,58.4017835],[15.5783019,58.4017848],[15.5783012,58.4017861],[15.5783004,58.4017874],[15.5782993,58.4017886],[15.578298,58.4017897],[15.5782965,58.4017908],[15.5782948,58.4017917],[15.5782929,58.4017926],[15.5782909,58.4017934],[15.5782887,58.4017941],[15.5782865,58.4017947],[15.5782841,58.4017951],[15.5782816,58.4017954],[15.5782791,58.4017956],[15.5782766,58.4017957]]]]}},
{"type":"Feature","properties":{"felt:feature":3,"felt:color":"#C93535","felt:id":"9CmPxxDrXRyCwvt16aHMsSC","felt:locked":false,"felt:ordering":1788104024094845,"felt:showArea":false,"felt:type":"Polygon","id":22},"geometry":{"type":"MultiPolygon","coordinates":[[[[15.5783032,58.4018308],[15.5783007,58.4018307],[15.5782982,58.4018305],[15.5782957,58.4018302],[15.5782933,58.4018298],[15.5782911,58.4018292],[15.5782889,58.4018285],[15.5782869,58.4018277],[15.578285,58.4018268],[15.5782833,58.4018259],[15.5782818,58.4018248],[15.5782805,58.4018237],[15.5782794,58.4018225],[15.5782786,58.4018212],[15.5782779,58.4018199],[15.5782776,58.4018186],[15.5782775,58.4018173],[15.5782776,58.401816],[15.5782779,58.4018147],[15.5782786,58.4018134],[15.5782794,58.4018121],[15.5782805,58.4018109],[15.5782818,58.4018098],[15.5782833,58.4018087],[15.578285,58.4018078],[15.5782869,58.4018069],[15.5782889,58.4018061],[15.5782911,58.4018054],[15.5782933,58.4018048],[15.5782957,58.4018044],[15.5782982,58.4018041],[15.5783007,58.4018039],[15.5783032,58.4018038],[15.5783057,58.4018039],[15.5783082,58.4018041],[15.5783107,58.4018044],[15.5783131,58.4018048],[15.5783153,58.4018054],[15.5783175,58.4018061],[15.5783195,58.4018069],[15.5783214,58.4018078],[15.5783231,58.4018087],[15.5783246,58.4018098],[15.5783259,58.4018109],[15.578327,58.4018121],[15.5783278,58.4018134],[15.5783285,58.4018147],[15.5783288,58.401816],[15.5783289,58.4018173],[15.5783288,58.4018186],[15.5783285,58.4018199],[15.5783278,58.4018212],[15.578327,58.4018225],[15.5783259,58.4018237],[15.5783246,58.4018248],[15.5783231,58.4018259],[15.5783214,58.4018268],[15.5783195,58.4018277],[15.5783175,58.4018285],[15.5783153,58.4018292],[15.5783131,58.4018298],[15.5783107,58.4018302],[15.5783082,58.4018305],[15.5783057,58.4018307],[15.5783032,58.4018308]]]]}},
{"type":"Feature","properties":{"felt:feature":4,"felt:color":"#C93535","felt:id":"eVrJNorBS1icVQxFJWaEdB","felt:locked":false,"felt:ordering":1788104034261048,"felt:showArea":false,"felt:type":"Polygon","id":21},"geometry":{"type":"MultiPolygon","coordinates":[[[[15.5782443,58.4018898],[15.5782418,58.4018897],[15.5782393,58.4018895],[15.5782368,58.4018892],[15.5782344,58.4018888],[15.5782322,58.4018882],[15.57823,58.4018875],[15.578228,58.4018867],[15.5782261,58.4018858],[15.5782244,58.4018849],[15.5782229,58.4018838],[15.5782216,58.4018827],[15.5782205,58.4018815],[15.5782197,58.4018802],[15.578219,58.4018789],[15.5782187,58.4018776],[15.5782186,58.4018763],[15.5782187,58.401875],[15.578219,58.4018737],[15.5782197,58.4018724],[15.5782205,58.4018711],[15.5782216,58.4018699],[15.5782229,58.4018688],[15.5782244,58.4018677],[15.5782261,58.4018668],[15.578228,58.4018659],[15.57823,58.4018651],[15.5782322,58.4018644],[15.5782344,58.4018638],[15.5782368,58.4018634],[15.5782393,58.4018631],[15.5782418,58.4018629],[15.5782443,58.4018628],[15.5782468,58.4018629],[15.5782493,58.4018631],[15.5782518,58.4018634],[15.5782542,58.4018638],[15.5782564,58.4018644],[15.5782586,58.4018651],[15.5782606,58.4018659],[15.5782625,58.4018668],[15.5782642,58.4018677],[15.5782657,58.4018688],[15.578267,58.4018699],[15.5782681,58.4018711],[15.5782689,58.4018724],[15.5782696,58.4018737],[15.5782699,58.401875],[15.57827,58.4018763],[15.5782699,58.4018776],[15.5782696,58.4018789],[15.5782689,58.4018802],[15.5782681,58.4018815],[15.578267,58.4018827],[15.5782657,58.4018838],[15.5782642,58.4018849],[15.5782625,58.4018858],[15.5782606,58.4018867],[15.5782586,58.4018875],[15.5782564,58.4018882],[15.5782542,58.4018888],[15.5782518,58.4018892],[15.5782493,58.4018895],[15.5782468,58.4018897],[15.5782443,58.4018898]]]]}},
{"type":"Feature","properties":{"felt:feature":5,"felt:color":"#C93535","felt:id":"qehzAujPQAGMCmZ4hFBUlA","felt:locked":false,"felt:ordering":1788104038179559,"felt:showArea":false,"felt:type":"Polygon","id":20},"geometry":{"type":"MultiPolygon","coordinates":[[[[15.5781941,58.4019487],[15.5781916,58.4019486],[15.5781891,58.4019484],[15.5781866,58.4019481],[15.5781842,58.4019477],[15.578182,58.4019471],[15.5781798,58.4019464],[15.5781778,58.4019456],[15.5781759,58.4019447],[15.5781742,58.4019438],[15.5781727,58.4019427],[15.5781714,58.4019416],[15.5781703,58.4019404],[15.5781695,58.4019391],[15.5781688,58.4019378],[15.5781685,58.4019365],[15.5781684,58.4019352],[15.5781685,58.4019339],[15.5781688,58.4019326],[15.5781695,58.4019313],[15.5781703,58.40193],[15.5781714,58.4019288],[15.5781727,58.4019277],[15.5781742,58.4019266],[15.5781759,58.4019257],[15.5781778,58.4019248],[15.5781798,58.401924],[15.578182,58.4019233],[15.5781842,58.4019227],[15.5781866,58.4019223],[15.5781891,58.401922],[15.5781916,58.4019218],[15.5781941,58.4019217],[15.5781966,58.4019218],[15.5781991,58.401922],[15.5782016,58.4019223],[15.578204,58.4019227],[15.5782062,58.4019233],[15.5782084,58.401924],[15.5782104,58.4019248],[15.5782123,58.4019257],[15.578214,58.4019266],[15.5782155,58.4019277],[15.5782168,58.4019288],[15.5782179,58.40193],[15.5782187,58.4019313],[15.5782194,58.4019326],[15.5782197,58.4019339],[15.5782198,58.4019352],[15.5782197,58.4019365],[15.5782194,58.4019378],[15.5782187,58.4019391],[15.5782179,58.4019404],[15.5782168,58.4019416],[15.5782155,58.4019427],[15.578214,58.4019438],[15.5782123,58.4019447],[15.5782104,58.4019456],[15.5782084,58.4019464],[15.5782062,58.4019471],[15.578204,58.4019477],[15.5782016,58.4019481],[15.5781991,58.4019484],[15.5781966,58.4019486],[15.5781941,58.4019487]]]]}},
{"type":"Feature","properties":{"felt:feature":6,"felt:color":"#C93535","felt:id":"17UvJf9CmSmiE7OxYuYFppD","felt:locked":false,"felt:ordering":1788104040892168,"felt:showArea":false,"felt:type":"Polygon","id":19},"geometry":{"type":"MultiPolygon","coordinates":[[[[15.5782696,58.4019479],[15.5782671,58.4019478],[15.5782646,58.4019476],[15.5782621,58.4019473],[15.5782597,58.4019469],[15.5782575,58.4019463],[15.5782553,58.4019456],[15.5782533,58.4019448],[15.5782514,58.4019439],[15.5782497,58.401943],[15.5782482,58.4019419],[15.5782469,58.4019408],[15.5782458,58.4019396],[15.578245,58.4019383],[15.5782443,58.401937],[15.578244,58.4019357],[15.5782439,58.4019344],[15.578244,58.4019331],[15.5782443,58.4019318],[15.578245,58.4019305],[15.5782458,58.4019292],[15.5782469,58.401928],[15.5782482,58.4019269],[15.5782497,58.4019258],[15.5782514,58.4019249],[15.5782533,58.401924],[15.5782553,58.4019232],[15.5782575,58.4019225],[15.5782597,58.4019219],[15.5782621,58.4019215],[15.5782646,58.4019212],[15.5782671,58.401921],[15.5782696,58.4019209],[15.5782721,58.401921],[15.5782746,58.4019212],[15.5782771,58.4019215],[15.5782795,58.4019219],[15.5782817,58.4019225],[15.5782839,58.4019232],[15.5782859,58.401924],[15.5782878,58.4019249],[15.5782895,58.4019258],[15.578291,58.4019269],[15.5782923,58.401928],[15.5782934,58.4019292],[15.5782942,58.4019305],[15.5782949,58.4019318],[15.5782952,58.4019331],[15.5782953,58.4019344],[15.5782952,58.4019357],[15.5782949,58.401937],[15.5782942,58.4019383],[15.5782934,58.4019396],[15.5782923,58.4019408],[15.578291,58.4019419],[15.5782895,58.401943],[15.5782878,58.4019439],[15.5782859,58.4019448],[15.5782839,58.4019456],[15.5782817,58.4019463],[15.5782795,58.4019469],[15.5782771,58.4019473],[15.5782746,58.4019476],[15.5782721,58.4019478],[15.5782696,58.4019479]]]]}},
{"type":"Feature","properties":{"felt:feature":7,"felt:color":"#C93535","felt:id":"rdm06L9CuQaidvFYiPIXWqC","felt:locked":false,"felt:ordering":1788104043414606,"felt:showArea":false,"felt:type":"Polygon","id":18},"geometry":{"type":"MultiPolygon","coordinates":[[[[15.5783486,58.4019482],[15.5783461,58.4019481],[15.5783436,58.4019479],[15.5783411,58.4019476],[15.5783387,58.4019472],[15.5783365,58.4019466],[15.5783343,58.4019459],[15.5783323,58.4019451],[15.5783304,58.4019442],[15.5783287,58.4019433],[15.5783272,58.4019422],[15.5783259,58.4019411],[15.5783248,58.4019399],[15.578324,58.4019386],[15.5783233,58.4019373],[15.578323,58.401936],[15.5783229,58.4019347],[15.578323,58.4019334],[15.5783233,58.4019321],[15.578324,58.4019308],[15.5783248,58.4019295],[15.5783259,58.4019283],[15.5783272,58.4019272],[15.5783287,58.4019261],[15.5783304,58.4019252],[15.5783323,58.4019243],[15.5783343,58.4019235],[15.5783365,58.4019228],[15.5783387,58.4019222],[15.5783411,58.4019218],[15.5783436,58.4019215],[15.5783461,58.4019213],[15.5783486,58.4019212],[15.5783511,58.4019213],[15.5783536,58.4019215],[15.5783561,58.4019218],[15.5783585,58.4019222],[15.5783607,58.4019228],[15.5783629,58.4019235],[15.5783649,58.4019243],[15.5783668,58.4019252],[15.5783685,58.4019261],[15.57837,58.4019272],[15.5783713,58.4019283],[15.5783724,58.4019295],[15.5783732,58.4019308],[15.5783739,58.4019321],[15.5783742,58.4019334],[15.5783743,58.4019347],[15.5783742,58.401936],[15.5783739,58.4019373],[15.5783732,58.4019386],[15.5783724,58.4019399],[15.5783713,58.4019411],[15.57837,58.4019422],[15.5783685,58.4019433],[15.5783668,58.4019442],[15.5783649,58.4019451],[15.5783629,58.4019459],[15.5783607,58.4019466],[15.5783585,58.4019472],[15.5783561,58.4019476],[15.5783536,58.4019479],[15.5783511,58.4019481],[15.5783486,58.4019482]]]]}},
{"type":"Feature","properties":{"felt:feature":8,"felt:color":"#C93535","felt:id":"Wu9BOdQd3S1m2Dpzsi6r03B","felt:locked":false,"felt:ordering":1788104046753046,"felt:showArea":false,"felt:type":"Polygon","id":17},"geometry":{"type":"MultiPolygon","coordinates":[[[[15.5784241,58.4019474],[15.5784216,58.4019473],[15.5784191,58.4019471],[15.5784166,58.4019468],[15.5784142,58.4019464],[15.578412,58.4019458],[15.5784098,58.4019451],[15.5784078,58.4019443],[15.5784059,58.4019434],[15.5784042,58.4019425],[15.5784027,58.4019414],[15.5784014,58.4019403],[15.5784003,58.4019391],[15.5783995,58.4019378],[15.5783988,58.4019365],[15.5783985,58.4019352],[15.5783984,58.4019339],[15.5783985,58.4019326],[15.5783988,58.4019313],[15.5783995,58.40193],[15.5784003,58.4019287],[15.5784014,58.4019275],[15.5784027,58.4019264],[15.5784042,58.4019253],[15.5784059,58.4019244],[15.5784078,58.4019235],[15.5784098,58.4019227],[15.578412,58.401922],[15.5784142,58.4019214],[15.5784166,58.401921],[15.5784191,58.4019207],[15.5784216,58.4019205],[15.5784241,58.4019204],[15.5784266,58.4019205],[15.5784291,58.4019207],[15.5784316,58.401921],[15.578434,58.4019214],[15.5784362,58.401922],[15.5784384,58.4019227],[15.5784404,58.4019235],[15.5784423,58.4019244],[15.578444,58.4019253],[15.5784455,58.4019264],[15.5784468,58.4019275],[15.5784479,58.4019287],[15.5784487,58.40193],[15.5784494,58.4019313],[15.5784497,58.4019326],[15.5784498,58.4019339],[15.5784497,58.4019352],[15.5784494,58.4019365],[15.5784487,58.4019378],[15.5784479,58.4019391],[15.5784468,58.4019403],[15.5784455,58.4019414],[15.578444,58.4019425],[15.5784423,58.4019434],[15.5784404,58.4019443],[15.5784384,58.4019451],[15.5784362,58.4019458],[15.578434,58.4019464],[15.5784316,58.4019468],[15.5784291,58.4019471],[15.5784266,58.4019473],[15.5784241,58.4019474]]]]}},
{"type":"Feature","properties":{"felt:feature":9,"felt:color":"#C93535","felt:id":"b4gX4r1aSxiWykxXe3AhdD","felt:locked":false,"felt:ordering":1788104050006103,"felt:showArea":false,"felt:type":"Polygon","id":27},"geometry":{"type":"MultiPolygon","coordinates":[[[[15.5784654,58.4018653],[15.5784629,58.4018652],[15.5784604,58.401865],[15.5784579,58.4018647],[15.5784555,58.4018643],[15.5784533,58.4018637],[15.5784511,58.401863],[15.5784491,58.4018622],[15.5784472,58.4018613],[15.5784455,58.4018604],[15.578444,58.4018593],[15.5784427,58.4018582],[15.5784416,58.401857],[15.5784408,58.4018557],[15.5784401,58.4018544],[15.5784398,58.4018531],[15.5784397,58.4018518],[15.5784398,58.4018505],[15.5784401,58.4018492],[15.5784408,58.4018479],[15.5784416,58.4018466],[15.5784427,58.4018454],[15.578444,58.4018443],[15.5784455,58.4018432],[15.5784472,58.4018423],[15.5784491,58.4018414],[15.5784511,58.4018406],[15.5784533,58.4018399],[15.5784555,58.4018393],[15.5784579,58.4018389],[15.5784604,58.4018386],[15.5784629,58.4018384],[15.5784654,58.4018383],[15.5784679,58.4018384],[15.5784704,58.4018386],[15.5784729,58.4018389],[15.5784753,58.4018393],[15.5784775,58.4018399],[15.5784797,58.4018406],[15.5784817,58.4018414],[15.5784836,58.4018423],[15.5784853,58.4018432],[15.5784868,58.4018443],[15.5784881,58.4018454],[15.5784892,58.4018466],[15.57849,58.4018479],[15.5784907,58.4018492],[15.578491,58.4018505],[15.5784911,58.4018518],[15.578491,58.4018531],[15.5784907,58.4018544],[15.57849,58.4018557],[15.5784892,58.401857],[15.5784881,58.4018582],[15.5784868,58.4018593],[15.5784853,58.4018604],[15.5784836,58.4018613],[15.5784817,58.4018622],[15.5784797,58.401863],[15.5784775,58.4018637],[15.5784753,58.4018643],[15.5784729,58.4018647],[15.5784704,58.401865],[15.5784679,58.4018652],[15.5784654,58.4018653]]]]}},
{"type":"Feature","properties":{"felt:feature":10,"felt:color":"#C93535","felt:id":"6lFzX15ZR2OHqcTBRWay6A","felt:locked":false,"felt:ordering":1788104052952988,"felt:showArea":false,"felt:type":"Polygon","id":28},"geometry":{"type":"MultiPolygon","coordinates":[[[[15.578465,58.4018201],[15.5784625,58.40182],[15.57846,58.4018198],[15.5784575,58.4018195],[15.5784551,58.4018191],[15.5784529,58.4018185],[15.5784507,58.4018178],[15.5784487,58.401817],[15.5784468,58.4018161],[15.5784451,58.4018152],[15.5784436,58.4018141],[15.5784423,58.401813],[15.5784412,58.4018118],[15.5784404,58.4018105],[15.5784397,58.4018092],[15.5784394,58.4018079],[15.5784393,58.4018066],[15.5784394,58.4018053],[15.5784397,58.401804],[15.5784404,58.4018027],[15.5784412,58.4018014],[15.5784423,58.4018002],[15.5784436,58.4017991],[15.5784451,58.401798],[15.5784468,58.4017971],[15.5784487,58.4017962],[15.5784507,58.4017954],[15.5784529,58.4017947],[15.5784551,58.4017941],[15.5784575,58.4017937],[15.57846,58.4017934],[15.5784625,58.4017932],[15.578465,58.4017931],[15.5784675,58.4017932],[15.57847,58.4017934],[15.5784725,58.4017937],[15.5784749,58.4017941],[15.5784771,58.4017947],[15.5784793,58.4017954],[15.5784813,58.4017962],[15.5784832,58.4017971],[15.5784849,58.401798],[15.5784864,58.4017991],[15.5784877,58.4018002],[15.5784888,58.4018014],[15.5784896,58.4018027],[15.5784903,58.401804],[15.5784906,58.4018053],[15.5784907,58.4018066],[15.5784906,58.4018079],[15.5784903,58.4018092],[15.5784896,58.4018105],[15.5784888,58.4018118],[15.5784877,58.401813],[15.5784864,58.4018141],[15.5784849,58.4018152],[15.5784832,58.4018161],[15.5784813,58.401817],[15.5784793,58.4018178],[15.5784771,58.4018185],[15.5784749,58.4018191],[15.5784725,58.4018195],[15.57847,58.4018198],[15.5784675,58.40182],[15.578465,58.4018201]]]]}},
{"type":"Feature","properties":{"felt:feature":11,"felt:color":"#C93535","felt:id":"z6R9A4OKvR6WvUdAwT9AwAXB","felt:locked":false,"felt:ordering":1788104055802080,"felt:showArea":false,"felt:type":"Polygon","id":29},"geometry":{"type":"MultiPolygon","coordinates":[[[[15.5784661,58.4017748],[15.5784636,58.4017747],[15.5784611,58.4017745],[15.5784586,58.4017742],[15.5784562,58.4017738],[15.578454,58.4017732],[15.5784518,58.4017725],[15.5784498,58.4017717],[15.5784479,58.4017708],[15.5784462,58.4017699],[15.5784447,58.4017688],[15.5784434,58.4017677],[15.5784423,58.4017665],[15.5784415,58.4017652],[15.5784408,58.4017639],[15.5784405,58.4017626],[15.5784404,58.4017613],[15.5784405,58.40176],[15.5784408,58.4017587],[15.5784415,58.4017574],[15.5784423,58.4017561],[15.5784434,58.4017549],[15.5784447,58.4017538],[15.5784462,58.4017527],[15.5784479,58.4017518],[15.5784498,58.4017509],[15.5784518,58.4017501],[15.578454,58.4017494],[15.5784562,58.4017488],[15.5784586,58.4017484],[15.5784611,58.4017481],[15.5784636,58.4017479],[15.5784661,58.4017478],[15.5784686,58.4017479],[15.5784711,58.4017481],[15.5784736,58.4017484],[15.578476,58.4017488],[15.5784782,58.4017494],[15.5784804,58.4017501],[15.5784824,58.4017509],[15.5784843,58.4017518],[15.578486,58.4017527],[15.5784875,58.4017538],[15.5784888,58.4017549],[15.5784899,58.4017561],[15.5784907,58.4017574],[15.5784914,58.4017587],[15.5784917,58.40176],[15.5784918,58.4017613],[15.5784917,58.4017626],[15.5784914,58.4017639],[15.5784907,58.4017652],[15.5784899,58.4017665],[15.5784888,58.4017677],[15.5784875,58.4017688],[15.578486,58.4017699],[15.5784843,58.4017708],[15.5784824,58.4017717],[15.5784804,58.4017725],[15.5784782,58.4017732],[15.578476,58.4017738],[15.5784736,58.4017742],[15.5784711,58.4017745],[15.5784686,58.4017747],[15.5784661,58.4017748]]]]}},
{"type":"Feature","properties":{"felt:feature":12,"felt:color":"#C93535","felt:id":"FpqQ9CYIBQFeCSwGK49BqA2D","felt:locked":false,"felt:ordering":1788104059471935,"felt:showArea":false,"felt:type":"Polygon","id":30},"geometry":{"type":"MultiPolygon","coordinates":[[[[15.5784656,58.40173],[15.5784631,58.4017299],[15.5784606,58.4017297],[15.5784581,58.4017294],[15.5784557,58.401729],[15.5784535,58.4017284],[15.5784513,58.4017277],[15.5784493,58.4017269],[15.5784474,58.401726],[15.5784457,58.4017251],[15.5784442,58.401724],[15.5784429,58.4017229],[15.5784418,58.4017217],[15.578441,58.4017204],[15.5784403,58.4017191],[15.57844,58.4017178],[15.5784399,58.4017165],[15.57844,58.4017152],[15.5784403,58.4017139],[15.578441,58.4017126],[15.5784418,58.4017113],[15.5784429,58.4017101],[15.5784442,58.401709],[15.5784457,58.4017079],[15.5784474,58.401707],[15.5784493,58.4017061],[15.5784513,58.4017053],[15.5784535,58.4017046],[15.5784557,58.401704],[15.5784581,58.4017036],[15.5784606,58.4017033],[15.5784631,58.4017031],[15.5784656,58.401703],[15.5784681,58.4017031],[15.5784706,58.4017033],[15.5784731,58.4017036],[15.5784755,58.401704],[15.5784777,58.4017046],[15.5784799,58.4017053],[15.5784819,58.4017061],[15.5784838,58.401707],[15.5784855,58.4017079],[15.578487,58.401709],[15.5784883,58.4017101],[15.5784894,58.4017113],[15.5784902,58.4017126],[15.5784909,58.4017139],[15.5784912,58.4017152],[15.5784913,58.4017165],[15.5784912,58.4017178],[15.5784909,58.4017191],[15.5784902,58.4017204],[15.5784894,58.4017217],[15.5784883,58.4017229],[15.578487,58.401724],[15.5784855,58.4017251],[15.5784838,58.401726],[15.5784819,58.4017269],[15.5784799,58.4017277],[15.5784777,58.4017284],[15.5784755,58.401729],[15.5784731,58.4017294],[15.5784706,58.4017297],[15.5784681,58.4017299],[15.5784656,58.40173]]]]}},
{"type":"Feature","properties":{"felt:feature":13,"felt:color":"#C93535","felt:id":"iWDEY2hrTWCdPvbl9AAf5WC","felt:locked":false,"felt:ordering":1788104064993455,"felt:showArea":false,"felt:type":"Polygon","id":31},"geometry":{"type":"MultiPolygon","coordinates":[[[[15.5784661,58.401686],[15.5784636,58.4016859],[15.5784611,58.4016857],[15.5784586,58.4016854],[15.5784562,58.401685],[15.578454,58.4016844],[15.5784518,58.4016837],[15.5784498,58.4016829],[15.5784479,58.401682],[15.5784462,58.4016811],[15.5784447,58.40168],[15.5784434,58.4016789],[15.5784423,58.4016777],[15.5784415,58.4016764],[15.5784408,58.4016751],[15.5784405,58.4016738],[15.5784404,58.4016725],[15.5784405,58.4016712],[15.5784408,58.4016699],[15.5784415,58.4016686],[15.5784423,58.4016673],[15.5784434,58.4016661],[15.5784447,58.401665],[15.5784462,58.4016639],[15.5784479,58.401663],[15.5784498,58.4016621],[15.5784518,58.4016613],[15.578454,58.4016606],[15.5784562,58.40166],[15.5784586,58.4016596],[15.5784611,58.4016593],[15.5784636,58.4016591],[15.5784661,58.401659],[15.5784686,58.4016591],[15.5784711,58.4016593],[15.5784736,58.4016596],[15.578476,58.40166],[15.5784782,58.4016606],[15.5784804,58.4016613],[15.5784824,58.4016621],[15.5784843,58.401663],[15.578486,58.4016639],[15.5784875,58.401665],[15.5784888,58.4016661],[15.5784899,58.4016673],[15.5784907,58.4016686],[15.5784914,58.4016699],[15.5784917,58.4016712],[15.5784918,58.4016725],[15.5784917,58.4016738],[15.5784914,58.4016751],[15.5784907,58.4016764],[15.5784899,58.4016777],[15.5784888,58.4016789],[15.5784875,58.40168],[15.578486,58.4016811],[15.5784843,58.401682],[15.5784824,58.4016829],[15.5784804,58.4016837],[15.5784782,58.4016844],[15.578476,58.401685],[15.5784736,58.4016854],[15.5784711,58.4016857],[15.5784686,58.4016859],[15.5784661,58.401686]]]]}},
{"type":"Feature","properties":{"felt:feature":14,"felt:color":"#C93535","felt:id":"A9BPZ7NkpR09BfCJD9BKRiP9CA","felt:locked":false,"felt:ordering":1788104069666488,"felt:showArea":false,"felt:type":"Polygon","id":33},"geometry":{"type":"MultiPolygon","coordinates":[[[[15.5785526,58.4016024],[15.5785501,58.4016023],[15.5785476,58.4016021],[15.5785451,58.4016018],[15.5785427,58.4016014],[15.5785405,58.4016008],[15.5785383,58.4016001],[15.5785363,58.4015993],[15.5785344,58.4015984],[15.5785327,58.4015975],[15.5785312,58.4015964],[15.5785299,58.4015953],[15.5785288,58.4015941],[15.578528,58.4015928],[15.5785273,58.4015915],[15.578527,58.4015902],[15.5785269,58.4015889],[15.578527,58.4015876],[15.5785273,58.4015863],[15.578528,58.401585],[15.5785288,58.4015837],[15.5785299,58.4015825],[15.5785312,58.4015814],[15.5785327,58.4015803],[15.5785344,58.4015794],[15.5785363,58.4015785],[15.5785383,58.4015777],[15.5785405,58.401577],[15.5785427,58.4015764],[15.5785451,58.401576],[15.5785476,58.4015757],[15.5785501,58.4015755],[15.5785526,58.4015754],[15.5785551,58.4015755],[15.5785576,58.4015757],[15.5785601,58.401576],[15.5785625,58.4015764],[15.5785647,58.401577],[15.5785669,58.4015777],[15.5785689,58.4015785],[15.5785708,58.4015794],[15.5785725,58.4015803],[15.578574,58.4015814],[15.5785753,58.4015825],[15.5785764,58.4015837],[15.5785772,58.401585],[15.5785779,58.4015863],[15.5785782,58.4015876],[15.5785783,58.4015889],[15.5785782,58.4015902],[15.5785779,58.4015915],[15.5785772,58.4015928],[15.5785764,58.4015941],[15.5785753,58.4015953],[15.578574,58.4015964],[15.5785725,58.4015975],[15.5785708,58.4015984],[15.5785689,58.4015993],[15.5785669,58.4016001],[15.5785647,58.4016008],[15.5785625,58.4016014],[15.5785601,58.4016018],[15.5785576,58.4016021],[15.5785551,58.4016023],[15.5785526,58.4016024]]]]}},
{"type":"Feature","properties":{"felt:feature":15,"felt:color":"#C93535","felt:id":"bMmShK5cRKO4rEVWQDY2vA","felt:locked":false,"felt:ordering":1788104072509769,"felt:showArea":false,"felt:type":"Polygon","id":34},"geometry":{"type":"MultiPolygon","coordinates":[[[[15.5786281,58.4016016],[15.5786256,58.4016015],[15.5786231,58.4016013],[15.5786206,58.401601],[15.5786182,58.4016006],[15.578616,58.4016],[15.5786138,58.4015993],[15.5786118,58.4015985],[15.5786099,58.4015976],[15.5786082,58.4015967],[15.5786067,58.4015956],[15.5786054,58.4015945],[15.5786043,58.4015933],[15.5786035,58.401592],[15.5786028,58.4015907],[15.5786025,58.4015894],[15.5786024,58.4015881],[15.5786025,58.4015868],[15.5786028,58.4015855],[15.5786035,58.4015842],[15.5786043,58.4015829],[15.5786054,58.4015817],[15.5786067,58.4015806],[15.5786082,58.4015795],[15.5786099,58.4015786],[15.5786118,58.4015777],[15.5786138,58.4015769],[15.578616,58.4015762],[15.5786182,58.4015756],[15.5786206,58.4015752],[15.5786231,58.4015749],[15.5786256,58.4015747],[15.5786281,58.4015746],[15.5786306,58.4015747],[15.5786331,58.4015749],[15.5786356,58.4015752],[15.578638,58.4015756],[15.5786402,58.4015762],[15.5786424,58.4015769],[15.5786444,58.4015777],[15.5786463,58.4015786],[15.578648,58.4015795],[15.5786495,58.4015806],[15.5786508,58.4015817],[15.5786519,58.4015829],[15.5786527,58.4015842],[15.5786534,58.4015855],[15.5786537,58.4015868],[15.5786538,58.4015881],[15.5786537,58.4015894],[15.5786534,58.4015907],[15.5786527,58.401592],[15.5786519,58.4015933],[15.5786508,58.4015945],[15.5786495,58.4015956],[15.578648,58.4015967],[15.5786463,58.4015976],[15.5786444,58.4015985],[15.5786424,58.4015993],[15.5786402,58.4016],[15.578638,58.4016006],[15.5786356,58.401601],[15.5786331,58.4016013],[15.5786306,58.4016015],[15.5786281,58.4016016]]]]}},
{"type":"Feature","properties":{"felt:feature":16,"felt:color":"#C93535","felt:id":"cWQS16rfThmFjlOENHTtRC","felt:locked":false,"felt:ordering":1788104075380543,"felt:showArea":false,"felt:type":"Polygon","id":35},"geometry":{"type":"MultiPolygon","coordinates":[[[[15.5787071,58.4016019],[15.5787046,58.4016018],[15.5787021,58.4016016],[15.5786996,58.4016013],[15.5786972,58.4016009],[15.578695,58.4016003],[15.5786928,58.4015996],[15.5786908,58.4015988],[15.5786889,58.4015979],[15.5786872,58.401597],[15.5786857,58.4015959],[15.5786844,58.4015948],[15.5786833,58.4015936],[15.5786825,58.4015923],[15.5786818,58.401591],[15.5786815,58.4015897],[15.5786814,58.4015884],[15.5786815,58.4015871],[15.5786818,58.4015858],[15.5786825,58.4015845],[15.5786833,58.4015832],[15.5786844,58.401582],[15.5786857,58.4015809],[15.5786872,58.4015798],[15.5786889,58.4015789],[15.5786908,58.401578],[15.5786928,58.4015772],[15.578695,58.4015765],[15.5786972,58.4015759],[15.5786996,58.4015755],[15.5787021,58.4015752],[15.5787046,58.401575],[15.5787071,58.4015749],[15.5787096,58.401575],[15.5787121,58.4015752],[15.5787146,58.4015755],[15.578717,58.4015759],[15.5787192,58.4015765],[15.5787214,58.4015772],[15.5787234,58.401578],[15.5787253,58.4015789],[15.578727,58.4015798],[15.5787285,58.4015809],[15.5787298,58.401582],[15.5787309,58.4015832],[15.5787317,58.4015845],[15.5787324,58.4015858],[15.5787327,58.4015871],[15.5787328,58.4015884],[15.5787327,58.4015897],[15.5787324,58.401591],[15.5787317,58.4015923],[15.5787309,58.4015936],[15.5787298,58.4015948],[15.5787285,58.4015959],[15.578727,58.401597],[15.5787253,58.4015979],[15.5787234,58.4015988],[15.5787214,58.4015996],[15.5787192,58.4016003],[15.578717,58.4016009],[15.5787146,58.4016013],[15.5787121,58.4016016],[15.5787096,58.4016018],[15.5787071,58.4016019]]]]}},
{"type":"Feature","properties":{"felt:feature":17,"felt:color":"#C93535","felt:id":"h0Zzn4J8RGCHFSPjJ5bdYD","felt:locked":false,"felt:ordering":1788104079882631,"felt:showArea":false,"felt:type":"Polygon","id":36},"geometry":{"type":"MultiPolygon","coordinates":[[[[15.5787826,58.4016011],[15.5787801,58.401601],[15.5787776,58.4016008],[15.5787751,58.4016005],[15.5787727,58.4016001],[15.5787705,58.4015995],[15.5787683,58.4015988],[15.5787663,58.401598],[15.5787644,58.4015971],[15.5787627,58.4015962],[15.5787612,58.4015951],[15.5787599,58.401594],[15.5787588,58.4015928],[15.578758,58.4015915],[15.5787573,58.4015902],[15.578757,58.4015889],[15.5787569,58.4015876],[15.578757,58.4015863],[15.5787573,58.401585],[15.578758,58.4015837],[15.5787588,58.4015824],[15.5787599,58.4015812],[15.5787612,58.4015801],[15.5787627,58.401579],[15.5787644,58.4015781],[15.5787663,58.4015772],[15.5787683,58.4015764],[15.5787705,58.4015757],[15.5787727,58.4015751],[15.5787751,58.4015747],[15.5787776,58.4015744],[15.5787801,58.4015742],[15.5787826,58.4015741],[15.5787851,58.4015742],[15.5787876,58.4015744],[15.5787901,58.4015747],[15.5787925,58.4015751],[15.5787947,58.4015757],[15.5787969,58.4015764],[15.5787989,58.4015772],[15.5788008,58.4015781],[15.5788025,58.401579],[15.578804,58.4015801],[15.5788053,58.4015812],[15.5788064,58.4015824],[15.5788072,58.4015837],[15.5788079,58.401585],[15.5788082,58.4015863],[15.5788083,58.4015876],[15.5788082,58.4015889],[15.5788079,58.4015902],[15.5788072,58.4015915],[15.5788064,58.4015928],[15.5788053,58.401594],[15.578804,58.4015951],[15.5788025,58.4015962],[15.5788008,58.4015971],[15.5787989,58.401598],[15.5787969,58.4015988],[15.5787947,58.4015995],[15.5787925,58.4016001],[15.5787901,58.4016005],[15.5787876,58.4016008],[15.5787851,58.401601],[15.5787826,58.4016011]]]]}},
{"type":"Feature","properties":{"felt:feature":18,"felt:color":"#C93535","felt:id":"cd1bt7FhRoS9Cmg1GACMyHC","felt:locked":false,"felt:ordering":1788104084232446,"felt:showArea":false,"felt:type":"Polygon","id":37},"geometry":{"type":"MultiPolygon","coordinates":[[[[15.5789203,58.4015598],[15.5789178,58.4015597],[15.5789153,58.4015595],[15.5789128,58.4015592],[15.5789104,58.4015588],[15.5789082,58.4015582],[15.578906,58.4015575],[15.578904,58.4015567],[15.5789021,58.4015558],[15.5789004,58.4015549],[15.5788989,58.4015538],[15.5788976,58.4015527],[15.5788965,58.4015515],[15.5788957,58.4015502],[15.578895,58.4015489],[15.5788947,58.4015476],[15.5788946,58.4015463],[15.5788947,58.401545],[15.578895,58.4015437],[15.5788957,58.4015424],[15.5788965,58.4015411],[15.5788976,58.4015399],[15.5788989,58.4015388],[15.5789004,58.4015377],[15.5789021,58.4015368],[15.578904,58.4015359],[15.578906,58.4015351],[15.5789082,58.4015344],[15.5789104,58.4015338],[15.5789128,58.4015334],[15.5789153,58.4015331],[15.5789178,58.4015329],[15.5789203,58.4015328],[15.5789228,58.4015329],[15.5789253,58.4015331],[15.5789278,58.4015334],[15.5789302,58.4015338],[15.5789324,58.4015344],[15.5789346,58.4015351],[15.5789366,58.4015359],[15.5789385,58.4015368],[15.5789402,58.4015377],[15.5789417,58.4015388],[15.578943,58.4015399],[15.5789441,58.4015411],[15.5789449,58.4015424],[15.5789456,58.4015437],[15.5789459,58.401545],[15.578946,58.4015463],[15.5789459,58.4015476],[15.5789456,58.4015489],[15.5789449,58.4015502],[15.5789441,58.4015515],[15.578943,58.4015527],[15.5789417,58.4015538],[15.5789402,58.4015549],[15.5789385,58.4015558],[15.5789366,58.4015567],[15.5789346,58.4015575],[15.5789324,58.4015582],[15.5789302,58.4015588],[15.5789278,58.4015592],[15.5789253,58.4015595],[15.5789228,58.4015597],[15.5789203,58.4015598]]]]}},
{"type":"Feature","properties":{"felt:feature":19,"felt:color":"#C93535","felt:id":"dLCRPqvQS9BiT5qRmqiRynD","felt:locked":false,"felt:ordering":1788104091999942,"felt:showArea":false,"felt:type":"Polygon","id":38},"geometry":{"type":"MultiPolygon","coordinates":[[[[15.5789978,58.4015664],[15.5789953,58.4015663],[15.5789928,58.4015661],[15.5789903,58.4015658],[15.5789879,58.4015654],[15.5789857,58.4015648],[15.5789835,58.4015641],[15.5789815,58.4015633],[15.5789796,58.4015624],[15.5789779,58.4015615],[15.5789764,58.4015604],[15.5789751,58.4015593],[15.578974,58.4015581],[15.5789732,58.4015568],[15.5789725,58.4015555],[15.5789722,58.4015542],[15.5789721,58.4015529],[15.5789722,58.4015516],[15.5789725,58.4015503],[15.5789732,58.401549],[15.578974,58.4015477],[15.5789751,58.4015465],[15.5789764,58.4015454],[15.5789779,58.4015443],[15.5789796,58.4015434],[15.5789815,58.4015425],[15.5789835,58.4015417],[15.5789857,58.401541],[15.5789879,58.4015404],[15.5789903,58.40154],[15.5789928,58.4015397],[15.5789953,58.4015395],[15.5789978,58.4015394],[15.5790003,58.4015395],[15.5790028,58.4015397],[15.5790053,58.40154],[15.5790077,58.4015404],[15.5790099,58.401541],[15.5790121,58.4015417],[15.5790141,58.4015425],[15.579016,58.4015434],[15.5790177,58.4015443],[15.5790192,58.4015454],[15.5790205,58.4015465],[15.5790216,58.4015477],[15.5790224,58.401549],[15.5790231,58.4015503],[15.5790234,58.4015516],[15.5790235,58.4015529],[15.5790234,58.4015542],[15.5790231,58.4015555],[15.5790224,58.4015568],[15.5790216,58.4015581],[15.5790205,58.4015593],[15.5790192,58.4015604],[15.5790177,58.4015615],[15.579016,58.4015624],[15.5790141,58.4015633],[15.5790121,58.4015641],[15.5790099,58.4015648],[15.5790077,58.4015654],[15.5790053,58.4015658],[15.5790028,58.4015661],[15.5790003,58.4015663],[15.5789978,58.4015664]]]]}},
{"type":"Feature","properties":{"felt:feature":20,"felt:color":"#C93535","felt:id":"AP1o7YBQS9AWVesZhHQSlNB","felt:locked":false,"felt:ordering":1788104099822285,"felt:showArea":false,"felt:type":"Polygon","id":48},"geometry":{"type":"MultiPolygon","coordinates":[[[[15.5793329,58.4016273],[15.5793304,58.4016272],[15.5793279,58.401627],[15.5793254,58.4016267],[15.579323,58.4016263],[15.5793208,58.4016257],[15.5793186,58.401625],[15.5793166,58.4016242],[15.5793147,58.4016233],[15.579313,58.4016224],[15.5793115,58.4016213],[15.5793102,58.4016202],[15.5793091,58.401619],[15.5793083,58.4016177],[15.5793076,58.4016164],[15.5793073,58.4016151],[15.5793072,58.4016138],[15.5793073,58.4016125],[15.5793076,58.4016112],[15.5793083,58.4016099],[15.5793091,58.4016086],[15.5793102,58.4016074],[15.5793115,58.4016063],[15.579313,58.4016052],[15.5793147,58.4016043],[15.5793166,58.4016034],[15.5793186,58.4016026],[15.5793208,58.4016019],[15.579323,58.4016013],[15.5793254,58.4016009],[15.5793279,58.4016006],[15.5793304,58.4016004],[15.5793329,58.4016003],[15.5793354,58.4016004],[15.5793379,58.4016006],[15.5793404,58.4016009],[15.5793428,58.4016013],[15.579345,58.4016019],[15.5793472,58.4016026],[15.5793492,58.4016034],[15.5793511,58.4016043],[15.5793528,58.4016052],[15.5793543,58.4016063],[15.5793556,58.4016074],[15.5793567,58.4016086],[15.5793575,58.4016099],[15.5793582,58.4016112],[15.5793585,58.4016125],[15.5793586,58.4016138],[15.5793585,58.4016151],[15.5793582,58.4016164],[15.5793575,58.4016177],[15.5793567,58.401619],[15.5793556,58.4016202],[15.5793543,58.4016213],[15.5793528,58.4016224],[15.5793511,58.4016233],[15.5793492,58.4016242],[15.5793472,58.401625],[15.579345,58.4016257],[15.5793428,58.4016263],[15.5793404,58.4016267],[15.5793379,58.401627],[15.5793354,58.4016272],[15.5793329,58.4016273]]]]}},
{"type":"Feature","properties":{"felt:feature":21,"felt:color":"#C93535","felt:id":"qyVSt9BjBSwKUpoqn2t9B9CUA","felt:locked":false,"felt:ordering":1788104103078892,"felt:showArea":false,"felt:type":"Polygon","id":47},"geometry":{"type":"MultiPolygon","coordinates":[[[[15.579408,58.401634],[15.5794055,58.4016339],[15.579403,58.4016337],[15.5794005,58.4016334],[15.5793981,58.401633],[15.5793959,58.4016324],[15.5793937,58.4016317],[15.5793917,58.4016309],[15.5793898,58.40163],[15.5793881,58.4016291],[15.5793866,58.401628],[15.5793853,58.4016269],[15.5793842,58.4016257],[15.5793834,58.4016244],[15.5793827,58.4016231],[15.5793824,58.4016218],[15.5793823,58.4016205],[15.5793824,58.4016192],[15.5793827,58.4016179],[15.5793834,58.4016166],[15.5793842,58.4016153],[15.5793853,58.4016141],[15.5793866,58.401613],[15.5793881,58.4016119],[15.5793898,58.401611],[15.5793917,58.4016101],[15.5793937,58.4016093],[15.5793959,58.4016086],[15.5793981,58.401608],[15.5794005,58.4016076],[15.579403,58.4016073],[15.5794055,58.4016071],[15.579408,58.401607],[15.5794105,58.4016071],[15.579413,58.4016073],[15.5794155,58.4016076],[15.5794179,58.401608],[15.5794201,58.4016086],[15.5794223,58.4016093],[15.5794243,58.4016101],[15.5794262,58.401611],[15.5794279,58.4016119],[15.5794294,58.401613],[15.5794307,58.4016141],[15.5794318,58.4016153],[15.5794326,58.4016166],[15.5794333,58.4016179],[15.5794336,58.4016192],[15.5794337,58.4016205],[15.5794336,58.4016218],[15.5794333,58.4016231],[15.5794326,58.4016244],[15.5794318,58.4016257],[15.5794307,58.4016269],[15.5794294,58.401628],[15.5794279,58.4016291],[15.5794262,58.40163],[15.5794243,58.4016309],[15.5794223,58.4016317],[15.5794201,58.4016324],[15.5794179,58.401633],[15.5794155,58.4016334],[15.579413,58.4016337],[15.5794105,58.4016339],[15.579408,58.401634]]]]}},
{"type":"Feature","properties":{"felt:feature":22,"felt:color":"#C93535","felt:id":"QtEvdmlET1ycRf9Aas6pIiD","felt:locked":false,"felt:ordering":1788104105968539,"felt:showArea":false,"felt:type":"Polygon","id":46},"geometry":{"type":"MultiPolygon","coordinates":[[[[15.5794816,58.4016404],[15.5794791,58.4016403],[15.5794766,58.4016401],[15.5794741,58.4016398],[15.5794717,58.4016394],[15.5794695,58.4016388],[15.5794673,58.4016381],[15.5794653,58.4016373],[15.5794634,58.4016364],[15.5794617,58.4016355],[15.5794602,58.4016344],[15.5794589,58.4016333],[15.5794578,58.4016321],[15.579457,58.4016308],[15.5794563,58.4016295],[15.579456,58.4016282],[15.5794559,58.4016269],[15.579456,58.4016256],[15.5794563,58.4016243],[15.579457,58.401623],[15.5794578,58.4016217],[15.5794589,58.4016205],[15.5794602,58.4016194],[15.5794617,58.4016183],[15.5794634,58.4016174],[15.5794653,58.4016165],[15.5794673,58.4016157],[15.5794695,58.401615],[15.5794717,58.4016144],[15.5794741,58.401614],[15.5794766,58.4016137],[15.5794791,58.4016135],[15.5794816,58.4016134],[15.5794841,58.4016135],[15.5794866,58.4016137],[15.5794891,58.401614],[15.5794915,58.4016144],[15.5794937,58.401615],[15.5794959,58.4016157],[15.5794979,58.4016165],[15.5794998,58.4016174],[15.5795015,58.4016183],[15.579503,58.4016194],[15.5795043,58.4016205],[15.5795054,58.4016217],[15.5795062,58.401623],[15.5795069,58.4016243],[15.5795072,58.4016256],[15.5795073,58.4016269],[15.5795072,58.4016282],[15.5795069,58.4016295],[15.5795062,58.4016308],[15.5795054,58.4016321],[15.5795043,58.4016333],[15.579503,58.4016344],[15.5795015,58.4016355],[15.5794998,58.4016364],[15.5794979,58.4016373],[15.5794959,58.4016381],[15.5794937,58.4016388],[15.5794915,58.4016394],[15.5794891,58.4016398],[15.5794866,58.4016401],[15.5794841,58.4016403],[15.5794816,58.4016404]]]]}},
{"type":"Feature","properties":{"felt:feature":23,"felt:color":"#C93535","felt:id":"GS6Ce89A3RvWuPJrdWiEflC","felt:locked":false,"felt:ordering":1788104211048764,"felt:showArea":false,"felt:type":"Polygon","id":45},"geometry":{"type":"MultiPolygon","coordinates":[[[[15.5795537,58.4016466],[15.5795512,58.4016465],[15.5795487,58.4016463],[15.5795462,58.401646],[15.5795438,58.4016456],[15.5795416,58.401645],[15.5795394,58.4016443],[15.5795374,58.4016435],[15.5795355,58.4016426],[15.5795338,58.4016417],[15.5795323,58.4016406],[15.579531,58.4016395],[15.5795299,58.4016383],[15.5795291,58.401637],[15.5795284,58.4016357],[15.5795281,58.4016344],[15.579528,58.4016331],[15.5795281,58.4016318],[15.5795284,58.4016305],[15.5795291,58.4016292],[15.5795299,58.4016279],[15.579531,58.4016267],[15.5795323,58.4016256],[15.5795338,58.4016245],[15.5795355,58.4016236],[15.5795374,58.4016227],[15.5795394,58.4016219],[15.5795416,58.4016212],[15.5795438,58.4016206],[15.5795462,58.4016202],[15.5795487,58.4016199],[15.5795512,58.4016197],[15.5795537,58.4016196],[15.5795562,58.4016197],[15.5795587,58.4016199],[15.5795612,58.4016202],[15.5795636,58.4016206],[15.5795658,58.4016212],[15.579568,58.4016219],[15.57957,58.4016227],[15.5795719,58.4016236],[15.5795736,58.4016245],[15.5795751,58.4016256],[15.5795764,58.4016267],[15.5795775,58.4016279],[15.5795783,58.4016292],[15.579579,58.4016305],[15.5795793,58.4016318],[15.5795794,58.4016331],[15.5795793,58.4016344],[15.579579,58.4016357],[15.5795783,58.401637],[15.5795775,58.4016383],[15.5795764,58.4016395],[15.5795751,58.4016406],[15.5795736,58.4016417],[15.5795719,58.4016426],[15.57957,58.4016435],[15.579568,58.4016443],[15.5795658,58.401645],[15.5795636,58.4016456],[15.5795612,58.401646],[15.5795587,58.4016463],[15.5795562,58.4016465],[15.5795537,58.4016466]]]]}},
{"type":"Feature","properties":{"felt:feature":24,"felt:color":"#C93535","felt:id":"zUB7B3wxT7CdTZnbNhE9CFC","felt:locked":false,"felt:ordering":1788104318214486,"felt:showArea":false,"felt:type":"Polygon","id":24},"geometry":{"type":"MultiPolygon","coordinates":[[[[15.5782487,58.4017608],[15.5782462,58.4017607],[15.5782437,58.4017605],[15.5782412,58.4017602],[15.5782388,58.4017598],[15.5782366,58.4017592],[15.5782344,58.4017585],[15.5782324,58.4017577],[15.5782305,58.4017568],[15.5782288,58.4017559],[15.5782273,58.4017548],[15.578226,58.4017537],[15.5782249,58.4017525],[15.5782241,58.4017512],[15.5782234,58.4017499],[15.5782231,58.4017486],[15.578223,58.4017473],[15.5782231,58.401746],[15.5782234,58.4017447],[15.5782241,58.4017434],[15.5782249,58.4017421],[15.578226,58.4017409],[15.5782273,58.4017398],[15.5782288,58.4017387],[15.5782305,58.4017378],[15.5782324,58.4017369],[15.5782344,58.4017361],[15.5782366,58.4017354],[15.5782388,58.4017348],[15.5782412,58.4017344],[15.5782437,58.4017341],[15.5782462,58.4017339],[15.5782487,58.4017338],[15.5782512,58.4017339],[15.5782537,58.4017341],[15.5782562,58.4017344],[15.5782586,58.4017348],[15.5782608,58.4017354],[15.578263,58.4017361],[15.578265,58.4017369],[15.5782669,58.4017378],[15.5782686,58.4017387],[15.5782701,58.4017398],[15.5782714,58.4017409],[15.5782725,58.4017421],[15.5782733,58.4017434],[15.578274,58.4017447],[15.5782743,58.401746],[15.5782744,58.4017473],[15.5782743,58.4017486],[15.578274,58.4017499],[15.5782733,58.4017512],[15.5782725,58.4017525],[15.5782714,58.4017537],[15.5782701,58.4017548],[15.5782686,58.4017559],[15.5782669,58.4017568],[15.578265,58.4017577],[15.578263,58.4017585],[15.5782608,58.4017592],[15.5782586,58.4017598],[15.5782562,58.4017602],[15.5782537,58.4017605],[15.5782512,58.4017607],[15.5782487,58.4017608]]]]}},
{"type":"Feature","properties":{"felt:feature":25,"felt:color":"#C93535","felt:id":"OkJ9A1s9BcQbyj4aNZ01DfuA","felt:locked":false,"felt:ordering":1788104373363315,"felt:showArea":false,"felt:type":"Polygon","id":26},"geometry":{"type":"MultiPolygon","coordinates":[[[[15.578267,58.4016545],[15.5782645,58.4016544],[15.578262,58.4016542],[15.5782595,58.4016539],[15.5782571,58.4016535],[15.5782549,58.4016529],[15.5782527,58.4016522],[15.5782507,58.4016514],[15.5782488,58.4016505],[15.5782471,58.4016496],[15.5782456,58.4016485],[15.5782443,58.4016474],[15.5782432,58.4016462],[15.5782424,58.4016449],[15.5782417,58.4016436],[15.5782414,58.4016423],[15.5782413,58.401641],[15.5782414,58.4016397],[15.5782417,58.4016384],[15.5782424,58.4016371],[15.5782432,58.4016358],[15.5782443,58.4016346],[15.5782456,58.4016335],[15.5782471,58.4016324],[15.5782488,58.4016315],[15.5782507,58.4016306],[15.5782527,58.4016298],[15.5782549,58.4016291],[15.5782571,58.4016285],[15.5782595,58.4016281],[15.578262,58.4016278],[15.5782645,58.4016276],[15.578267,58.4016275],[15.5782695,58.4016276],[15.578272,58.4016278],[15.5782745,58.4016281],[15.5782769,58.4016285],[15.5782791,58.4016291],[15.5782813,58.4016298],[15.5782833,58.4016306],[15.5782852,58.4016315],[15.5782869,58.4016324],[15.5782884,58.4016335],[15.5782897,58.4016346],[15.5782908,58.4016358],[15.5782916,58.4016371],[15.5782923,58.4016384],[15.5782926,58.4016397],[15.5782927,58.401641],[15.5782926,58.4016423],[15.5782923,58.4016436],[15.5782916,58.4016449],[15.5782908,58.4016462],[15.5782897,58.4016474],[15.5782884,58.4016485],[15.5782869,58.4016496],[15.5782852,58.4016505],[15.5782833,58.4016514],[15.5782813,58.4016522],[15.5782791,58.4016529],[15.5782769,58.4016535],[15.5782745,58.4016539],[15.578272,58.4016542],[15.5782695,58.4016544],[15.578267,58.4016545]]]]}},
{"type":"Feature","properties":{"felt:feature":26,"felt:color":"#C93535","felt:id":"9AgOCqoGgTnCj1DSU59BgRaA","felt:locked":false,"felt:ordering":1788104434312722,"felt:showArea":false,"felt:type":"Polygon","id":16},"geometry":{"type":"MultiPolygon","coordinates":[[[[15.5785515,58.4021789],[15.578549,58.4021788],[15.5785465,58.4021786],[15.578544,58.4021783],[15.5785416,58.4021779],[15.5785394,58.4021773],[15.5785372,58.4021766],[15.5785352,58.4021758],[15.5785333,58.4021749],[15.5785316,58.402174],[15.5785301,58.4021729],[15.5785288,58.4021718],[15.5785277,58.4021706],[15.5785269,58.4021693],[15.5785262,58.402168],[15.5785259,58.4021667],[15.5785258,58.4021654],[15.5785259,58.4021641],[15.5785262,58.4021628],[15.5785269,58.4021615],[15.5785277,58.4021602],[15.5785288,58.402159],[15.5785301,58.4021579],[15.5785316,58.4021568],[15.5785333,58.4021559],[15.5785352,58.402155],[15.5785372,58.4021542],[15.5785394,58.4021535],[15.5785416,58.4021529],[15.578544,58.4021525],[15.5785465,58.4021522],[15.578549,58.402152],[15.5785515,58.4021519],[15.578554,58.402152],[15.5785565,58.4021522],[15.578559,58.4021525],[15.5785614,58.4021529],[15.5785636,58.4021535],[15.5785658,58.4021542],[15.5785678,58.402155],[15.5785697,58.4021559],[15.5785714,58.4021568],[15.5785729,58.4021579],[15.5785742,58.402159],[15.5785753,58.4021602],[15.5785761,58.4021615],[15.5785768,58.4021628],[15.5785771,58.4021641],[15.5785772,58.4021654],[15.5785771,58.4021667],[15.5785768,58.402168],[15.5785761,58.4021693],[15.5785753,58.4021706],[15.5785742,58.4021718],[15.5785729,58.4021729],[15.5785714,58.402174],[15.5785697,58.4021749],[15.5785678,58.4021758],[15.5785658,58.4021766],[15.5785636,58.4021773],[15.5785614,58.4021779],[15.578559,58.4021783],[15.5785565,58.4021786],[15.578554,58.4021788],[15.5785515,58.4021789]]]]}},
{"type":"Feature","properties":{"felt:feature":27,"felt:color":"#C93535","felt:id":"tAPNvGH2Tg2lmfZUzAbeQA","felt:locked":false,"felt:ordering":1788104449039134,"felt:showArea":false,"felt:type":"Polygon","id":15},"geometry":{"type":"MultiPolygon","coordinates":[[[[15.578624,58.4021796],[15.5786215,58.4021795],[15.578619,58.4021793],[15.5786165,58.402179],[15.5786141,58.4021786],[15.5786119,58.402178],[15.5786097,58.4021773],[15.5786077,58.4021765],[15.5786058,58.4021756],[15.5786041,58.4021747],[15.5786026,58.4021736],[15.5786013,58.4021725],[15.5786002,58.4021713],[15.5785994,58.40217],[15.5785987,58.4021687],[15.5785984,58.4021674],[15.5785983,58.4021661],[15.5785984,58.4021648],[15.5785987,58.4021635],[15.5785994,58.4021622],[15.5786002,58.4021609],[15.5786013,58.4021597],[15.5786026,58.4021586],[15.5786041,58.4021575],[15.5786058,58.4021566],[15.5786077,58.4021557],[15.5786097,58.4021549],[15.5786119,58.4021542],[15.5786141,58.4021536],[15.5786165,58.4021532],[15.578619,58.4021529],[15.5786215,58.4021527],[15.578624,58.4021526],[15.5786265,58.4021527],[15.578629,58.4021529],[15.5786315,58.4021532],[15.5786339,58.4021536],[15.5786361,58.4021542],[15.5786383,58.4021549],[15.5786403,58.4021557],[15.5786422,58.4021566],[15.5786439,58.4021575],[15.5786454,58.4021586],[15.5786467,58.4021597],[15.5786478,58.4021609],[15.5786486,58.4021622],[15.5786493,58.4021635],[15.5786496,58.4021648],[15.5786497,58.4021661],[15.5786496,58.4021674],[15.5786493,58.4021687],[15.5786486,58.40217],[15.5786478,58.4021713],[15.5786467,58.4021725],[15.5786454,58.4021736],[15.5786439,58.4021747],[15.5786422,58.4021756],[15.5786403,58.4021765],[15.5786383,58.4021773],[15.5786361,58.402178],[15.5786339,58.4021786],[15.5786315,58.402179],[15.578629,58.4021793],[15.5786265,58.4021795],[15.578624,58.4021796]]]]}},
{"type":"Feature","properties":{"felt:feature":28,"felt:color":"#C93535","felt:id":"KOVkmcu6TUicVhh9ANjcYKC","felt:locked":false,"felt:ordering":1788104550492555,"felt:showArea":false,"felt:type":"Polygon","id":14},"geometry":{"type":"MultiPolygon","coordinates":[[[[15.5786242,58.4022144],[15.5786217,58.4022143],[15.5786192,58.4022141],[15.5786167,58.4022138],[15.5786143,58.4022134],[15.5786121,58.4022128],[15.5786099,58.4022121],[15.5786079,58.4022113],[15.578606,58.4022104],[15.5786043,58.4022095],[15.5786028,58.4022084],[15.5786015,58.4022073],[15.5786004,58.4022061],[15.5785996,58.4022048],[15.5785989,58.4022035],[15.5785986,58.4022022],[15.5785985,58.4022009],[15.5785986,58.4021996],[15.5785989,58.4021983],[15.5785996,58.402197],[15.5786004,58.4021957],[15.5786015,58.4021945],[15.5786028,58.4021934],[15.5786043,58.4021923],[15.578606,58.4021914],[15.5786079,58.4021905],[15.5786099,58.4021897],[15.5786121,58.402189],[15.5786143,58.4021884],[15.5786167,58.402188],[15.5786192,58.4021877],[15.5786217,58.4021875],[15.5786242,58.4021874],[15.5786267,58.4021875],[15.5786292,58.4021877],[15.5786317,58.402188],[15.5786341,58.4021884],[15.5786363,58.402189],[15.5786385,58.4021897],[15.5786405,58.4021905],[15.5786424,58.4021914],[15.5786441,58.4021923],[15.5786456,58.4021934],[15.5786469,58.4021945],[15.578648,58.4021957],[15.5786488,58.402197],[15.5786495,58.4021983],[15.5786498,58.4021996],[15.5786499,58.4022009],[15.5786498,58.4022022],[15.5786495,58.4022035],[15.5786488,58.4022048],[15.578648,58.4022061],[15.5786469,58.4022073],[15.5786456,58.4022084],[15.5786441,58.4022095],[15.5786424,58.4022104],[15.5786405,58.4022113],[15.5786385,58.4022121],[15.5786363,58.4022128],[15.5786341,58.4022134],[15.5786317,58.4022138],[15.5786292,58.4022141],[15.5786267,58.4022143],[15.5786242,58.4022144]]]]}},
{"type":"Feature","properties":{"felt:feature":29,"felt:color":"#C93535","felt:id":"9CCgPLwMoQGiW9CJQRlgT48D","felt:locked":false,"felt:ordering":1788104646365073,"felt:showArea":false,"felt:type":"Polygon","id":13},"geometry":{"type":"MultiPolygon","coordinates":[[[[15.5789513,58.4022435],[15.5789488,58.4022434],[15.5789463,58.4022432],[15.5789438,58.4022429],[15.5789414,58.4022425],[15.5789392,58.4022419],[15.578937,58.4022412],[15.578935,58.4022404],[15.5789331,58.4022395],[15.5789314,58.4022386],[15.5789299,58.4022375],[15.5789286,58.4022364],[15.5789275,58.4022352],[15.5789267,58.4022339],[15.578926,58.4022326],[15.5789257,58.4022313],[15.5789256,58.40223],[15.5789257,58.4022287],[15.578926,58.4022274],[15.5789267,58.4022261],[15.5789275,58.4022248],[15.5789286,58.4022236],[15.5789299,58.4022225],[15.5789314,58.4022214],[15.5789331,58.4022205],[15.578935,58.4022196],[15.578937,58.4022188],[15.5789392,58.4022181],[15.5789414,58.4022175],[15.5789438,58.4022171],[15.5789463,58.4022168],[15.5789488,58.4022166],[15.5789513,58.4022165],[15.5789538,58.4022166],[15.5789563,58.4022168],[15.5789588,58.4022171],[15.5789612,58.4022175],[15.5789634,58.4022181],[15.5789656,58.4022188],[15.5789676,58.4022196],[15.5789695,58.4022205],[15.5789712,58.4022214],[15.5789727,58.4022225],[15.578974,58.4022236],[15.5789751,58.4022248],[15.5789759,58.4022261],[15.5789766,58.4022274],[15.5789769,58.4022287],[15.578977,58.40223],[15.5789769,58.4022313],[15.5789766,58.4022326],[15.5789759,58.4022339],[15.5789751,58.4022352],[15.578974,58.4022364],[15.5789727,58.4022375],[15.5789712,58.4022386],[15.5789695,58.4022395],[15.5789676,58.4022404],[15.5789656,58.4022412],[15.5789634,58.4022419],[15.5789612,58.4022425],[15.5789588,58.4022429],[15.5789563,58.4022432],[15.5789538,58.4022434],[15.5789513,58.4022435]]]]}},
{"type":"Feature","properties":{"felt:feature":30,"felt:color":"#C93535","felt:id":"lGz4TcXsRySYSlBNfOp6pA","felt:locked":false,"felt:ordering":1788104646365173,"felt:showArea":false,"felt:type":"Polygon","id":12},"geometry":{"type":"MultiPolygon","coordinates":[[[[15.5790247,58.4022435],[15.5790222,58.4022434],[15.5790197,58.4022432],[15.5790172,58.4022429],[15.5790148,58.4022425],[15.5790126,58.4022419],[15.5790104,58.4022412],[15.5790084,58.4022404],[15.5790065,58.4022395],[15.5790048,58.4022386],[15.5790033,58.4022375],[15.579002,58.4022364],[15.5790009,58.4022352],[15.5790001,58.4022339],[15.5789994,58.4022326],[15.5789991,58.4022313],[15.578999,58.40223],[15.5789991,58.4022287],[15.5789994,58.4022274],[15.5790001,58.4022261],[15.5790009,58.4022248],[15.579002,58.4022236],[15.5790033,58.4022225],[15.5790048,58.4022214],[15.5790065,58.4022205],[15.5790084,58.4022196],[15.5790104,58.4022188],[15.5790126,58.4022181],[15.5790148,58.4022175],[15.5790172,58.4022171],[15.5790197,58.4022168],[15.5790222,58.4022166],[15.5790247,58.4022165],[15.5790272,58.4022166],[15.5790297,58.4022168],[15.5790322,58.4022171],[15.5790346,58.4022175],[15.5790368,58.4022181],[15.579039,58.4022188],[15.579041,58.4022196],[15.5790429,58.4022205],[15.5790446,58.4022214],[15.5790461,58.4022225],[15.5790474,58.4022236],[15.5790485,58.4022248],[15.5790493,58.4022261],[15.57905,58.4022274],[15.5790503,58.4022287],[15.5790504,58.40223],[15.5790503,58.4022313],[15.57905,58.4022326],[15.5790493,58.4022339],[15.5790485,58.4022352],[15.5790474,58.4022364],[15.5790461,58.4022375],[15.5790446,58.4022386],[15.5790429,58.4022395],[15.579041,58.4022404],[15.579039,58.4022412],[15.5790368,58.4022419],[15.5790346,58.4022425],[15.5790322,58.4022429],[15.5790297,58.4022432],[15.5790272,58.4022434],[15.5790247,58.4022435]]]]}},
{"type":"Feature","properties":{"felt:feature":31,"felt:color":"#C93535","felt:id":"oLUii64aQhyQDYHUxGuRFA","felt:locked":false,"felt:ordering":1788108207807790,"felt:showArea":false,"felt:type":"Polygon","id":11},"geometry":{"type":"MultiPolygon","coordinates":[[[[15.5790949,58.4022434],[15.5790924,58.4022433],[15.5790899,58.4022431],[15.5790874,58.4022428],[15.579085,58.4022424],[15.5790828,58.4022418],[15.5790806,58.4022411],[15.5790786,58.4022403],[15.5790767,58.4022394],[15.579075,58.4022385],[15.5790735,58.4022374],[15.5790722,58.4022363],[15.5790711,58.4022351],[15.5790703,58.4022338],[15.5790696,58.4022325],[15.5790693,58.4022312],[15.5790692,58.4022299],[15.5790693,58.4022286],[15.5790696,58.4022273],[15.5790703,58.402226],[15.5790711,58.4022247],[15.5790722,58.4022235],[15.5790735,58.4022224],[15.579075,58.4022213],[15.5790767,58.4022204],[15.5790786,58.4022195],[15.5790806,58.4022187],[15.5790828,58.402218],[15.579085,58.4022174],[15.5790874,58.402217],[15.5790899,58.4022167],[15.5790924,58.4022165],[15.5790949,58.4022164],[15.5790974,58.4022165],[15.5790999,58.4022167],[15.5791024,58.402217],[15.5791048,58.4022174],[15.579107,58.402218],[15.5791092,58.4022187],[15.5791112,58.4022195],[15.5791131,58.4022204],[15.5791148,58.4022213],[15.5791163,58.4022224],[15.5791176,58.4022235],[15.5791187,58.4022247],[15.5791195,58.402226],[15.5791202,58.4022273],[15.5791205,58.4022286],[15.5791206,58.4022299],[15.5791205,58.4022312],[15.5791202,58.4022325],[15.5791195,58.4022338],[15.5791187,58.4022351],[15.5791176,58.4022363],[15.5791163,58.4022374],[15.5791148,58.4022385],[15.5791131,58.4022394],[15.5791112,58.4022403],[15.5791092,58.4022411],[15.579107,58.4022418],[15.5791048,58.4022424],[15.5791024,58.4022428],[15.5790999,58.4022431],[15.5790974,58.4022433],[15.5790949,58.4022434]]]]}},
{"type":"Feature","properties":{"felt:feature":32,"felt:color":"#C93535","felt:id":"HDdXBaS3SUmp0tj9Cr9B3GTB","felt:locked":false,"felt:ordering":1788111770589400,"felt:showArea":false,"felt:type":"Polygon","id":1},"geometry":{"type":"MultiPolygon","coordinates":[[[[15.5785164,58.4022716],[15.5785043,58.40227],[15.578495,58.4022656],[15.5784926,58.4022633],[15.5784908,58.4022594],[15.5784911,58.4022555],[15.5784926,58.4022529],[15.5784965,58.4022495],[15.5785021,58.4022469],[15.5785089,58.4022452],[15.5785164,58.4022446],[15.5785239,58.4022452],[15.5785307,58.4022469],[15.5785363,58.4022495],[15.5785402,58.4022529],[15.5785417,58.4022555],[15.578542,58.4022594],[15.5785402,58.4022633],[15.5785378,58.4022656],[15.5785285,58.40227],[15.5785164,58.4022716]]]]}},
{"type":"Feature","properties":{"felt:feature":33,"felt:color":"#C93535","felt:id":"ILGpXLvpTqWrGRZMTJqAEC","felt:locked":false,"felt:ordering":1788111773580971,"felt:showArea":false,"felt:type":"Polygon","id":2},"geometry":{"type":"MultiPolygon","coordinates":[[[[15.5785905,58.4022718],[15.5785784,58.4022702],[15.5785691,58.4022658],[15.5785667,58.4022635],[15.5785649,58.4022596],[15.5785652,58.4022557],[15.5785667,58.4022531],[15.5785706,58.4022497],[15.5785762,58.4022471],[15.578583,58.4022454],[15.5785905,58.4022448],[15.578598,58.4022454],[15.5786048,58.4022471],[15.5786104,58.4022497],[15.5786143,58.4022531],[15.5786158,58.4022557],[15.5786161,58.4022596],[15.5786143,58.4022635],[15.5786119,58.4022658],[15.5786026,58.4022702],[15.5785905,58.4022718]]]]}},
{"type":"Feature","properties":{"felt:feature":34,"felt:color":"#C93535","felt:id":"PwBqXDdDTmmvt8qkUoA7aD","felt:locked":false,"felt:ordering":1788111776433103,"felt:showArea":false,"felt:type":"Polygon","id":3},"geometry":{"type":"MultiPolygon","coordinates":[[[[15.5786638,58.4022718],[15.5786517,58.4022702],[15.5786424,58.4022658],[15.57864,58.4022635],[15.5786382,58.4022596],[15.5786385,58.4022557],[15.57864,58.4022531],[15.5786439,58.4022497],[15.5786495,58.4022471],[15.5786563,58.4022454],[15.5786638,58.4022448],[15.5786713,58.4022454],[15.5786781,58.4022471],[15.5786837,58.4022497],[15.5786876,58.4022531],[15.5786891,58.4022557],[15.5786894,58.4022596],[15.5786876,58.4022635],[15.5786852,58.4022658],[15.5786759,58.4022702],[15.5786638,58.4022718]]]]}},
{"type":"Feature","properties":{"felt:feature":35,"felt:color":"#C93535","felt:id":"viIr9Cr4vT9ACmMkRoIS6rJD","felt:locked":false,"felt:ordering":1788111779244535,"felt:showArea":false,"felt:type":"Polygon","id":4},"geometry":{"type":"MultiPolygon","coordinates":[[[[15.578734,58.4022717],[15.5787219,58.4022701],[15.5787126,58.4022657],[15.5787102,58.4022634],[15.5787084,58.4022595],[15.5787087,58.4022556],[15.5787102,58.402253],[15.5787141,58.4022496],[15.5787197,58.402247],[15.5787265,58.4022453],[15.578734,58.4022447],[15.5787415,58.4022453],[15.5787483,58.402247],[15.5787539,58.4022496],[15.5787578,58.402253],[15.5787593,58.4022556],[15.5787596,58.4022595],[15.5787578,58.4022634],[15.5787554,58.4022657],[15.5787461,58.4022701],[15.578734,58.4022717]]]]}},
{"type":"Feature","properties":{"felt:feature":36,"felt:color":"#C93535","felt:id":"Vk1s7xz9BTlakZ9CRKOaOM8A","felt:locked":false,"felt:ordering":1788111786094076,"felt:showArea":false,"felt:type":"Polygon","id":5},"geometry":{"type":"MultiPolygon","coordinates":[[[[15.5788049,58.4022719],[15.5787928,58.4022703],[15.5787835,58.4022659],[15.5787811,58.4022636],[15.5787793,58.4022597],[15.5787796,58.4022558],[15.5787811,58.4022532],[15.578785,58.4022498],[15.5787906,58.4022472],[15.5787974,58.4022455],[15.5788049,58.4022449],[15.5788124,58.4022455],[15.5788192,58.4022472],[15.5788248,58.4022498],[15.5788287,58.4022532],[15.5788302,58.4022558],[15.5788305,58.4022597],[15.5788287,58.4022636],[15.5788263,58.4022659],[15.578817,58.4022703],[15.5788049,58.4022719]]]]}},
{"type":"Feature","properties":{"felt:feature":37,"felt:color":"#C93535","felt:id":"Wx5b5LRFSNWLvCVd0v2ubC","felt:locked":false,"felt:ordering":1788111792791410,"felt:showArea":false,"felt:type":"Polygon","id":6},"geometry":{"type":"MultiPolygon","coordinates":[[[[15.5789071,58.4022777],[15.578895,58.4022761],[15.5788857,58.4022717],[15.5788833,58.4022694],[15.5788815,58.4022655],[15.5788818,58.4022616],[15.5788833,58.402259],[15.5788872,58.4022556],[15.5788928,58.402253],[15.5788996,58.4022513],[15.5789071,58.4022507],[15.5789146,58.4022513],[15.5789214,58.402253],[15.578927,58.4022556],[15.5789309,58.402259],[15.5789324,58.4022616],[15.5789327,58.4022655],[15.5789309,58.4022694],[15.5789285,58.4022717],[15.5789192,58.4022761],[15.5789071,58.4022777]]]]}},
{"type":"Feature","properties":{"felt:feature":38,"felt:color":"#C93535","felt:id":"MPgB9B5d0S9AW06rOflk2lGB","felt:locked":false,"felt:ordering":1788111795414706,"felt:showArea":false,"felt:type":"Polygon","id":7},"geometry":{"type":"MultiPolygon","coordinates":[[[[15.5789812,58.4022779],[15.5789691,58.4022763],[15.5789598,58.4022719],[15.5789574,58.4022696],[15.5789556,58.4022657],[15.5789559,58.4022618],[15.5789574,58.4022592],[15.5789613,58.4022558],[15.5789669,58.4022532],[15.5789737,58.4022515],[15.5789812,58.4022509],[15.5789887,58.4022515],[15.5789955,58.4022532],[15.5790011,58.4022558],[15.579005,58.4022592],[15.5790065,58.4022618],[15.5790068,58.4022657],[15.579005,58.4022696],[15.5790026,58.4022719],[15.5789933,58.4022763],[15.5789812,58.4022779]]]]}},
{"type":"Feature","properties":{"felt:feature":39,"felt:color":"#C93535","felt:id":"P0D7plGNQl6JKci9BCk8bVB","felt:locked":false,"felt:ordering":1788111798025779,"felt:showArea":false,"felt:type":"Polygon","id":8},"geometry":{"type":"MultiPolygon","coordinates":[[[[15.5790545,58.4022779],[15.5790424,58.4022763],[15.5790331,58.4022719],[15.5790307,58.4022696],[15.5790289,58.4022657],[15.5790292,58.4022618],[15.5790307,58.4022592],[15.5790346,58.4022559],[15.5790402,58.4022533],[15.579047,58.4022516],[15.5790545,58.402251],[15.579062,58.4022516],[15.5790688,58.4022533],[15.5790744,58.4022559],[15.5790783,58.4022592],[15.5790798,58.4022618],[15.5790801,58.4022657],[15.5790783,58.4022696],[15.5790759,58.4022719],[15.5790666,58.4022763],[15.5790545,58.4022779]]]]}},
{"type":"Feature","properties":{"felt:feature":40,"felt:color":"#C93535","felt:id":"zLRiv9CpMR2igi4sdm5jNMC","felt:locked":false,"felt:ordering":1788111800672872,"felt:showArea":false,"felt:type":"Polygon","id":9},"geometry":{"type":"MultiPolygon","coordinates":[[[[15.5791247,58.4022779],[15.5791126,58.4022763],[15.5791033,58.4022719],[15.5791009,58.4022696],[15.5790991,58.4022657],[15.5790994,58.4022618],[15.5791009,58.4022592],[15.5791048,58.4022558],[15.5791104,58.4022532],[15.5791172,58.4022515],[15.5791247,58.4022509],[15.5791322,58.4022515],[15.579139,58.4022532],[15.5791446,58.4022558],[15.5791485,58.4022592],[15.57915,58.4022618],[15.5791503,58.4022657],[15.5791485,58.4022696],[15.5791461,58.4022719],[15.5791368,58.4022763],[15.5791247,58.4022779]]]]}},
{"type":"Feature","properties":{"felt:feature":41,"felt:color":"#C93535","felt:id":"01orhWNvSG6kIxPyaL9BzBB","felt:locked":false,"felt:ordering":1788111848748205,"felt:showArea":false,"felt:type":"Polygon","id":10},"geometry":{"type":"MultiPolygon","coordinates":[[[[15.5791956,58.4022781],[15.5791835,58.4022765],[15.5791742,58.4022721],[15.5791718,58.4022698],[15.57917,58.4022659],[15.5791703,58.402262],[15.5791718,58.4022594],[15.5791757,58.402256],[15.5791813,58.4022534],[15.5791881,58.4022517],[15.5791956,58.4022511],[15.5792031,58.4022517],[15.5792099,58.4022534],[15.5792155,58.402256],[15.5792194,58.4022594],[15.5792209,58.402262],[15.5792212,58.4022659],[15.5792194,58.4022698],[15.579217,58.4022721],[15.5792077,58.4022765],[15.5791956,58.4022781]]]]}},
{"type":"Feature","properties":{"felt:feature":42,"felt:color":"#C93535","felt:id":"yROx0Xd9CSpafaTPIzSTCbD","felt:locked":false,"felt:ordering":1788111897180897,"felt:showArea":false,"felt:type":"Polygon","id":39},"geometry":{"type":"MultiPolygon","coordinates":[[[[15.5791283,58.4015475],[15.5791162,58.4015459],[15.5791069,58.4015415],[15.5791045,58.4015392],[15.5791027,58.4015353],[15.579103,58.4015314],[15.5791045,58.4015288],[15.5791084,58.4015254],[15.579114,58.4015228],[15.5791208,58.4015211],[15.5791283,58.4015205],[15.5791358,58.4015211],[15.5791426,58.4015228],[15.5791482,58.4015254],[15.5791521,58.4015288],[15.5791536,58.4015314],[15.5791539,58.4015353],[15.5791521,58.4015392],[15.5791497,58.4015415],[15.5791404,58.4015459],[15.5791283,58.4015475]]]]}},
{"type":"Feature","properties":{"felt:feature":43,"felt:color":"#C93535","felt:id":"CCysSYPyRQ9B0kyH9AThWwEC","felt:locked":false,"felt:ordering":1788111900454670,"felt:showArea":false,"felt:type":"Polygon","id":40},"geometry":{"type":"MultiPolygon","coordinates":[[[[15.5792015,58.4015547],[15.5791894,58.4015531],[15.5791801,58.4015487],[15.5791777,58.4015464],[15.5791759,58.4015425],[15.5791762,58.4015386],[15.5791777,58.401536],[15.5791816,58.4015326],[15.5791872,58.40153],[15.579194,58.4015283],[15.5792015,58.4015277],[15.579209,58.4015283],[15.5792158,58.40153],[15.5792214,58.4015326],[15.5792253,58.401536],[15.5792268,58.4015386],[15.5792271,58.4015425],[15.5792253,58.4015464],[15.5792229,58.4015487],[15.5792136,58.4015531],[15.5792015,58.4015547]]]]}},
{"type":"Feature","properties":{"felt:feature":44,"felt:color":"#C93535","felt:id":"BTZ3G9A0bTCS0Q2aMi0luNB","felt:locked":false,"felt:ordering":1788111905459856,"felt:showArea":false,"felt:type":"Polygon","id":41},"geometry":{"type":"MultiPolygon","coordinates":[[[[15.5792718,58.4015617],[15.5792597,58.4015601],[15.5792504,58.4015557],[15.579248,58.4015534],[15.5792462,58.4015495],[15.5792465,58.4015456],[15.579248,58.401543],[15.5792519,58.4015396],[15.5792575,58.401537],[15.5792643,58.4015353],[15.5792718,58.4015347],[15.5792793,58.4015353],[15.5792861,58.401537],[15.5792917,58.4015396],[15.5792956,58.401543],[15.5792971,58.4015456],[15.5792974,58.4015495],[15.5792956,58.4015534],[15.5792932,58.4015557],[15.5792839,58.4015601],[15.5792718,58.4015617]]]]}},
{"type":"Feature","properties":{"felt:feature":45,"felt:color":"#C93535","felt:id":"Q3IP6mtpQkacA9A7fUujH2A","felt:locked":false,"felt:ordering":1788111909846448,"felt:showArea":false,"felt:type":"Polygon","id":42},"geometry":{"type":"MultiPolygon","coordinates":[[[[15.579383,58.4015904],[15.5793709,58.4015888],[15.5793616,58.4015844],[15.5793592,58.4015821],[15.5793574,58.4015782],[15.5793577,58.4015743],[15.5793592,58.4015717],[15.5793631,58.4015683],[15.5793687,58.4015657],[15.5793755,58.401564],[15.579383,58.4015634],[15.5793905,58.401564],[15.5793973,58.4015657],[15.5794029,58.4015683],[15.5794068,58.4015717],[15.5794083,58.4015743],[15.5794086,58.4015782],[15.5794068,58.4015821],[15.5794044,58.4015844],[15.5793951,58.4015888],[15.579383,58.4015904]]]]}},
{"type":"Feature","properties":{"felt:feature":46,"felt:color":"#C93535","felt:id":"avqFvrgfSQeVpYzVNEiaqB","felt:locked":false,"felt:ordering":1788111912093373,"felt:showArea":false,"felt:type":"Polygon","id":43},"geometry":{"type":"MultiPolygon","coordinates":[[[[15.5794551,58.4015966],[15.579443,58.401595],[15.5794337,58.4015906],[15.5794313,58.4015883],[15.5794295,58.4015844],[15.5794298,58.4015805],[15.5794313,58.4015779],[15.5794352,58.4015745],[15.5794408,58.4015719],[15.5794476,58.4015702],[15.5794551,58.4015696],[15.5794626,58.4015702],[15.5794694,58.4015719],[15.579475,58.4015745],[15.5794789,58.4015779],[15.5794804,58.4015805],[15.5794807,58.4015844],[15.5794789,58.4015883],[15.5794765,58.4015906],[15.5794672,58.401595],[15.5794551,58.4015966]]]]}},
{"type":"Feature","properties":{"felt:feature":47,"felt:color":"#C93535","felt:id":"gZMFHwHFSNeZsJ1Ieb5RPB","felt:locked":false,"felt:ordering":1788111913247175,"felt:showArea":false,"felt:type":"Polygon","id":44},"geometry":{"type":"MultiPolygon","coordinates":[[[[15.5795281,58.4016032],[15.579516,58.4016016],[15.5795067,58.4015972],[15.5795043,58.4015949],[15.5795025,58.401591],[15.5795028,58.4015871],[15.5795043,58.4015845],[15.5795082,58.4015811],[15.5795138,58.4015785],[15.5795206,58.4015768],[15.5795281,58.4015762],[15.5795356,58.4015768],[15.5795424,58.4015785],[15.579548,58.4015811],[15.5795519,58.4015845],[15.5795534,58.4015871],[15.5795537,58.401591],[15.5795519,58.4015949],[15.5795495,58.4015972],[15.5795402,58.4016016],[15.5795281,58.4016032]]]]}}
]
}
