{
"type": "FeatureCollection",
"name": "parsed",
"crs": { "type": "name", "properties": { "name": "urn:ogc:def:crs:OGC:1.3:CRS84" } },
"xy_coordinate_resolution": 1e-07,
"features": [
{"type":"Feature","properties":{"felt:feature":1,"name":"ACAS","felt:color":"#C93535","felt:fillOpacity":null,"felt:id":"6mWw9AQJWQkGstDnf6AoKqB","felt:locked":false,"felt:ordering":1788013077246381,"felt:showArea":false,"felt:strokeStyle":null,"felt:strokeWidth":null,"felt:type":"Polygon"},"geometry":{"type":"MultiPolygon","coordinates":[[[[15.5769748,58.4018681],[15.5769758,58.4018019],[15.5770064,58.4018019],[15.5770064,58.4017868],[15.5771585,58.4017868],[15.5771823,58.4017989],[15.5771823,58.4018954],[15.5770272,58.4018954],[15.5769748,58.4018681]]]]}},
{"type":"Feature","properties":{"felt:feature":2,"name":"A2","felt:color":"#C93535","felt:fillOpacity":0.25,"felt:id":"wERiCcUdRRaM6AFadzqdoD","felt:locked":false,"felt:ordering":1788013089263336,"felt:showArea":false,"felt:strokeStyle":"solid","felt:strokeWidth":2,"felt:type":"Polygon"},"geometry":{"type":"MultiPolygon","coordinates":[[[[15.5769717,58.4021116],[15.5769717,58.402005],[15.5773155,58.4020051],[15.5773142,58.4021121],[15.5769717,58.4021116]]]]}},
{"type":"Feature","properties":{"felt:feature":3,"name":"A1","felt:color":"#C93535","felt:fillOpacity":0.25,"felt:id":"WofWpVOwSWaijI2sHetcyD","felt:locked":false,"felt:ordering":1788014360488365,"felt:showArea":false,"felt:strokeStyle":"solid","felt:strokeWidth":2,"felt:type":"Polygon"},"geometry":{"type":"MultiPolygon","coordinates":[[[[15.5765564,58.4017853],[15.5765564,58.4016755],[15.5768698,58.4016755],[15.5768698,58.4017853],[15.5765564,58.4017853]]]]}},
{"type":"Feature","properties":{"felt:feature":4,"name":"AG357","felt:color":"#C93535","felt:fillOpacity":0.25,"felt:id":"JEHMDgb9BRtOmZwUH5B9AnuD","felt:locked":false,"felt:ordering":1788015631713726,"felt:showArea":false,"felt:strokeStyle":"solid","felt:strokeWidth":2,"felt:type":"Polygon"},"geometry":{"type":"MultiPolygon","coordinates":[[[[15.5769716,58.4021883],[15.5769716,58.4022203],[15.5768949,58.4022203],[15.5768949,58.4021883],[15.5769716,58.4021883]]]]}},
{"type":"Feature","properties":{"felt:feature":5,"name":"AG356","felt:color":"#C93535","felt:fillOpacity":0.25,"felt:id":"2FhubnkuTkWg7VpIWcQVXD","felt:locked":false,"felt:ordering":1788015631714308,"felt:showArea":false,"felt:strokeStyle":"solid","felt:strokeWidth":2,"felt:type":"Polygon"},"geometry":{"type":"MultiPolygon","coordinates":[[[[15.5769716,58.4021563],[15.5769716,58.4021882],[15.5768949,58.4021882],[15.5768949,58.4021563],[15.5769716,58.4021563]]]]}},
{"type":"Feature","properties":{"felt:feature":6,"name":"AG36","felt:color":"#C93535","felt:fillOpacity":0.25,"felt:id":"vXwkS9AfNQIe61WI1Y9BYbsD","felt:locked":false,"felt:ordering":1788015631714598,"felt:showArea":false,"felt:strokeStyle":"solid","felt:strokeWidth":2,"felt:type":"Polygon"},"geometry":{"type":"MultiPolygon","coordinates":[[[[15.5770461,58.4021116],[15.5770461,58.4021551],[15.5769717,58.4021551],[15.5769717,58.4021116],[15.5770461,58.4021116]]]]}},
{"type":"Feature","properties":{"felt:feature":7,"name":"AG354","felt:color":"#C93535","felt:fillOpacity":0.25,"felt:id":"ApcA1jtgQvS2boCxBy9Bx3D","felt:locked":false,"felt:ordering":1788015631714664,"felt:showArea":false,"felt:strokeStyle":"solid","felt:strokeWidth":2,"felt:type":"Polygon"},"geometry":{"type":"MultiPolygon","coordinates":[[[[15.5769717,58.4020923],[15.5769717,58.4021242],[15.5768949,58.4021242],[15.5768949,58.4020923],[15.5769717,58.4020923]]]]}},
{"type":"Feature","properties":{"felt:feature":8,"name":"AG355","felt:color":"#C93535","felt:fillOpacity":0.25,"felt:id":"wQCFIQLySHC9CoVlCbpNL6D","felt:locked":false,"felt:ordering":1788015631714984,"felt:showArea":false,"felt:strokeStyle":"solid","felt:strokeWidth":2,"felt:type":"Polygon"},"geometry":{"type":"MultiPolygon","coordinates":[[[[15.5769717,58.4021243],[15.5769717,58.4021562],[15.5768949,58.4021562],[15.5768949,58.4021243],[15.5769717,58.4021243]]]]}},
{"type":"Feature","properties":{"felt:feature":9,"name":"AG353","felt:color":"#C93535","felt:fillOpacity":0.25,"felt:id":"x3qCRXoHTQe4vN5aGP8wmB","felt:locked":false,"felt:ordering":1788015631715284,"felt:showArea":false,"felt:strokeStyle":"solid","felt:strokeWidth":2,"felt:type":"Polygon"},"geometry":{"type":"MultiPolygon","coordinates":[[[[15.5771131,58.4021118],[15.5771131,58.4021553],[15.577046,58.4021553],[15.577046,58.4021118],[15.5771131,58.4021118]]]]}},
{"type":"Feature","properties":{"felt:feature":10,"name":"AG351","felt:color":"#C93535","felt:fillOpacity":0.25,"felt:id":"HExPHKQ7TbGZxRECn6Me2D","felt:locked":false,"felt:ordering":1788015631715290,"felt:showArea":false,"felt:strokeStyle":"solid","felt:strokeWidth":2,"felt:type":"Polygon"},"geometry":{"type":"MultiPolygon","coordinates":[[[[15.577247,58.402112],[15.577247,58.4021555],[15.57718,58.4021555],[15.57718,58.402112],[15.577247,58.402112]]]]}},
{"type":"Feature","properties":{"felt:feature":11,"name":"AG350","felt:color":"#C93535","felt:fillOpacity":0.25,"felt:id":"1doSYhgvSJuBD9BhETSF6lD","felt:locked":false,"felt:ordering":1788015631715591,"felt:showArea":false,"felt:strokeStyle":"solid","felt:strokeWidth":2,"felt:type":"Polygon"},"geometry":{"type":"MultiPolygon","coordinates":[[[[15.5773142,58.402112],[15.5773142,58.4021555],[15.5772472,58.4021555],[15.5772472,58.402112],[15.5773142,58.402112]]]]}},
{"type":"Feature","properties":{"felt:feature":12,"name":"AG352","felt:color":"#C93535","felt:fillOpacity":0.25,"felt:id":"mA4LgaatRxu2soyvMxGjjD","felt:locked":false,"felt:ordering":1788015631716033,"felt:showArea":false,"felt:strokeStyle":"solid","felt:strokeWidth":2,"felt:type":"Polygon"},"geometry":{"type":"MultiPolygon","coordinates":[[[[15.5771799,58.4021118],[15.5771799,58.4021553],[15.5771129,58.4021553],[15.5771129,58.4021118],[15.5771799,58.4021118]]]]}},
{"type":"Feature","properties":{"felt:feature":13,"name":"AG343","felt:color":"#C93535","felt:fillOpacity":0.25,"felt:id":"J9CWqgy1RTym70jy3eGss1C","felt:locked":false,"felt:ordering":1788015631716254,"felt:showArea":false,"felt:strokeStyle":"solid","felt:strokeWidth":2,"felt:type":"Polygon"},"geometry":{"type":"MultiPolygon","coordinates":[[[[15.5771164,58.4017173],[15.5771164,58.4016759],[15.5771897,58.4016759],[15.5771897,58.4017173],[15.5771164,58.4017173]]]]}},
{"type":"Feature","properties":{"felt:feature":14,"name":"AG342","felt:color":"#C93535","felt:fillOpacity":0.25,"felt:id":"v2nsYvcBR9AWCcJn9CW9AgnFA","felt:locked":false,"felt:ordering":1788015631716390,"felt:showArea":false,"felt:strokeStyle":"solid","felt:strokeWidth":2,"felt:type":"Polygon"},"geometry":{"type":"MultiPolygon","coordinates":[[[[15.5771896,58.4017174],[15.5771896,58.4016759],[15.5772578,58.4016759],[15.5772578,58.4017174],[15.5771896,58.4017174]]]]}},
{"type":"Feature","properties":{"felt:feature":15,"name":"AG344","felt:color":"#C93535","felt:fillOpacity":0.25,"felt:id":"9AwSo2apCSne2JFGTXHPk1D","felt:locked":false,"felt:ordering":1788015631716491,"felt:showArea":false,"felt:strokeStyle":"solid","felt:strokeWidth":2,"felt:type":"Polygon"},"geometry":{"type":"MultiPolygon","coordinates":[[[[15.5770432,58.4017174],[15.5770432,58.4016759],[15.5771165,58.4016759],[15.5771165,58.4017174],[15.5770432,58.4017174]]]]}},
{"type":"Feature","properties":{"felt:feature":16,"name":"AG341","felt:color":"#C93535","felt:fillOpacity":0.25,"felt:id":"o6rb48zMTVqq9CDkFFl3a1D","felt:locked":false,"felt:ordering":1788015631716774,"felt:showArea":false,"felt:strokeStyle":"solid","felt:strokeWidth":2,"felt:type":"Polygon"},"geometry":{"type":"MultiPolygon","coordinates":[[[[15.577258,58.4017174],[15.577258,58.401676],[15.57732,58.401676],[15.57732,58.4017174],[15.577258,58.4017174]]]]}},
{"type":"Feature","properties":{"felt:feature":17,"name":"A33","felt:color":"#C93535","felt:fillOpacity":0.25,"felt:id":"rJol7RmpQXizY9AR8WGj9BFA","felt:locked":false,"felt:ordering":1788015631717022,"felt:showArea":false,"felt:strokeStyle":"solid","felt:strokeWidth":2,"felt:type":"Polygon"},"geometry":{"type":"MultiPolygon","coordinates":[[[[15.5763729,58.4015385],[15.5763729,58.4014551],[15.5765107,58.4014551],[15.5765107,58.4015385],[15.5763729,58.4015385]]]]}},
{"type":"Feature","properties":{"felt:feature":18,"name":"AG345","felt:color":"#C93535","felt:fillOpacity":0.25,"felt:id":"Q5tt8AwqQxKn5XcxEZtGmB","felt:locked":false,"felt:ordering":1788015631717081,"felt:showArea":false,"felt:strokeStyle":"solid","felt:strokeWidth":2,"felt:type":"Polygon"},"geometry":{"type":"MultiPolygon","coordinates":[[[[15.576977,58.4017173],[15.576977,58.4016759],[15.5770433,58.4016759],[15.5770433,58.4017173],[15.576977,58.4017173]]]]}},
{"type":"Feature","properties":{"felt:feature":19,"name":"AG347","felt:color":"#C93535","felt:fillOpacity":0.25,"felt:id":"uS4kvkKMSN6R0fsvuwQD5D","felt:locked":false,"felt:ordering":1788015631717296,"felt:showArea":false,"felt:strokeStyle":"solid","felt:strokeWidth":2,"felt:type":"Polygon"},"geometry":{"type":"MultiPolygon","coordinates":[[[[15.5769755,58.401764],[15.5769755,58.4017964],[15.5768997,58.4017964],[15.5768997,58.401764],[15.5769755,58.401764]]]]}},
{"type":"Feature","properties":{"felt:feature":20,"name":"AG346","felt:color":"#C93535","felt:fillOpacity":0.25,"felt:id":"7VgkrzAKQSevkGn7lB09CLA","felt:locked":false,"felt:ordering":1788015631717510,"felt:showArea":false,"felt:strokeStyle":"solid","felt:strokeWidth":2,"felt:type":"Polygon"},"geometry":{"type":"MultiPolygon","coordinates":[[[[15.5769756,58.4017317],[15.5769756,58.4017641],[15.5768998,58.4017641],[15.5768998,58.4017317],[15.5769756,58.4017317]]]]}},
{"type":"Feature","properties":{"felt:feature":21,"name":"AG348","felt:color":"#C93535","felt:fillOpacity":0.25,"felt:id":"OuNVGPM1Rve0d9CLVXgy5jD","felt:locked":false,"felt:ordering":1788015631717573,"felt:showArea":false,"felt:strokeStyle":"solid","felt:strokeWidth":2,"felt:type":"Polygon"},"geometry":{"type":"MultiPolygon","coordinates":[[[[15.5769754,58.4017964],[15.5769754,58.4018288],[15.5768997,58.4018288],[15.5768997,58.4017964],[15.5769754,58.4017964]]]]}},
{"type":"Feature","properties":{"felt:feature":22,"name":"AG349","felt:color":"#C93535","felt:fillOpacity":0.25,"felt:id":"E6NJ3tk9BRmma9CRqqu1U3tC","felt:locked":false,"felt:ordering":1788015631717845,"felt:showArea":false,"felt:strokeStyle":"solid","felt:strokeWidth":2,"felt:type":"Polygon"},"geometry":{"type":"MultiPolygon","coordinates":[[[[15.5769747,58.4018628],[15.5769747,58.4018952],[15.5768989,58.4018952],[15.5768989,58.4018628],[15.5769747,58.4018628]]]]}},
{"type":"Feature","properties":{"felt:feature":23,"name":"A34","felt:color":"#C93535","felt:fillOpacity":0.25,"felt:id":"HdJrkv9BbSoizVmdAuAgYpC","felt:locked":false,"felt:ordering":1788015631718192,"felt:showArea":false,"felt:strokeStyle":"solid","felt:strokeWidth":2,"felt:type":"Polygon"},"geometry":{"type":"MultiPolygon","coordinates":[[[[15.5762434,58.4015384],[15.5762434,58.401455],[15.5763729,58.401455],[15.5763729,58.4015384],[15.5762434,58.4015384]]]]}},
{"type":"Feature","properties":{"felt:feature":24,"name":"AG35","felt:color":"#C93535","felt:fillOpacity":0.25,"felt:id":"Zx77Cut3TLi62jFoWxyQcC","felt:locked":false,"felt:ordering":1788015631718296,"felt:showArea":false,"felt:strokeStyle":"solid","felt:strokeWidth":2,"felt:type":"Polygon"},"geometry":{"type":"MultiPolygon","coordinates":[[[[15.5766684,58.4012692],[15.5766684,58.4013085],[15.5765946,58.4013085],[15.5765946,58.4012692],[15.5766684,58.4012692]]]]}},
{"type":"Feature","properties":{"felt:feature":25,"name":"AG34","felt:color":"#C93535","felt:fillOpacity":0.25,"felt:id":"uIG7jVjHSY21WUrKFfkgRC","felt:locked":false,"felt:ordering":1788015631718355,"felt:showArea":false,"felt:strokeStyle":"solid","felt:strokeWidth":2,"felt:type":"Polygon"},"geometry":{"type":"MultiPolygon","coordinates":[[[[15.5766684,58.4012298],[15.5766684,58.4012692],[15.5765947,58.4012692],[15.5765947,58.4012298],[15.5766684,58.4012298]]]]}},
{"type":"Feature","properties":{"felt:feature":26,"name":"AG37","felt:color":"#C93535","felt:fillOpacity":0.25,"felt:id":"WcWvqIHDRrqD4VdcJdzJqB","felt:locked":false,"felt:ordering":1788015631718417,"felt:showArea":false,"felt:strokeStyle":"solid","felt:strokeWidth":2,"felt:type":"Polygon"},"geometry":{"type":"MultiPolygon","coordinates":[[[[15.5763007,58.4013798],[15.5763849,58.4013798],[15.5763849,58.4014332],[15.5763007,58.4014332],[15.5763007,58.4013798]]]]}},
{"type":"Feature","properties":{"felt:feature":27,"name":"A302","felt:color":"#C93535","felt:fillOpacity":0.25,"felt:id":"QSKnfpLzTQK1mqBbJs9Bp9AC","felt:locked":false,"felt:ordering":1788015631718560,"felt:showArea":false,"felt:strokeStyle":"solid","felt:strokeWidth":2,"felt:type":"Polygon"},"geometry":{"type":"MultiPolygon","coordinates":[[[[15.5761554,58.4015384],[15.5761554,58.401455],[15.5762433,58.401455],[15.5762433,58.4015384],[15.5761554,58.4015384]]]]}},
{"type":"Feature","properties":{"felt:feature":28,"name":"A301","felt:color":"#C93535","felt:fillOpacity":0.25,"felt:id":"9BFC5OfWYQ69BSYWgwynxu2A","felt:locked":false,"felt:ordering":1788015631718939,"felt:showArea":false,"felt:strokeStyle":"solid","felt:strokeWidth":2,"felt:type":"Polygon"},"geometry":{"type":"MultiPolygon","coordinates":[[[[15.5763849,58.4013798],[15.5765112,58.4013798],[15.5765112,58.4014333],[15.5763849,58.4014333],[15.5763849,58.4013798]]]]}},
{"type":"Feature","properties":{"felt:feature":29,"name":"AG31","felt:color":"#C93535","felt:fillOpacity":0.25,"felt:id":"f9AhZ0G7ORciTSB9CUY9BV1ED","felt:locked":false,"felt:ordering":1788015631719229,"felt:showArea":false,"felt:strokeStyle":"solid","felt:strokeWidth":2,"felt:type":"Polygon"},"geometry":{"type":"MultiPolygon","coordinates":[[[[15.5766684,58.4011121],[15.5766684,58.4011514],[15.5765947,58.4011514],[15.5765947,58.4011121],[15.5766684,58.4011121]]]]}},
{"type":"Feature","properties":{"felt:feature":30,"name":"AG32","felt:color":"#C93535","felt:fillOpacity":0.25,"felt:id":"7ONW9AIP4TPaHVqV6lSoiTD","felt:locked":false,"felt:ordering":1788015631719324,"felt:showArea":false,"felt:strokeStyle":"solid","felt:strokeWidth":2,"felt:type":"Polygon"},"geometry":{"type":"MultiPolygon","coordinates":[[[[15.5766685,58.4011513],[15.5766685,58.4011907],[15.5765947,58.4011907],[15.5765947,58.4011513],[15.5766685,58.4011513]]]]}},
{"type":"Feature","properties":{"felt:feature":31,"name":"AG33","felt:color":"#C93535","felt:fillOpacity":0.25,"felt:id":"3BQDm9AgrT9BSQajdo9CAPfOB","felt:locked":false,"felt:ordering":1788015631724386,"felt:showArea":false,"felt:strokeStyle":"solid","felt:strokeWidth":2,"felt:type":"Polygon"},"geometry":{"type":"MultiPolygon","coordinates":[[[[15.5766684,58.4011906],[15.5766684,58.4012299],[15.5765947,58.4012299],[15.5765947,58.4011906],[15.5766684,58.4011906]]]]}}
]
}
