{
"type": "FeatureCollection",
"name": "parsed",
"crs": { "type": "name", "properties": { "name": "urn:ogc:def:crs:OGC:1.3:CRS84" } },
"xy_coordinate_resolution": 1e-07,
"features": [
{"type":"Feature","properties":{"felt:feature":1,"name":"ACAS","felt:color":"#C93535","felt:fillOpacity":null,"felt:id":"ns9CGYps4Thq2E9BLkSX7ZKB","felt:locked":false,"felt:ordering":1788013077246381,"felt:showArea":false,"felt:strokeStyle":null,"felt:strokeWidth":null,"felt:type":"Polygon"},"geometry":{"type":"MultiPolygon","coordinates":[[[[15.5769748,58.4018681],[15.5769758,58.4018019],[15.5770064,58.4018019],[15.5770064,58.4017868],[15.5771585,58.4017868],[15.5771823,58.4017989],[15.5771823,58.4018954],[15.5770272,58.4018954],[15.5769748,58.4018681]]]]}},
{"type":"Feature","properties":{"felt:feature":2,"name":"A2","felt:color":"#C93535","felt:fillOpacity":0.25,"felt:id":"JaT2t69CaQKSwWnbOoixr8B","felt:locked":false,"felt:ordering":1788013089263336,"felt:showArea":false,"felt:strokeStyle":"solid","felt:strokeWidth":2,"felt:type":"Polygon"},"geometry":{"type":"MultiPolygon","coordinates":[[[[15.5769717,58.4021116],[15.5769717,58.402005],[15.5772795,58.402005],[15.5772795,58.4021116],[15.5769717,58.4021116]]]]}},
{"type":"Feature","properties":{"felt:feature":3,"name":"A1","felt:color":"#C93535","felt:fillOpacity":0.25,"felt:id":"qm729BX9ClTSmv2MTyTIuPgC","felt:locked":false,"felt:ordering":1788013089263861,"felt:showArea":false,"felt:strokeStyle":"solid","felt:strokeWidth":2,"felt:type":"Polygon"},"geometry":{"type":"MultiPolygon","coordinates":[[[[15.5765564,58.4017853],[15.5765564,58.4016755],[15.5768698,58.4016755],[15.5768698,58.4017853],[15.5765564,58.4017853]]]]}},
{"type":"Feature","properties":{"felt:feature":4,"name":"AG25","felt:color":"#C93535","felt:fillOpacity":0.25,"felt:id":"RGHMBalcTdexSJDk06gjEA","felt:locked":false,"felt:ordering":1788013089264392,"felt:showArea":false,"felt:strokeStyle":"solid","felt:strokeWidth":2,"felt:type":"Polygon"},"geometry":{"type":"MultiPolygon","coordinates":[[[[15.5768068,58.4014697],[15.5768068,58.401397],[15.5768798,58.401397],[15.5768798,58.4014697],[15.5768068,58.4014697]]]]}},
{"type":"Feature","properties":{"felt:feature":5,"name":"AG261","felt:color":"#C93535","felt:fillOpacity":0.25,"felt:id":"fKO89A59C2Slqrq5VjSaMmuB","felt:locked":false,"felt:ordering":1788013089264424,"felt:showArea":false,"felt:strokeStyle":"solid","felt:strokeWidth":2,"felt:type":"Polygon"},"geometry":{"type":"MultiPolygon","coordinates":[[[[15.5773066,58.4018962],[15.5773066,58.4018635],[15.5773789,58.4018635],[15.5773789,58.4018962],[15.5773066,58.4018962]]]]}},
{"type":"Feature","properties":{"felt:feature":6,"name":"AG27","felt:color":"#C93535","felt:fillOpacity":0.25,"felt:id":"DfMhnKSpTfqIXTUdTEh9BaD","felt:locked":false,"felt:ordering":1788013089264615,"felt:showArea":false,"felt:strokeStyle":"solid","felt:strokeWidth":2,"felt:type":"Polygon"},"geometry":{"type":"MultiPolygon","coordinates":[[[[15.5766608,58.4014697],[15.5766608,58.401397],[15.5767338,58.401397],[15.5767338,58.4014697],[15.5766608,58.4014697]]]]}},
{"type":"Feature","properties":{"felt:feature":7,"name":"AG26","felt:color":"#C93535","felt:fillOpacity":0.25,"felt:id":"9A5md0hq4SISKo0yICo9BT0B","felt:locked":false,"felt:ordering":1788013089264810,"felt:showArea":false,"felt:strokeStyle":"solid","felt:strokeWidth":2,"felt:type":"Polygon"},"geometry":{"type":"MultiPolygon","coordinates":[[[[15.5767337,58.4014697],[15.5767337,58.401397],[15.5768067,58.401397],[15.5768067,58.4014697],[15.5767337,58.4014697]]]]}},
{"type":"Feature","properties":{"felt:feature":8,"name":"AG28","felt:color":"#C93535","felt:fillOpacity":0.25,"felt:id":"oC0sdOjAQH6JiY8uS28wDC","felt:locked":false,"felt:ordering":1788013089264906,"felt:showArea":false,"felt:strokeStyle":"solid","felt:strokeWidth":2,"felt:type":"Polygon"},"geometry":{"type":"MultiPolygon","coordinates":[[[[15.5765877,58.4014697],[15.5765877,58.401397],[15.5766608,58.401397],[15.5766608,58.4014697],[15.5765877,58.4014697]]]]}},
{"type":"Feature","properties":{"felt:feature":9,"name":"AG262","felt:color":"#C93535","felt:fillOpacity":0.25,"felt:id":"Db6XtKW9BQ5uNEvDi9CkzXrC","felt:locked":false,"felt:ordering":1788013089265021,"felt:showArea":false,"felt:strokeStyle":"solid","felt:strokeWidth":2,"felt:type":"Polygon"},"geometry":{"type":"MultiPolygon","coordinates":[[[[15.5773066,58.4018635],[15.5773066,58.4018307],[15.577379,58.4018307],[15.577379,58.4018635],[15.5773066,58.4018635]]]]}},
{"type":"Feature","properties":{"felt:feature":10,"name":"AG264","felt:color":"#C93535","felt:fillOpacity":0.25,"felt:id":"Rf1NDu9AXTReEHkIvXx6G2A","felt:locked":false,"felt:ordering":1788013089265152,"felt:showArea":false,"felt:strokeStyle":"solid","felt:strokeWidth":2,"felt:type":"Polygon"},"geometry":{"type":"MultiPolygon","coordinates":[[[[15.57712,58.4017184],[15.57712,58.4016766],[15.5771852,58.4016766],[15.5771852,58.4017184],[15.57712,58.4017184]]]]}},
{"type":"Feature","properties":{"felt:feature":11,"name":"AG21","felt:color":"#C93535","felt:fillOpacity":0.25,"felt:id":"oYiaK9AaCR0Of5qxK8DBevC","felt:locked":false,"felt:ordering":1788013089265304,"felt:showArea":false,"felt:strokeStyle":"solid","felt:strokeWidth":2,"felt:type":"Polygon"},"geometry":{"type":"MultiPolygon","coordinates":[[[[15.5769751,58.4017184],[15.5769751,58.4016766],[15.5770548,58.4016766],[15.5770548,58.4017184],[15.5769751,58.4017184]]]]}},
{"type":"Feature","properties":{"felt:feature":12,"name":"AG23","felt:color":"#C93535","felt:fillOpacity":0.25,"felt:id":"9A3rtcpFiSsmViywevec7vA","felt:locked":false,"felt:ordering":1788013089265445,"felt:showArea":false,"felt:strokeStyle":"solid","felt:strokeWidth":2,"felt:type":"Polygon"},"geometry":{"type":"MultiPolygon","coordinates":[[[[15.5771822,58.4018959],[15.5771822,58.4018413],[15.5772468,58.4018413],[15.5772468,58.4018959],[15.5771822,58.4018959]]]]}},
{"type":"Feature","properties":{"felt:feature":13,"name":"AG263","felt:color":"#C93535","felt:fillOpacity":0.25,"felt:id":"dEgkWGf3SruuRe7SCE9BnQC","felt:locked":false,"felt:ordering":1788013089265540,"felt:showArea":false,"felt:strokeStyle":"solid","felt:strokeWidth":2,"felt:type":"Polygon"},"geometry":{"type":"MultiPolygon","coordinates":[[[[15.5771852,58.4017184],[15.5771852,58.4016766],[15.5772504,58.4016766],[15.5772504,58.4017184],[15.5771852,58.4017184]]]]}},
{"type":"Feature","properties":{"felt:feature":14,"name":"AG266","felt:color":"#C93535","felt:fillOpacity":0.25,"felt:id":"dVxSX9Bb0TOK8Z6wZTo6yjB","felt:locked":false,"felt:ordering":1788013089265579,"felt:showArea":false,"felt:strokeStyle":"solid","felt:strokeWidth":2,"felt:type":"Polygon"},"geometry":{"type":"MultiPolygon","coordinates":[[[[15.5769227,58.4017862],[15.5769227,58.401744],[15.5769738,58.401744],[15.5769738,58.4017862],[15.5769227,58.4017862]]]]}},
{"type":"Feature","properties":{"felt:feature":15,"name":"AG265","felt:color":"#C93535","felt:fillOpacity":0.25,"felt:id":"tMi1rGnaQl9B7Kzgmjt83pB","felt:locked":false,"felt:ordering":1788013089265790,"felt:showArea":false,"felt:strokeStyle":"solid","felt:strokeWidth":2,"felt:type":"Polygon"},"geometry":{"type":"MultiPolygon","coordinates":[[[[15.5770548,58.4017184],[15.5770548,58.4016766],[15.57712,58.4016766],[15.57712,58.4017184],[15.5770548,58.4017184]]]]}},
{"type":"Feature","properties":{"felt:feature":16,"name":"AG22","felt:color":"#C93535","felt:fillOpacity":0.25,"felt:id":"qV8EQaMzTI6oFJTWzIr3iC","felt:locked":false,"felt:ordering":1788013089266033,"felt:showArea":false,"felt:strokeStyle":"solid","felt:strokeWidth":2,"felt:type":"Polygon"},"geometry":{"type":"MultiPolygon","coordinates":[[[[15.5771823,58.4018413],[15.5771823,58.4017867],[15.5772468,58.4017867],[15.5772468,58.4018413],[15.5771823,58.4018413]]]]}},
{"type":"Feature","properties":{"felt:feature":17,"name":"AG270","felt:color":"#C93535","felt:fillOpacity":0.25,"felt:id":"VbXpWCB6QCug7fORXrZYbB","felt:locked":false,"felt:ordering":1788013089266132,"felt:showArea":false,"felt:strokeStyle":"solid","felt:strokeWidth":2,"felt:type":"Polygon"},"geometry":{"type":"MultiPolygon","coordinates":[[[[15.576919,58.4021523],[15.576919,58.4021116],[15.5769832,58.4021116],[15.5769832,58.4021523],[15.576919,58.4021523]]]]}},
{"type":"Feature","properties":{"felt:feature":18,"name":"AG271","felt:color":"#C93535","felt:fillOpacity":0.25,"felt:id":"BOL1EzHyRGGfmCEQvkg9CwD","felt:locked":false,"felt:ordering":1788013089266191,"felt:showArea":false,"felt:strokeStyle":"solid","felt:strokeWidth":2,"felt:type":"Polygon"},"geometry":{"type":"MultiPolygon","coordinates":[[[[15.5769189,58.4022173],[15.5769189,58.4021766],[15.5769831,58.4021766],[15.5769831,58.4022173],[15.5769189,58.4022173]]]]}},
{"type":"Feature","properties":{"felt:feature":19,"name":"AG269","felt:color":"#C93535","felt:fillOpacity":0.25,"felt:id":"vbgZKIqdTTKcRgb3jIDsDB","felt:locked":false,"felt:ordering":1788013089266361,"felt:showArea":false,"felt:strokeStyle":"solid","felt:strokeWidth":2,"felt:type":"Polygon"},"geometry":{"type":"MultiPolygon","coordinates":[[[[15.5769833,58.4021523],[15.5769833,58.4021116],[15.5770474,58.4021116],[15.5770474,58.4021523],[15.5769833,58.4021523]]]]}},
{"type":"Feature","properties":{"felt:feature":20,"name":"AG268","felt:color":"#C93535","felt:fillOpacity":0.25,"felt:id":"ySzZn4MLQpSCWABUPCgUBB","felt:locked":false,"felt:ordering":1788013089266681,"felt:showArea":false,"felt:strokeStyle":"solid","felt:strokeWidth":2,"felt:type":"Polygon"},"geometry":{"type":"MultiPolygon","coordinates":[[[[15.5770474,58.4021522],[15.5770474,58.4021116],[15.5771116,58.4021116],[15.5771116,58.4021522],[15.5770474,58.4021522]]]]}},
{"type":"Feature","properties":{"felt:feature":21,"name":"AG267","felt:color":"#C93535","felt:fillOpacity":0.25,"felt:id":"XEQtnb17SnGSc8ZgPOXVLB","felt:locked":false,"felt:ordering":1788013089266900,"felt:showArea":false,"felt:strokeStyle":"solid","felt:strokeWidth":2,"felt:type":"Polygon"},"geometry":{"type":"MultiPolygon","coordinates":[[[[15.5771116,58.4021522],[15.5771116,58.4021116],[15.5771758,58.4021116],[15.5771758,58.4021522],[15.5771116,58.4021522]]]]}},
{"type":"Feature","properties":{"felt:feature":22,"name":"AG24","felt:color":"#C93535","felt:fillOpacity":0.25,"felt:id":"bMaK1RJwSt9BR9CWAiKU2fxA","felt:locked":false,"felt:ordering":1788013089271956,"felt:showArea":false,"felt:strokeStyle":"solid","felt:strokeWidth":2,"felt:type":"Polygon"},"geometry":{"type":"MultiPolygon","coordinates":[[[[15.5771758,58.4021522],[15.5771758,58.4021115],[15.5772793,58.4021115],[15.5772793,58.4021522],[15.5771758,58.4021522]]]]}}
]
}
