{
"type": "FeatureCollection",
"name": "parsed",
"crs": { "type": "name", "properties": { "name": "urn:ogc:def:crs:OGC:1.3:CRS84" } },
"xy_coordinate_resolution": 1e-07,
"features": [
{"type":"Feature","properties":{"felt:feature":1,"name":"Info","felt:color":"#C93535","felt:fillOpacity":0.25,"felt:id":"Ao57HFzYT9BWLvbYKkk69C8D","felt:locked":false,"felt:ordering":1788080402881612,"felt:position":[15.5783788,58.40163],"felt:radius":2.0781862066589176,"felt:radiusDisplayAngle":112.974460349369,"felt:radiusDisplayUnit":null,"felt:showRadius":false,"felt:strokeOpacity":1,"felt:strokeStyle":"solid","felt:strokeWidth":2,"felt:type":"Circle"},"geometry":{"type":"MultiPolygon","coordinates":[[[[15.5783788,58.4016487],[15.5783753,58.4016486],[15.5783718,58.4016483],[15.5783684,58.4016479],[15.5783651,58.4016473],[15.578362,58.4016465],[15.578359,58.4016455],[15.5783562,58.4016444],[15.5783536,58.4016432],[15.5783512,58.4016419],[15.5783491,58.4016404],[15.5783473,58.4016388],[15.5783458,58.4016372],[15.5783447,58.4016354],[15.5783438,58.4016336],[15.5783433,58.4016318],[15.5783431,58.40163],[15.5783433,58.4016282],[15.5783438,58.4016264],[15.5783447,58.4016246],[15.5783458,58.4016228],[15.5783473,58.4016212],[15.5783491,58.4016196],[15.5783512,58.4016181],[15.5783536,58.4016168],[15.5783562,58.4016156],[15.578359,58.4016145],[15.578362,58.4016135],[15.5783651,58.4016127],[15.5783684,58.4016121],[15.5783718,58.4016117],[15.5783753,58.4016114],[15.5783788,58.4016113],[15.5783823,58.4016114],[15.5783858,58.4016117],[15.5783892,58.4016121],[15.5783925,58.4016127],[15.5783956,58.4016135],[15.5783986,58.4016145],[15.5784014,58.4016156],[15.578404,58.4016168],[15.5784064,58.4016181],[15.5784085,58.4016196],[15.5784103,58.4016212],[15.5784118,58.4016228],[15.5784129,58.4016246],[15.5784138,58.4016264],[15.5784143,58.4016282],[15.5784145,58.40163],[15.5784143,58.4016318],[15.5784138,58.4016336],[15.5784129,58.4016354],[15.5784118,58.4016372],[15.5784103,58.4016388],[15.5784085,58.4016404],[15.5784064,58.4016419],[15.578404,58.4016432],[15.5784014,58.4016444],[15.5783986,58.4016455],[15.5783956,58.4016465],[15.5783925,58.4016473],[15.5783892,58.4016479],[15.5783858,58.4016483],[15.5783823,58.4016486],[15.5783788,58.4016487]]]]}},
{"type":"Feature","properties":{"felt:feature":2,"name":"Info","felt:color":"#C93535","felt:fillOpacity":0.25,"felt:id":"nuBHtVz9ASd9B2XCCwKHbaLD","felt:locked":false,"felt:ordering":1788080624263952,"felt:position":[15.5771527,58.4019341],"felt:radius":2.0781862066589176,"felt:radiusDisplayAngle":112.974460349369,"felt:radiusDisplayUnit":null,"felt:showRadius":false,"felt:strokeOpacity":1,"felt:strokeStyle":"solid","felt:strokeWidth":2,"felt:type":"Circle"},"geometry":{"type":"MultiPolygon","coordinates":[[[[15.5771527,58.4019528],[15.5771492,58.4019527],[15.5771457,58.4019524],[15.5771423,58.401952],[15.577139,58.4019514],[15.5771359,58.4019506],[15.5771329,58.4019496],[15.5771301,58.4019485],[15.5771275,58.4019473],[15.5771251,58.401946],[15.577123,58.4019445],[15.5771212,58.4019429],[15.5771197,58.4019413],[15.5771186,58.4019395],[15.5771177,58.4019377],[15.5771172,58.4019359],[15.577117,58.4019341],[15.5771172,58.4019323],[15.5771177,58.4019305],[15.5771186,58.4019287],[15.5771197,58.4019269],[15.5771212,58.4019253],[15.577123,58.4019237],[15.5771251,58.4019222],[15.5771275,58.4019209],[15.5771301,58.4019197],[15.5771329,58.4019186],[15.5771359,58.4019176],[15.577139,58.4019168],[15.5771423,58.4019162],[15.5771457,58.4019158],[15.5771492,58.4019155],[15.5771527,58.4019154],[15.5771562,58.4019155],[15.5771597,58.4019158],[15.5771631,58.4019162],[15.5771664,58.4019168],[15.5771695,58.4019176],[15.5771725,58.4019186],[15.5771753,58.4019197],[15.5771779,58.4019209],[15.5771803,58.4019222],[15.5771824,58.4019237],[15.5771842,58.4019253],[15.5771857,58.4019269],[15.5771868,58.4019287],[15.5771877,58.4019305],[15.5771882,58.4019323],[15.5771884,58.4019341],[15.5771882,58.4019359],[15.5771877,58.4019377],[15.5771868,58.4019395],[15.5771857,58.4019413],[15.5771842,58.4019429],[15.5771824,58.4019445],[15.5771803,58.401946],[15.5771779,58.4019473],[15.5771753,58.4019485],[15.5771725,58.4019496],[15.5771695,58.4019506],[15.5771664,58.4019514],[15.5771631,58.401952],[15.5771597,58.4019524],[15.5771562,58.4019527],[15.5771527,58.4019528]]]]}}
]
}
